<?xml version="1.0" encoding="UTF-8"?>
<gpx xmlns="http://www.topografix.com/GPX/1/1" xmlns:gpxtpx="http://www.garmin.com/xmlschemas/TrackPointExtension/v1" xmlns:xsi="http://www.w3.org/2001/XMLSchema-instance" xsi:schemaLocation="http://www.topografix.com/GPX/1/1 http://www.topografix.com/GPX/1/1/gpx.xsd" version="1.1" creator="gpx.py -- https://github.com/tkrajina/gpxpy">
  <trk>
    <name>晚上跑步</name>
    <type>running</type>
    <trkseg>
      <trkpt lat="34.58672" lon="112.558273">
        <ele>-9999.9</ele>
        <time>2026-08-10T12:57:28Z</time>
      </trkpt>
      <trkpt lat="34.58664" lon="112.558175">
        <ele>-9999.9</ele>
        <time>2026-08-10T12:57:31Z</time>
      </trkpt>
      <trkpt lat="34.586585" lon="112.558165">
        <ele>-9999.9</ele>
        <time>2026-08-10T12:57:34Z</time>
      </trkpt>
      <trkpt lat="34.586476" lon="112.558129">
        <ele>-9999.9</ele>
        <time>2026-08-10T12:57:37Z</time>
      </trkpt>
      <trkpt lat="34.586382" lon="112.558106">
        <ele>-9999.9</ele>
        <time>2026-08-10T12:57:40Z</time>
      </trkpt>
      <trkpt lat="34.586277" lon="112.558064">
        <ele>-9999.9</ele>
        <time>2026-08-10T12:57:43Z</time>
      </trkpt>
      <trkpt lat="34.586209" lon="112.558044">
        <ele>-9999.9</ele>
        <time>2026-08-10T12:57:46Z</time>
      </trkpt>
      <trkpt lat="34.586019" lon="112.557994">
        <ele>-9999.9</ele>
        <time>2026-08-10T12:57:50Z</time>
      </trkpt>
      <trkpt lat="34.585903" lon="112.557967">
        <ele>-9999.9</ele>
        <time>2026-08-10T12:57:53Z</time>
      </trkpt>
      <trkpt lat="34.585832" lon="112.557957">
        <ele>-9999.9</ele>
        <time>2026-08-10T12:57:56Z</time>
      </trkpt>
      <trkpt lat="34.585701" lon="112.557948">
        <ele>-9999.9</ele>
        <time>2026-08-10T12:57:59Z</time>
      </trkpt>
      <trkpt lat="34.585622" lon="112.557974">
        <ele>-9999.9</ele>
        <time>2026-08-10T12:58:02Z</time>
      </trkpt>
      <trkpt lat="34.585562" lon="112.55803">
        <ele>-9999.9</ele>
        <time>2026-08-10T12:58:05Z</time>
      </trkpt>
      <trkpt lat="34.585519" lon="112.558111">
        <ele>-9999.9</ele>
        <time>2026-08-10T12:58:08Z</time>
      </trkpt>
      <trkpt lat="34.585493" lon="112.558221">
        <ele>-9999.9</ele>
        <time>2026-08-10T12:58:11Z</time>
      </trkpt>
      <trkpt lat="34.585494" lon="112.558351">
        <ele>-9999.9</ele>
        <time>2026-08-10T12:58:14Z</time>
      </trkpt>
      <trkpt lat="34.585497" lon="112.558434">
        <ele>-9999.9</ele>
        <time>2026-08-10T12:58:17Z</time>
      </trkpt>
      <trkpt lat="34.585537" lon="112.558578">
        <ele>-9999.9</ele>
        <time>2026-08-10T12:58:20Z</time>
      </trkpt>
      <trkpt lat="34.585595" lon="112.55865">
        <ele>-9999.9</ele>
        <time>2026-08-10T12:58:23Z</time>
      </trkpt>
      <trkpt lat="34.585673" lon="112.558691">
        <ele>-9999.9</ele>
        <time>2026-08-10T12:58:26Z</time>
      </trkpt>
      <trkpt lat="34.585737" lon="112.558717">
        <ele>-9999.9</ele>
        <time>2026-08-10T12:58:29Z</time>
      </trkpt>
      <trkpt lat="34.58589" lon="112.558782">
        <ele>-9999.9</ele>
        <time>2026-08-10T12:58:32Z</time>
      </trkpt>
      <trkpt lat="34.585997" lon="112.558845">
        <ele>-9999.9</ele>
        <time>2026-08-10T12:58:35Z</time>
      </trkpt>
      <trkpt lat="34.586223" lon="112.55891">
        <ele>-9999.9</ele>
        <time>2026-08-10T12:58:41Z</time>
      </trkpt>
      <trkpt lat="34.58639" lon="112.558923">
        <ele>-9999.9</ele>
        <time>2026-08-10T12:58:44Z</time>
      </trkpt>
      <trkpt lat="34.5865" lon="112.558942">
        <ele>-9999.9</ele>
        <time>2026-08-10T12:58:47Z</time>
      </trkpt>
      <trkpt lat="34.586566" lon="112.558945">
        <ele>-9999.9</ele>
        <time>2026-08-10T12:58:50Z</time>
      </trkpt>
      <trkpt lat="34.586663" lon="112.558948">
        <ele>-9999.9</ele>
        <time>2026-08-10T12:58:53Z</time>
      </trkpt>
      <trkpt lat="34.586795" lon="112.558954">
        <ele>-9999.9</ele>
        <time>2026-08-10T12:58:56Z</time>
      </trkpt>
      <trkpt lat="34.586888" lon="112.55894">
        <ele>-9999.9</ele>
        <time>2026-08-10T12:58:59Z</time>
      </trkpt>
      <trkpt lat="34.586944" lon="112.55892">
        <ele>-9999.9</ele>
        <time>2026-08-10T12:59:01Z</time>
      </trkpt>
      <trkpt lat="34.587016" lon="112.558871">
        <ele>-9999.9</ele>
        <time>2026-08-10T12:59:04Z</time>
      </trkpt>
      <trkpt lat="34.587052" lon="112.558771">
        <ele>-9999.9</ele>
        <time>2026-08-10T12:59:07Z</time>
      </trkpt>
      <trkpt lat="34.587073" lon="112.558674">
        <ele>-9999.9</ele>
        <time>2026-08-10T12:59:10Z</time>
      </trkpt>
      <trkpt lat="34.587083" lon="112.558577">
        <ele>-9999.9</ele>
        <time>2026-08-10T12:59:13Z</time>
      </trkpt>
      <trkpt lat="34.587073" lon="112.558456">
        <ele>-9999.9</ele>
        <time>2026-08-10T12:59:16Z</time>
      </trkpt>
      <trkpt lat="34.587047" lon="112.558326">
        <ele>-9999.9</ele>
        <time>2026-08-10T12:59:19Z</time>
      </trkpt>
      <trkpt lat="34.586973" lon="112.558188">
        <ele>-9999.9</ele>
        <time>2026-08-10T12:59:22Z</time>
      </trkpt>
      <trkpt lat="34.586894" lon="112.558089">
        <ele>-9999.9</ele>
        <time>2026-08-10T12:59:25Z</time>
      </trkpt>
      <trkpt lat="34.586809" lon="112.558027">
        <ele>-9999.9</ele>
        <time>2026-08-10T12:59:28Z</time>
      </trkpt>
      <trkpt lat="34.586722" lon="112.558002">
        <ele>-9999.9</ele>
        <time>2026-08-10T12:59:31Z</time>
      </trkpt>
      <trkpt lat="34.58664" lon="112.557993">
        <ele>-9999.9</ele>
        <time>2026-08-10T12:59:34Z</time>
      </trkpt>
      <trkpt lat="34.586563" lon="112.558002">
        <ele>-9999.9</ele>
        <time>2026-08-10T12:59:37Z</time>
      </trkpt>
      <trkpt lat="34.586492" lon="112.55802">
        <ele>-9999.9</ele>
        <time>2026-08-10T12:59:40Z</time>
      </trkpt>
      <trkpt lat="34.586435" lon="112.558041">
        <ele>-9999.9</ele>
        <time>2026-08-10T12:59:43Z</time>
      </trkpt>
      <trkpt lat="34.586409" lon="112.558056">
        <ele>-9999.9</ele>
        <time>2026-08-10T12:59:46Z</time>
      </trkpt>
      <trkpt lat="34.586339" lon="112.557919">
        <ele>-9999.9</ele>
        <time>2026-08-10T12:59:55Z</time>
      </trkpt>
      <trkpt lat="34.586338" lon="112.557883">
        <ele>-9999.9</ele>
        <time>2026-08-10T12:59:58Z</time>
      </trkpt>
      <trkpt lat="34.586328" lon="112.557848">
        <ele>-9999.9</ele>
        <time>2026-08-10T13:00:01Z</time>
      </trkpt>
      <trkpt lat="34.586317" lon="112.557835">
        <ele>-9999.9</ele>
        <time>2026-08-10T13:00:04Z</time>
      </trkpt>
      <trkpt lat="34.586298" lon="112.557829">
        <ele>-9999.9</ele>
        <time>2026-08-10T13:00:07Z</time>
      </trkpt>
      <trkpt lat="34.586267" lon="112.557836">
        <ele>-9999.9</ele>
        <time>2026-08-10T13:00:10Z</time>
      </trkpt>
      <trkpt lat="34.586234" lon="112.557849">
        <ele>-9999.9</ele>
        <time>2026-08-10T13:00:13Z</time>
      </trkpt>
      <trkpt lat="34.586193" lon="112.557859">
        <ele>-9999.9</ele>
        <time>2026-08-10T13:00:16Z</time>
      </trkpt>
      <trkpt lat="34.586158" lon="112.557865">
        <ele>-9999.9</ele>
        <time>2026-08-10T13:00:19Z</time>
      </trkpt>
      <trkpt lat="34.586048" lon="112.557867">
        <ele>-9999.9</ele>
        <time>2026-08-10T13:00:22Z</time>
      </trkpt>
      <trkpt lat="34.585936" lon="112.557869">
        <ele>-9999.9</ele>
        <time>2026-08-10T13:00:25Z</time>
      </trkpt>
      <trkpt lat="34.585815" lon="112.557875">
        <ele>-9999.9</ele>
        <time>2026-08-10T13:00:28Z</time>
      </trkpt>
      <trkpt lat="34.585737" lon="112.557884">
        <ele>-9999.9</ele>
        <time>2026-08-10T13:00:31Z</time>
      </trkpt>
      <trkpt lat="34.585602" lon="112.557933">
        <ele>-9999.9</ele>
        <time>2026-08-10T13:00:34Z</time>
      </trkpt>
      <trkpt lat="34.58552" lon="112.558011">
        <ele>-9999.9</ele>
        <time>2026-08-10T13:00:37Z</time>
      </trkpt>
      <trkpt lat="34.58546" lon="112.558123">
        <ele>-9999.9</ele>
        <time>2026-08-10T13:00:40Z</time>
      </trkpt>
      <trkpt lat="34.58543" lon="112.558207">
        <ele>-9999.9</ele>
        <time>2026-08-10T13:00:43Z</time>
      </trkpt>
      <trkpt lat="34.585403" lon="112.558387">
        <ele>-9999.9</ele>
        <time>2026-08-10T13:00:46Z</time>
      </trkpt>
      <trkpt lat="34.585425" lon="112.558511">
        <ele>-9999.9</ele>
        <time>2026-08-10T13:00:49Z</time>
      </trkpt>
      <trkpt lat="34.585486" lon="112.558614">
        <ele>-9999.9</ele>
        <time>2026-08-10T13:00:52Z</time>
      </trkpt>
      <trkpt lat="34.585551" lon="112.558669">
        <ele>-9999.9</ele>
        <time>2026-08-10T13:00:55Z</time>
      </trkpt>
      <trkpt lat="34.585726" lon="112.558758">
        <ele>-9999.9</ele>
        <time>2026-08-10T13:00:58Z</time>
      </trkpt>
      <trkpt lat="34.585885" lon="112.558809">
        <ele>-9999.9</ele>
        <time>2026-08-10T13:01:01Z</time>
      </trkpt>
      <trkpt lat="34.586226" lon="112.558857">
        <ele>-9999.9</ele>
        <time>2026-08-10T13:01:08Z</time>
      </trkpt>
      <trkpt lat="34.586379" lon="112.558864">
        <ele>-9999.9</ele>
        <time>2026-08-10T13:01:11Z</time>
      </trkpt>
      <trkpt lat="34.586519" lon="112.558851">
        <ele>-9999.9</ele>
        <time>2026-08-10T13:01:14Z</time>
      </trkpt>
      <trkpt lat="34.586608" lon="112.558839">
        <ele>-9999.9</ele>
        <time>2026-08-10T13:01:17Z</time>
      </trkpt>
      <trkpt lat="34.586768" lon="112.558818">
        <ele>-9999.9</ele>
        <time>2026-08-10T13:01:20Z</time>
      </trkpt>
      <trkpt lat="34.586879" lon="112.558806">
        <ele>-9999.9</ele>
        <time>2026-08-10T13:01:23Z</time>
      </trkpt>
      <trkpt lat="34.586978" lon="112.558773">
        <ele>-9999.9</ele>
        <time>2026-08-10T13:01:26Z</time>
      </trkpt>
      <trkpt lat="34.587052" lon="112.558711">
        <ele>-9999.9</ele>
        <time>2026-08-10T13:01:29Z</time>
      </trkpt>
      <trkpt lat="34.587112" lon="112.558625">
        <ele>-9999.9</ele>
        <time>2026-08-10T13:01:32Z</time>
      </trkpt>
      <trkpt lat="34.587083" lon="112.55845">
        <ele>-9999.9</ele>
        <time>2026-08-10T13:01:35Z</time>
      </trkpt>
      <trkpt lat="34.587049" lon="112.558351">
        <ele>-9999.9</ele>
        <time>2026-08-10T13:01:38Z</time>
      </trkpt>
      <trkpt lat="34.586961" lon="112.558185">
        <ele>-9999.9</ele>
        <time>2026-08-10T13:01:41Z</time>
      </trkpt>
      <trkpt lat="34.586873" lon="112.55809">
        <ele>-9999.9</ele>
        <time>2026-08-10T13:01:44Z</time>
      </trkpt>
      <trkpt lat="34.586768" lon="112.558029">
        <ele>-9999.9</ele>
        <time>2026-08-10T13:01:47Z</time>
      </trkpt>
      <trkpt lat="34.586699" lon="112.558006">
        <ele>-9999.9</ele>
        <time>2026-08-10T13:01:50Z</time>
      </trkpt>
      <trkpt lat="34.586548" lon="112.557904">
        <ele>-9999.9</ele>
        <time>2026-08-10T13:01:53Z</time>
      </trkpt>
      <trkpt lat="34.586427" lon="112.557865">
        <ele>-9999.9</ele>
        <time>2026-08-10T13:01:56Z</time>
      </trkpt>
      <trkpt lat="34.58632" lon="112.55784">
        <ele>-9999.9</ele>
        <time>2026-08-10T13:01:59Z</time>
      </trkpt>
      <trkpt lat="34.586251" lon="112.557836">
        <ele>-9999.9</ele>
        <time>2026-08-10T13:02:02Z</time>
      </trkpt>
      <trkpt lat="34.586118" lon="112.557833">
        <ele>-9999.9</ele>
        <time>2026-08-10T13:02:05Z</time>
      </trkpt>
      <trkpt lat="34.586026" lon="112.557839">
        <ele>-9999.9</ele>
        <time>2026-08-10T13:02:08Z</time>
      </trkpt>
      <trkpt lat="34.585975" lon="112.557844">
        <ele>-9999.9</ele>
        <time>2026-08-10T13:02:11Z</time>
      </trkpt>
      <trkpt lat="34.585903" lon="112.557851">
        <ele>-9999.9</ele>
        <time>2026-08-10T13:02:14Z</time>
      </trkpt>
      <trkpt lat="34.585811" lon="112.557856">
        <ele>-9999.9</ele>
        <time>2026-08-10T13:02:17Z</time>
      </trkpt>
      <trkpt lat="34.585762" lon="112.557861">
        <ele>-9999.9</ele>
        <time>2026-08-10T13:02:19Z</time>
      </trkpt>
      <trkpt lat="34.585714" lon="112.557872">
        <ele>-9999.9</ele>
        <time>2026-08-10T13:02:22Z</time>
      </trkpt>
      <trkpt lat="34.585636" lon="112.557922">
        <ele>-9999.9</ele>
        <time>2026-08-10T13:02:25Z</time>
      </trkpt>
      <trkpt lat="34.585584" lon="112.557992">
        <ele>-9999.9</ele>
        <time>2026-08-10T13:02:28Z</time>
      </trkpt>
      <trkpt lat="34.585524" lon="112.558063">
        <ele>-9999.9</ele>
        <time>2026-08-10T13:02:31Z</time>
      </trkpt>
      <trkpt lat="34.585478" lon="112.558173">
        <ele>-9999.9</ele>
        <time>2026-08-10T13:02:34Z</time>
      </trkpt>
      <trkpt lat="34.585439" lon="112.558276">
        <ele>-9999.9</ele>
        <time>2026-08-10T13:02:37Z</time>
      </trkpt>
      <trkpt lat="34.585431" lon="112.558377">
        <ele>-9999.9</ele>
        <time>2026-08-10T13:02:40Z</time>
      </trkpt>
      <trkpt lat="34.585445" lon="112.558468">
        <ele>-9999.9</ele>
        <time>2026-08-10T13:02:43Z</time>
      </trkpt>
      <trkpt lat="34.585478" lon="112.558552">
        <ele>-9999.9</ele>
        <time>2026-08-10T13:02:46Z</time>
      </trkpt>
      <trkpt lat="34.585549" lon="112.558627">
        <ele>-9999.9</ele>
        <time>2026-08-10T13:02:49Z</time>
      </trkpt>
      <trkpt lat="34.585629" lon="112.558696">
        <ele>-9999.9</ele>
        <time>2026-08-10T13:02:52Z</time>
      </trkpt>
      <trkpt lat="34.585708" lon="112.558767">
        <ele>-9999.9</ele>
        <time>2026-08-10T13:02:55Z</time>
      </trkpt>
      <trkpt lat="34.585822" lon="112.558836">
        <ele>-9999.9</ele>
        <time>2026-08-10T13:02:58Z</time>
      </trkpt>
      <trkpt lat="34.585976" lon="112.558904">
        <ele>-9999.9</ele>
        <time>2026-08-10T13:03:01Z</time>
      </trkpt>
      <trkpt lat="34.58611" lon="112.558901">
        <ele>-9999.9</ele>
        <time>2026-08-10T13:03:04Z</time>
      </trkpt>
      <trkpt lat="34.586187" lon="112.558883">
        <ele>-9999.9</ele>
        <time>2026-08-10T13:03:07Z</time>
      </trkpt>
      <trkpt lat="34.586349" lon="112.558825">
        <ele>-9999.9</ele>
        <time>2026-08-10T13:03:10Z</time>
      </trkpt>
      <trkpt lat="34.586459" lon="112.558769">
        <ele>-9999.9</ele>
        <time>2026-08-10T13:03:13Z</time>
      </trkpt>
      <trkpt lat="34.586561" lon="112.558726">
        <ele>-9999.9</ele>
        <time>2026-08-10T13:03:16Z</time>
      </trkpt>
      <trkpt lat="34.586632" lon="112.558706">
        <ele>-9999.9</ele>
        <time>2026-08-10T13:03:19Z</time>
      </trkpt>
      <trkpt lat="34.586774" lon="112.558668">
        <ele>-9999.9</ele>
        <time>2026-08-10T13:03:22Z</time>
      </trkpt>
      <trkpt lat="34.586868" lon="112.558621">
        <ele>-9999.9</ele>
        <time>2026-08-10T13:03:25Z</time>
      </trkpt>
      <trkpt lat="34.58694" lon="112.558536">
        <ele>-9999.9</ele>
        <time>2026-08-10T13:03:28Z</time>
      </trkpt>
      <trkpt lat="34.586975" lon="112.558466">
        <ele>-9999.9</ele>
        <time>2026-08-10T13:03:31Z</time>
      </trkpt>
      <trkpt lat="34.587007" lon="112.5583">
        <ele>-9999.9</ele>
        <time>2026-08-10T13:03:34Z</time>
      </trkpt>
      <trkpt lat="34.586994" lon="112.558158">
        <ele>-9999.9</ele>
        <time>2026-08-10T13:03:37Z</time>
      </trkpt>
      <trkpt lat="34.586952" lon="112.558028">
        <ele>-9999.9</ele>
        <time>2026-08-10T13:03:41Z</time>
      </trkpt>
      <trkpt lat="34.586855" lon="112.5579">
        <ele>-9999.9</ele>
        <time>2026-08-10T13:03:44Z</time>
      </trkpt>
      <trkpt lat="34.586765" lon="112.557839">
        <ele>-9999.9</ele>
        <time>2026-08-10T13:03:47Z</time>
      </trkpt>
      <trkpt lat="34.58667" lon="112.557802">
        <ele>-9999.9</ele>
        <time>2026-08-10T13:03:50Z</time>
      </trkpt>
      <trkpt lat="34.58661" lon="112.55779">
        <ele>-9999.9</ele>
        <time>2026-08-10T13:03:53Z</time>
      </trkpt>
    </trkseg>
  </trk>
</gpx>