<?xml version="1.0" encoding="UTF-8"?>
<gpx xmlns="http://www.topografix.com/GPX/1/1" xmlns:gpxtpx="http://www.garmin.com/xmlschemas/TrackPointExtension/v1" xmlns:xsi="http://www.w3.org/2001/XMLSchema-instance" xsi:schemaLocation="http://www.topografix.com/GPX/1/1 http://www.topografix.com/GPX/1/1/gpx.xsd" version="1.1" creator="gpx.py -- https://github.com/tkrajina/gpxpy">
  <trk>
    <name>傍晚跑步</name>
    <type>running</type>
    <trkseg>
      <trkpt lat="34.592938" lon="112.49598">
        <ele>-9999.9</ele>
        <time>2026-08-15T10:36:32Z</time>
      </trkpt>
      <trkpt lat="34.592897" lon="112.495987">
        <ele>-9999.9</ele>
        <time>2026-08-15T10:36:34Z</time>
      </trkpt>
      <trkpt lat="34.592813" lon="112.495893">
        <ele>-9999.9</ele>
        <time>2026-08-15T10:36:37Z</time>
      </trkpt>
      <trkpt lat="34.592749" lon="112.495816">
        <ele>-9999.9</ele>
        <time>2026-08-15T10:36:40Z</time>
      </trkpt>
      <trkpt lat="34.592679" lon="112.495741">
        <ele>-9999.9</ele>
        <time>2026-08-15T10:36:43Z</time>
      </trkpt>
      <trkpt lat="34.592607" lon="112.49566">
        <ele>-9999.9</ele>
        <time>2026-08-15T10:36:46Z</time>
      </trkpt>
      <trkpt lat="34.592547" lon="112.495583">
        <ele>-9999.9</ele>
        <time>2026-08-15T10:36:49Z</time>
      </trkpt>
      <trkpt lat="34.592498" lon="112.495519">
        <ele>-9999.9</ele>
        <time>2026-08-15T10:36:52Z</time>
      </trkpt>
      <trkpt lat="34.592461" lon="112.495474">
        <ele>-9999.9</ele>
        <time>2026-08-15T10:36:55Z</time>
      </trkpt>
      <trkpt lat="34.592427" lon="112.495436">
        <ele>-9999.9</ele>
        <time>2026-08-15T10:36:58Z</time>
      </trkpt>
      <trkpt lat="34.592404" lon="112.495399">
        <ele>-9999.9</ele>
        <time>2026-08-15T10:37:01Z</time>
      </trkpt>
      <trkpt lat="34.592381" lon="112.495353">
        <ele>-9999.9</ele>
        <time>2026-08-15T10:37:04Z</time>
      </trkpt>
      <trkpt lat="34.592354" lon="112.49529">
        <ele>-9999.9</ele>
        <time>2026-08-15T10:37:07Z</time>
      </trkpt>
      <trkpt lat="34.592316" lon="112.495213">
        <ele>-9999.9</ele>
        <time>2026-08-15T10:37:10Z</time>
      </trkpt>
      <trkpt lat="34.592267" lon="112.495118">
        <ele>-9999.9</ele>
        <time>2026-08-15T10:37:14Z</time>
      </trkpt>
      <trkpt lat="34.592237" lon="112.495071">
        <ele>-9999.9</ele>
        <time>2026-08-15T10:37:17Z</time>
      </trkpt>
      <trkpt lat="34.592184" lon="112.495005">
        <ele>-9999.9</ele>
        <time>2026-08-15T10:37:20Z</time>
      </trkpt>
      <trkpt lat="34.592118" lon="112.494941">
        <ele>-9999.9</ele>
        <time>2026-08-15T10:37:22Z</time>
      </trkpt>
      <trkpt lat="34.59205" lon="112.494885">
        <ele>-9999.9</ele>
        <time>2026-08-15T10:37:25Z</time>
      </trkpt>
      <trkpt lat="34.591977" lon="112.494841">
        <ele>-9999.9</ele>
        <time>2026-08-15T10:37:29Z</time>
      </trkpt>
      <trkpt lat="34.591903" lon="112.494803">
        <ele>-9999.9</ele>
        <time>2026-08-15T10:37:32Z</time>
      </trkpt>
      <trkpt lat="34.591823" lon="112.494739">
        <ele>-9999.9</ele>
        <time>2026-08-15T10:37:35Z</time>
      </trkpt>
      <trkpt lat="34.591767" lon="112.494701">
        <ele>-9999.9</ele>
        <time>2026-08-15T10:37:38Z</time>
      </trkpt>
      <trkpt lat="34.591732" lon="112.494675">
        <ele>-9999.9</ele>
        <time>2026-08-15T10:37:41Z</time>
      </trkpt>
      <trkpt lat="34.591677" lon="112.494635">
        <ele>-9999.9</ele>
        <time>2026-08-15T10:37:44Z</time>
      </trkpt>
      <trkpt lat="34.591597" lon="112.49458">
        <ele>-9999.9</ele>
        <time>2026-08-15T10:37:47Z</time>
      </trkpt>
      <trkpt lat="34.59154" lon="112.494543">
        <ele>-9999.9</ele>
        <time>2026-08-15T10:37:50Z</time>
      </trkpt>
      <trkpt lat="34.591506" lon="112.494519">
        <ele>-9999.9</ele>
        <time>2026-08-15T10:37:53Z</time>
      </trkpt>
      <trkpt lat="34.591454" lon="112.49449">
        <ele>-9999.9</ele>
        <time>2026-08-15T10:37:56Z</time>
      </trkpt>
      <trkpt lat="34.59137" lon="112.494446">
        <ele>-9999.9</ele>
        <time>2026-08-15T10:37:59Z</time>
      </trkpt>
      <trkpt lat="34.591323" lon="112.494429">
        <ele>-9999.9</ele>
        <time>2026-08-15T10:38:02Z</time>
      </trkpt>
      <trkpt lat="34.591259" lon="112.494399">
        <ele>-9999.9</ele>
        <time>2026-08-15T10:38:05Z</time>
      </trkpt>
      <trkpt lat="34.591185" lon="112.49435">
        <ele>-9999.9</ele>
        <time>2026-08-15T10:38:08Z</time>
      </trkpt>
      <trkpt lat="34.591142" lon="112.494294">
        <ele>-9999.9</ele>
        <time>2026-08-15T10:38:11Z</time>
      </trkpt>
      <trkpt lat="34.591117" lon="112.494245">
        <ele>-9999.9</ele>
        <time>2026-08-15T10:38:14Z</time>
      </trkpt>
      <trkpt lat="34.591086" lon="112.494156">
        <ele>-9999.9</ele>
        <time>2026-08-15T10:38:17Z</time>
      </trkpt>
      <trkpt lat="34.591039" lon="112.493988">
        <ele>-9999.9</ele>
        <time>2026-08-15T10:38:20Z</time>
      </trkpt>
      <trkpt lat="34.590989" lon="112.49387">
        <ele>-9999.9</ele>
        <time>2026-08-15T10:38:23Z</time>
      </trkpt>
      <trkpt lat="34.590943" lon="112.493804">
        <ele>-9999.9</ele>
        <time>2026-08-15T10:38:26Z</time>
      </trkpt>
      <trkpt lat="34.59086" lon="112.493722">
        <ele>-9999.9</ele>
        <time>2026-08-15T10:38:29Z</time>
      </trkpt>
      <trkpt lat="34.590734" lon="112.493639">
        <ele>-9999.9</ele>
        <time>2026-08-15T10:38:32Z</time>
      </trkpt>
      <trkpt lat="34.590672" lon="112.493604">
        <ele>-9999.9</ele>
        <time>2026-08-15T10:38:35Z</time>
      </trkpt>
      <trkpt lat="34.590577" lon="112.493553">
        <ele>-9999.9</ele>
        <time>2026-08-15T10:38:38Z</time>
      </trkpt>
      <trkpt lat="34.590488" lon="112.493506">
        <ele>-9999.9</ele>
        <time>2026-08-15T10:38:41Z</time>
      </trkpt>
      <trkpt lat="34.5904" lon="112.493441">
        <ele>-9999.9</ele>
        <time>2026-08-15T10:38:44Z</time>
      </trkpt>
      <trkpt lat="34.590363" lon="112.493412">
        <ele>-9999.9</ele>
        <time>2026-08-15T10:38:47Z</time>
      </trkpt>
      <trkpt lat="34.590315" lon="112.493373">
        <ele>-9999.9</ele>
        <time>2026-08-15T10:38:50Z</time>
      </trkpt>
      <trkpt lat="34.59027" lon="112.493336">
        <ele>-9999.9</ele>
        <time>2026-08-15T10:38:53Z</time>
      </trkpt>
      <trkpt lat="34.590217" lon="112.493292">
        <ele>-9999.9</ele>
        <time>2026-08-15T10:38:56Z</time>
      </trkpt>
      <trkpt lat="34.590194" lon="112.493277">
        <ele>-9999.9</ele>
        <time>2026-08-15T10:38:59Z</time>
      </trkpt>
      <trkpt lat="34.59016" lon="112.493258">
        <ele>-9999.9</ele>
        <time>2026-08-15T10:39:02Z</time>
      </trkpt>
      <trkpt lat="34.590107" lon="112.493227">
        <ele>-9999.9</ele>
        <time>2026-08-15T10:39:05Z</time>
      </trkpt>
      <trkpt lat="34.590012" lon="112.49315">
        <ele>-9999.9</ele>
        <time>2026-08-15T10:39:08Z</time>
      </trkpt>
      <trkpt lat="34.589958" lon="112.493107">
        <ele>-9999.9</ele>
        <time>2026-08-15T10:39:11Z</time>
      </trkpt>
      <trkpt lat="34.589876" lon="112.493061">
        <ele>-9999.9</ele>
        <time>2026-08-15T10:39:14Z</time>
      </trkpt>
      <trkpt lat="34.589801" lon="112.493016">
        <ele>-9999.9</ele>
        <time>2026-08-15T10:39:17Z</time>
      </trkpt>
      <trkpt lat="34.589663" lon="112.492984">
        <ele>-9999.9</ele>
        <time>2026-08-15T10:39:29Z</time>
      </trkpt>
      <trkpt lat="34.589455" lon="112.49282">
        <ele>-9999.9</ele>
        <time>2026-08-15T10:39:38Z</time>
      </trkpt>
      <trkpt lat="34.589282" lon="112.492673">
        <ele>-9999.9</ele>
        <time>2026-08-15T10:39:41Z</time>
      </trkpt>
      <trkpt lat="34.589217" lon="112.492615">
        <ele>-9999.9</ele>
        <time>2026-08-15T10:39:44Z</time>
      </trkpt>
      <trkpt lat="34.589138" lon="112.492549">
        <ele>-9999.9</ele>
        <time>2026-08-15T10:39:47Z</time>
      </trkpt>
      <trkpt lat="34.589056" lon="112.492487">
        <ele>-9999.9</ele>
        <time>2026-08-15T10:39:50Z</time>
      </trkpt>
      <trkpt lat="34.588957" lon="112.492397">
        <ele>-9999.9</ele>
        <time>2026-08-15T10:39:53Z</time>
      </trkpt>
      <trkpt lat="34.588907" lon="112.492352">
        <ele>-9999.9</ele>
        <time>2026-08-15T10:39:56Z</time>
      </trkpt>
      <trkpt lat="34.588831" lon="112.492296">
        <ele>-9999.9</ele>
        <time>2026-08-15T10:39:59Z</time>
      </trkpt>
      <trkpt lat="34.588689" lon="112.492192">
        <ele>-9999.9</ele>
        <time>2026-08-15T10:40:05Z</time>
      </trkpt>
      <trkpt lat="34.588611" lon="112.492125">
        <ele>-9999.9</ele>
        <time>2026-08-15T10:40:08Z</time>
      </trkpt>
      <trkpt lat="34.588551" lon="112.492075">
        <ele>-9999.9</ele>
        <time>2026-08-15T10:40:11Z</time>
      </trkpt>
      <trkpt lat="34.588492" lon="112.492039">
        <ele>-9999.9</ele>
        <time>2026-08-15T10:40:14Z</time>
      </trkpt>
      <trkpt lat="34.588442" lon="112.492008">
        <ele>-9999.9</ele>
        <time>2026-08-15T10:40:17Z</time>
      </trkpt>
      <trkpt lat="34.588416" lon="112.491966">
        <ele>-9999.9</ele>
        <time>2026-08-15T10:40:20Z</time>
      </trkpt>
      <trkpt lat="34.588394" lon="112.491937">
        <ele>-9999.9</ele>
        <time>2026-08-15T10:40:23Z</time>
      </trkpt>
      <trkpt lat="34.588366" lon="112.49192">
        <ele>-9999.9</ele>
        <time>2026-08-15T10:40:25Z</time>
      </trkpt>
      <trkpt lat="34.588338" lon="112.49191">
        <ele>-9999.9</ele>
        <time>2026-08-15T10:40:28Z</time>
      </trkpt>
      <trkpt lat="34.588316" lon="112.491901">
        <ele>-9999.9</ele>
        <time>2026-08-15T10:40:31Z</time>
      </trkpt>
      <trkpt lat="34.588292" lon="112.491888">
        <ele>-9999.9</ele>
        <time>2026-08-15T10:40:35Z</time>
      </trkpt>
      <trkpt lat="34.58827" lon="112.491875">
        <ele>-9999.9</ele>
        <time>2026-08-15T10:40:38Z</time>
      </trkpt>
      <trkpt lat="34.588255" lon="112.491866">
        <ele>-9999.9</ele>
        <time>2026-08-15T10:40:41Z</time>
      </trkpt>
      <trkpt lat="34.588222" lon="112.491846">
        <ele>-9999.9</ele>
        <time>2026-08-15T10:40:44Z</time>
      </trkpt>
      <trkpt lat="34.588172" lon="112.491828">
        <ele>-9999.9</ele>
        <time>2026-08-15T10:40:47Z</time>
      </trkpt>
      <trkpt lat="34.588119" lon="112.491823">
        <ele>-9999.9</ele>
        <time>2026-08-15T10:40:50Z</time>
      </trkpt>
      <trkpt lat="34.588014" lon="112.491824">
        <ele>-9999.9</ele>
        <time>2026-08-15T10:40:53Z</time>
      </trkpt>
      <trkpt lat="34.587856" lon="112.491829">
        <ele>-9999.9</ele>
        <time>2026-08-15T10:40:56Z</time>
      </trkpt>
      <trkpt lat="34.587785" lon="112.491839">
        <ele>-9999.9</ele>
        <time>2026-08-15T10:40:59Z</time>
      </trkpt>
      <trkpt lat="34.587755" lon="112.491844">
        <ele>-9999.9</ele>
        <time>2026-08-15T10:41:02Z</time>
      </trkpt>
      <trkpt lat="34.587748" lon="112.491849">
        <ele>-9999.9</ele>
        <time>2026-08-15T10:41:05Z</time>
      </trkpt>
      <trkpt lat="34.587741" lon="112.491856">
        <ele>-9999.9</ele>
        <time>2026-08-15T10:41:08Z</time>
      </trkpt>
      <trkpt lat="34.587739" lon="112.491856">
        <ele>-9999.9</ele>
        <time>2026-08-15T10:41:11Z</time>
      </trkpt>
      <trkpt lat="34.587739" lon="112.491855">
        <ele>-9999.9</ele>
        <time>2026-08-15T10:41:14Z</time>
      </trkpt>
      <trkpt lat="34.58774" lon="112.491853">
        <ele>-9999.9</ele>
        <time>2026-08-15T10:41:17Z</time>
      </trkpt>
      <trkpt lat="34.587741" lon="112.491849">
        <ele>-9999.9</ele>
        <time>2026-08-15T10:41:20Z</time>
      </trkpt>
      <trkpt lat="34.58774" lon="112.491848">
        <ele>-9999.9</ele>
        <time>2026-08-15T10:41:23Z</time>
      </trkpt>
      <trkpt lat="34.587738" lon="112.491849">
        <ele>-9999.9</ele>
        <time>2026-08-15T10:41:26Z</time>
      </trkpt>
      <trkpt lat="34.587736" lon="112.491848">
        <ele>-9999.9</ele>
        <time>2026-08-15T10:41:29Z</time>
      </trkpt>
      <trkpt lat="34.58772" lon="112.491841">
        <ele>-9999.9</ele>
        <time>2026-08-15T10:41:32Z</time>
      </trkpt>
      <trkpt lat="34.587711" lon="112.491839">
        <ele>-9999.9</ele>
        <time>2026-08-15T10:41:35Z</time>
      </trkpt>
      <trkpt lat="34.587688" lon="112.491846">
        <ele>-9999.9</ele>
        <time>2026-08-15T10:41:38Z</time>
      </trkpt>
      <trkpt lat="34.587634" lon="112.491866">
        <ele>-9999.9</ele>
        <time>2026-08-15T10:41:41Z</time>
      </trkpt>
      <trkpt lat="34.587582" lon="112.491885">
        <ele>-9999.9</ele>
        <time>2026-08-15T10:41:44Z</time>
      </trkpt>
      <trkpt lat="34.58754" lon="112.491907">
        <ele>-9999.9</ele>
        <time>2026-08-15T10:41:47Z</time>
      </trkpt>
      <trkpt lat="34.587469" lon="112.491947">
        <ele>-9999.9</ele>
        <time>2026-08-15T10:41:50Z</time>
      </trkpt>
      <trkpt lat="34.587377" lon="112.491978">
        <ele>-9999.9</ele>
        <time>2026-08-15T10:41:53Z</time>
      </trkpt>
      <trkpt lat="34.587313" lon="112.491952">
        <ele>-9999.9</ele>
        <time>2026-08-15T10:41:56Z</time>
      </trkpt>
      <trkpt lat="34.587272" lon="112.491919">
        <ele>-9999.9</ele>
        <time>2026-08-15T10:41:59Z</time>
      </trkpt>
      <trkpt lat="34.587213" lon="112.491861">
        <ele>-9999.9</ele>
        <time>2026-08-15T10:42:02Z</time>
      </trkpt>
      <trkpt lat="34.587135" lon="112.491794">
        <ele>-9999.9</ele>
        <time>2026-08-15T10:42:05Z</time>
      </trkpt>
      <trkpt lat="34.587093" lon="112.491768">
        <ele>-9999.9</ele>
        <time>2026-08-15T10:42:08Z</time>
      </trkpt>
      <trkpt lat="34.587032" lon="112.491736">
        <ele>-9999.9</ele>
        <time>2026-08-15T10:42:11Z</time>
      </trkpt>
      <trkpt lat="34.586974" lon="112.491712">
        <ele>-9999.9</ele>
        <time>2026-08-15T10:42:14Z</time>
      </trkpt>
      <trkpt lat="34.586922" lon="112.491687">
        <ele>-9999.9</ele>
        <time>2026-08-15T10:42:17Z</time>
      </trkpt>
      <trkpt lat="34.586906" lon="112.491675">
        <ele>-9999.9</ele>
        <time>2026-08-15T10:42:20Z</time>
      </trkpt>
      <trkpt lat="34.586884" lon="112.491669">
        <ele>-9999.9</ele>
        <time>2026-08-15T10:42:23Z</time>
      </trkpt>
      <trkpt lat="34.586859" lon="112.491663">
        <ele>-9999.9</ele>
        <time>2026-08-15T10:42:26Z</time>
      </trkpt>
      <trkpt lat="34.586815" lon="112.491657">
        <ele>-9999.9</ele>
        <time>2026-08-15T10:42:29Z</time>
      </trkpt>
      <trkpt lat="34.586792" lon="112.491652">
        <ele>-9999.9</ele>
        <time>2026-08-15T10:42:32Z</time>
      </trkpt>
      <trkpt lat="34.586761" lon="112.491639">
        <ele>-9999.9</ele>
        <time>2026-08-15T10:42:35Z</time>
      </trkpt>
      <trkpt lat="34.586739" lon="112.49162">
        <ele>-9999.9</ele>
        <time>2026-08-15T10:42:38Z</time>
      </trkpt>
      <trkpt lat="34.586734" lon="112.491588">
        <ele>-9999.9</ele>
        <time>2026-08-15T10:42:41Z</time>
      </trkpt>
      <trkpt lat="34.58674" lon="112.491585">
        <ele>-9999.9</ele>
        <time>2026-08-15T10:42:44Z</time>
      </trkpt>
      <trkpt lat="34.586746" lon="112.491586">
        <ele>-9999.9</ele>
        <time>2026-08-15T10:42:47Z</time>
      </trkpt>
      <trkpt lat="34.586751" lon="112.491586">
        <ele>-9999.9</ele>
        <time>2026-08-15T10:42:50Z</time>
      </trkpt>
      <trkpt lat="34.586756" lon="112.491577">
        <ele>-9999.9</ele>
        <time>2026-08-15T10:42:53Z</time>
      </trkpt>
      <trkpt lat="34.586767" lon="112.491559">
        <ele>-9999.9</ele>
        <time>2026-08-15T10:42:56Z</time>
      </trkpt>
      <trkpt lat="34.586786" lon="112.491536">
        <ele>-9999.9</ele>
        <time>2026-08-15T10:42:59Z</time>
      </trkpt>
      <trkpt lat="34.586808" lon="112.491515">
        <ele>-9999.9</ele>
        <time>2026-08-15T10:43:02Z</time>
      </trkpt>
      <trkpt lat="34.58683" lon="112.491512">
        <ele>-9999.9</ele>
        <time>2026-08-15T10:43:05Z</time>
      </trkpt>
      <trkpt lat="34.586853" lon="112.491514">
        <ele>-9999.9</ele>
        <time>2026-08-15T10:43:08Z</time>
      </trkpt>
      <trkpt lat="34.58688" lon="112.491525">
        <ele>-9999.9</ele>
        <time>2026-08-15T10:43:11Z</time>
      </trkpt>
      <trkpt lat="34.586906" lon="112.49154">
        <ele>-9999.9</ele>
        <time>2026-08-15T10:43:14Z</time>
      </trkpt>
      <trkpt lat="34.586918" lon="112.491563">
        <ele>-9999.9</ele>
        <time>2026-08-15T10:43:20Z</time>
      </trkpt>
      <trkpt lat="34.586901" lon="112.491551">
        <ele>-9999.9</ele>
        <time>2026-08-15T10:43:23Z</time>
      </trkpt>
      <trkpt lat="34.586885" lon="112.491534">
        <ele>-9999.9</ele>
        <time>2026-08-15T10:43:26Z</time>
      </trkpt>
      <trkpt lat="34.586875" lon="112.491517">
        <ele>-9999.9</ele>
        <time>2026-08-15T10:43:29Z</time>
      </trkpt>
      <trkpt lat="34.586863" lon="112.491503">
        <ele>-9999.9</ele>
        <time>2026-08-15T10:43:31Z</time>
      </trkpt>
      <trkpt lat="34.586851" lon="112.491496">
        <ele>-9999.9</ele>
        <time>2026-08-15T10:43:34Z</time>
      </trkpt>
      <trkpt lat="34.586788" lon="112.491436">
        <ele>-9999.9</ele>
        <time>2026-08-15T10:43:44Z</time>
      </trkpt>
      <trkpt lat="34.58678" lon="112.491421">
        <ele>-9999.9</ele>
        <time>2026-08-15T10:43:47Z</time>
      </trkpt>
      <trkpt lat="34.586784" lon="112.491425">
        <ele>-9999.9</ele>
        <time>2026-08-15T10:43:50Z</time>
      </trkpt>
      <trkpt lat="34.586799" lon="112.491442">
        <ele>-9999.9</ele>
        <time>2026-08-15T10:43:53Z</time>
      </trkpt>
      <trkpt lat="34.586823" lon="112.491471">
        <ele>-9999.9</ele>
        <time>2026-08-15T10:43:59Z</time>
      </trkpt>
      <trkpt lat="34.586824" lon="112.491472">
        <ele>-9999.9</ele>
        <time>2026-08-15T10:44:02Z</time>
      </trkpt>
      <trkpt lat="34.586829" lon="112.491472">
        <ele>-9999.9</ele>
        <time>2026-08-15T10:44:05Z</time>
      </trkpt>
      <trkpt lat="34.586832" lon="112.49147">
        <ele>-9999.9</ele>
        <time>2026-08-15T10:44:08Z</time>
      </trkpt>
      <trkpt lat="34.586833" lon="112.491469">
        <ele>-9999.9</ele>
        <time>2026-08-15T10:44:11Z</time>
      </trkpt>
      <trkpt lat="34.586833" lon="112.491466">
        <ele>-9999.9</ele>
        <time>2026-08-15T10:44:14Z</time>
      </trkpt>
      <trkpt lat="34.586832" lon="112.491462">
        <ele>-9999.9</ele>
        <time>2026-08-15T10:44:17Z</time>
      </trkpt>
      <trkpt lat="34.586829" lon="112.491462">
        <ele>-9999.9</ele>
        <time>2026-08-15T10:44:20Z</time>
      </trkpt>
      <trkpt lat="34.586828" lon="112.491463">
        <ele>-9999.9</ele>
        <time>2026-08-15T10:44:23Z</time>
      </trkpt>
      <trkpt lat="34.586826" lon="112.491465">
        <ele>-9999.9</ele>
        <time>2026-08-15T10:44:26Z</time>
      </trkpt>
      <trkpt lat="34.586765" lon="112.491503">
        <ele>-9999.9</ele>
        <time>2026-08-15T10:44:35Z</time>
      </trkpt>
      <trkpt lat="34.586742" lon="112.491539">
        <ele>-9999.9</ele>
        <time>2026-08-15T10:44:38Z</time>
      </trkpt>
      <trkpt lat="34.586741" lon="112.491593">
        <ele>-9999.9</ele>
        <time>2026-08-15T10:44:41Z</time>
      </trkpt>
      <trkpt lat="34.586773" lon="112.491626">
        <ele>-9999.9</ele>
        <time>2026-08-15T10:44:44Z</time>
      </trkpt>
      <trkpt lat="34.5868" lon="112.491647">
        <ele>-9999.9</ele>
        <time>2026-08-15T10:44:47Z</time>
      </trkpt>
      <trkpt lat="34.586851" lon="112.491692">
        <ele>-9999.9</ele>
        <time>2026-08-15T10:44:50Z</time>
      </trkpt>
      <trkpt lat="34.586924" lon="112.491754">
        <ele>-9999.9</ele>
        <time>2026-08-15T10:44:53Z</time>
      </trkpt>
      <trkpt lat="34.586967" lon="112.491775">
        <ele>-9999.9</ele>
        <time>2026-08-15T10:44:56Z</time>
      </trkpt>
      <trkpt lat="34.587043" lon="112.491797">
        <ele>-9999.9</ele>
        <time>2026-08-15T10:44:59Z</time>
      </trkpt>
      <trkpt lat="34.587119" lon="112.491816">
        <ele>-9999.9</ele>
        <time>2026-08-15T10:45:02Z</time>
      </trkpt>
      <trkpt lat="34.587209" lon="112.491854">
        <ele>-9999.9</ele>
        <time>2026-08-15T10:45:05Z</time>
      </trkpt>
      <trkpt lat="34.587244" lon="112.491882">
        <ele>-9999.9</ele>
        <time>2026-08-15T10:45:08Z</time>
      </trkpt>
      <trkpt lat="34.587299" lon="112.491926">
        <ele>-9999.9</ele>
        <time>2026-08-15T10:45:11Z</time>
      </trkpt>
      <trkpt lat="34.587364" lon="112.491951">
        <ele>-9999.9</ele>
        <time>2026-08-15T10:45:14Z</time>
      </trkpt>
      <trkpt lat="34.587463" lon="112.491911">
        <ele>-9999.9</ele>
        <time>2026-08-15T10:45:17Z</time>
      </trkpt>
      <trkpt lat="34.587512" lon="112.491878">
        <ele>-9999.9</ele>
        <time>2026-08-15T10:45:20Z</time>
      </trkpt>
      <trkpt lat="34.587591" lon="112.491825">
        <ele>-9999.9</ele>
        <time>2026-08-15T10:45:23Z</time>
      </trkpt>
      <trkpt lat="34.587668" lon="112.491788">
        <ele>-9999.9</ele>
        <time>2026-08-15T10:45:26Z</time>
      </trkpt>
      <trkpt lat="34.587755" lon="112.491775">
        <ele>-9999.9</ele>
        <time>2026-08-15T10:45:29Z</time>
      </trkpt>
      <trkpt lat="34.587807" lon="112.491776">
        <ele>-9999.9</ele>
        <time>2026-08-15T10:45:32Z</time>
      </trkpt>
      <trkpt lat="34.587895" lon="112.491799">
        <ele>-9999.9</ele>
        <time>2026-08-15T10:45:35Z</time>
      </trkpt>
      <trkpt lat="34.587974" lon="112.49181">
        <ele>-9999.9</ele>
        <time>2026-08-15T10:45:38Z</time>
      </trkpt>
      <trkpt lat="34.588049" lon="112.491827">
        <ele>-9999.9</ele>
        <time>2026-08-15T10:45:41Z</time>
      </trkpt>
      <trkpt lat="34.588102" lon="112.491854">
        <ele>-9999.9</ele>
        <time>2026-08-15T10:45:44Z</time>
      </trkpt>
      <trkpt lat="34.588163" lon="112.491884">
        <ele>-9999.9</ele>
        <time>2026-08-15T10:45:47Z</time>
      </trkpt>
      <trkpt lat="34.58824" lon="112.491912">
        <ele>-9999.9</ele>
        <time>2026-08-15T10:45:50Z</time>
      </trkpt>
      <trkpt lat="34.588315" lon="112.491933">
        <ele>-9999.9</ele>
        <time>2026-08-15T10:45:53Z</time>
      </trkpt>
      <trkpt lat="34.588392" lon="112.491952">
        <ele>-9999.9</ele>
        <time>2026-08-15T10:45:56Z</time>
      </trkpt>
      <trkpt lat="34.58848" lon="112.491966">
        <ele>-9999.9</ele>
        <time>2026-08-15T10:45:59Z</time>
      </trkpt>
      <trkpt lat="34.588563" lon="112.491991">
        <ele>-9999.9</ele>
        <time>2026-08-15T10:46:02Z</time>
      </trkpt>
      <trkpt lat="34.588633" lon="112.492034">
        <ele>-9999.9</ele>
        <time>2026-08-15T10:46:04Z</time>
      </trkpt>
      <trkpt lat="34.588696" lon="112.492082">
        <ele>-9999.9</ele>
        <time>2026-08-15T10:46:07Z</time>
      </trkpt>
      <trkpt lat="34.588753" lon="112.492134">
        <ele>-9999.9</ele>
        <time>2026-08-15T10:46:10Z</time>
      </trkpt>
      <trkpt lat="34.588799" lon="112.492184">
        <ele>-9999.9</ele>
        <time>2026-08-15T10:46:14Z</time>
      </trkpt>
      <trkpt lat="34.588839" lon="112.492235">
        <ele>-9999.9</ele>
        <time>2026-08-15T10:46:17Z</time>
      </trkpt>
      <trkpt lat="34.588912" lon="112.492308">
        <ele>-9999.9</ele>
        <time>2026-08-15T10:46:20Z</time>
      </trkpt>
      <trkpt lat="34.588979" lon="112.492369">
        <ele>-9999.9</ele>
        <time>2026-08-15T10:46:23Z</time>
      </trkpt>
      <trkpt lat="34.589025" lon="112.492407">
        <ele>-9999.9</ele>
        <time>2026-08-15T10:46:26Z</time>
      </trkpt>
      <trkpt lat="34.589096" lon="112.492473">
        <ele>-9999.9</ele>
        <time>2026-08-15T10:46:29Z</time>
      </trkpt>
      <trkpt lat="34.58918" lon="112.492556">
        <ele>-9999.9</ele>
        <time>2026-08-15T10:46:32Z</time>
      </trkpt>
      <trkpt lat="34.589209" lon="112.492567">
        <ele>-9999.9</ele>
        <time>2026-08-15T10:46:41Z</time>
      </trkpt>
      <trkpt lat="34.58919" lon="112.492545">
        <ele>-9999.9</ele>
        <time>2026-08-15T10:46:44Z</time>
      </trkpt>
      <trkpt lat="34.589184" lon="112.492537">
        <ele>-9999.9</ele>
        <time>2026-08-15T10:46:47Z</time>
      </trkpt>
      <trkpt lat="34.589181" lon="112.492532">
        <ele>-9999.9</ele>
        <time>2026-08-15T10:46:50Z</time>
      </trkpt>
      <trkpt lat="34.589178" lon="112.492528">
        <ele>-9999.9</ele>
        <time>2026-08-15T10:46:53Z</time>
      </trkpt>
      <trkpt lat="34.589174" lon="112.492533">
        <ele>-9999.9</ele>
        <time>2026-08-15T10:46:56Z</time>
      </trkpt>
      <trkpt lat="34.589174" lon="112.492537">
        <ele>-9999.9</ele>
        <time>2026-08-15T10:46:59Z</time>
      </trkpt>
      <trkpt lat="34.589173" lon="112.492544">
        <ele>-9999.9</ele>
        <time>2026-08-15T10:47:02Z</time>
      </trkpt>
      <trkpt lat="34.589173" lon="112.492549">
        <ele>-9999.9</ele>
        <time>2026-08-15T10:47:05Z</time>
      </trkpt>
      <trkpt lat="34.589176" lon="112.492554">
        <ele>-9999.9</ele>
        <time>2026-08-15T10:47:08Z</time>
      </trkpt>
      <trkpt lat="34.589174" lon="112.492553">
        <ele>-9999.9</ele>
        <time>2026-08-15T10:47:11Z</time>
      </trkpt>
      <trkpt lat="34.589169" lon="112.492552">
        <ele>-9999.9</ele>
        <time>2026-08-15T10:47:14Z</time>
      </trkpt>
      <trkpt lat="34.589166" lon="112.49255">
        <ele>-9999.9</ele>
        <time>2026-08-15T10:47:17Z</time>
      </trkpt>
      <trkpt lat="34.589165" lon="112.492549">
        <ele>-9999.9</ele>
        <time>2026-08-15T10:47:20Z</time>
      </trkpt>
      <trkpt lat="34.589164" lon="112.492552">
        <ele>-9999.9</ele>
        <time>2026-08-15T10:47:23Z</time>
      </trkpt>
      <trkpt lat="34.589163" lon="112.492567">
        <ele>-9999.9</ele>
        <time>2026-08-15T10:47:26Z</time>
      </trkpt>
      <trkpt lat="34.589177" lon="112.492591">
        <ele>-9999.9</ele>
        <time>2026-08-15T10:47:29Z</time>
      </trkpt>
      <trkpt lat="34.589187" lon="112.492607">
        <ele>-9999.9</ele>
        <time>2026-08-15T10:47:32Z</time>
      </trkpt>
      <trkpt lat="34.589193" lon="112.492615">
        <ele>-9999.9</ele>
        <time>2026-08-15T10:47:35Z</time>
      </trkpt>
      <trkpt lat="34.589208" lon="112.492631">
        <ele>-9999.9</ele>
        <time>2026-08-15T10:47:38Z</time>
      </trkpt>
      <trkpt lat="34.589269" lon="112.492698">
        <ele>-9999.9</ele>
        <time>2026-08-15T10:47:41Z</time>
      </trkpt>
      <trkpt lat="34.589319" lon="112.49274">
        <ele>-9999.9</ele>
        <time>2026-08-15T10:47:44Z</time>
      </trkpt>
      <trkpt lat="34.589404" lon="112.4928">
        <ele>-9999.9</ele>
        <time>2026-08-15T10:47:47Z</time>
      </trkpt>
      <trkpt lat="34.589486" lon="112.49284">
        <ele>-9999.9</ele>
        <time>2026-08-15T10:47:50Z</time>
      </trkpt>
      <trkpt lat="34.589706" lon="112.493069">
        <ele>-9999.9</ele>
        <time>2026-08-15T10:48:08Z</time>
      </trkpt>
      <trkpt lat="34.589778" lon="112.493171">
        <ele>-9999.9</ele>
        <time>2026-08-15T10:48:11Z</time>
      </trkpt>
      <trkpt lat="34.589872" lon="112.49324">
        <ele>-9999.9</ele>
        <time>2026-08-15T10:48:14Z</time>
      </trkpt>
      <trkpt lat="34.589975" lon="112.493288">
        <ele>-9999.9</ele>
        <time>2026-08-15T10:48:17Z</time>
      </trkpt>
      <trkpt lat="34.590039" lon="112.493325">
        <ele>-9999.9</ele>
        <time>2026-08-15T10:48:20Z</time>
      </trkpt>
      <trkpt lat="34.59006" lon="112.493353">
        <ele>-9999.9</ele>
        <time>2026-08-15T10:48:23Z</time>
      </trkpt>
      <trkpt lat="34.590074" lon="112.493364">
        <ele>-9999.9</ele>
        <time>2026-08-15T10:48:26Z</time>
      </trkpt>
      <trkpt lat="34.590101" lon="112.493365">
        <ele>-9999.9</ele>
        <time>2026-08-15T10:48:29Z</time>
      </trkpt>
      <trkpt lat="34.590129" lon="112.493365">
        <ele>-9999.9</ele>
        <time>2026-08-15T10:48:32Z</time>
      </trkpt>
      <trkpt lat="34.590165" lon="112.493373">
        <ele>-9999.9</ele>
        <time>2026-08-15T10:48:38Z</time>
      </trkpt>
      <trkpt lat="34.590164" lon="112.493371">
        <ele>-9999.9</ele>
        <time>2026-08-15T10:48:41Z</time>
      </trkpt>
      <trkpt lat="34.59016" lon="112.493369">
        <ele>-9999.9</ele>
        <time>2026-08-15T10:48:44Z</time>
      </trkpt>
      <trkpt lat="34.590156" lon="112.493369">
        <ele>-9999.9</ele>
        <time>2026-08-15T10:48:47Z</time>
      </trkpt>
      <trkpt lat="34.590157" lon="112.493373">
        <ele>-9999.9</ele>
        <time>2026-08-15T10:48:50Z</time>
      </trkpt>
      <trkpt lat="34.590189" lon="112.493394">
        <ele>-9999.9</ele>
        <time>2026-08-15T10:48:56Z</time>
      </trkpt>
      <trkpt lat="34.590207" lon="112.493397">
        <ele>-9999.9</ele>
        <time>2026-08-15T10:48:59Z</time>
      </trkpt>
      <trkpt lat="34.590229" lon="112.4934">
        <ele>-9999.9</ele>
        <time>2026-08-15T10:49:02Z</time>
      </trkpt>
      <trkpt lat="34.590259" lon="112.493414">
        <ele>-9999.9</ele>
        <time>2026-08-15T10:49:05Z</time>
      </trkpt>
      <trkpt lat="34.590291" lon="112.493426">
        <ele>-9999.9</ele>
        <time>2026-08-15T10:49:08Z</time>
      </trkpt>
      <trkpt lat="34.590316" lon="112.493432">
        <ele>-9999.9</ele>
        <time>2026-08-15T10:49:10Z</time>
      </trkpt>
      <trkpt lat="34.590335" lon="112.493444">
        <ele>-9999.9</ele>
        <time>2026-08-15T10:49:13Z</time>
      </trkpt>
      <trkpt lat="34.59035" lon="112.493458">
        <ele>-9999.9</ele>
        <time>2026-08-15T10:49:16Z</time>
      </trkpt>
      <trkpt lat="34.590373" lon="112.493473">
        <ele>-9999.9</ele>
        <time>2026-08-15T10:49:19Z</time>
      </trkpt>
      <trkpt lat="34.590403" lon="112.493503">
        <ele>-9999.9</ele>
        <time>2026-08-15T10:49:23Z</time>
      </trkpt>
      <trkpt lat="34.590406" lon="112.493509">
        <ele>-9999.9</ele>
        <time>2026-08-15T10:49:29Z</time>
      </trkpt>
      <trkpt lat="34.590397" lon="112.493506">
        <ele>-9999.9</ele>
        <time>2026-08-15T10:49:32Z</time>
      </trkpt>
      <trkpt lat="34.590393" lon="112.493504">
        <ele>-9999.9</ele>
        <time>2026-08-15T10:49:35Z</time>
      </trkpt>
      <trkpt lat="34.590392" lon="112.493505">
        <ele>-9999.9</ele>
        <time>2026-08-15T10:49:38Z</time>
      </trkpt>
      <trkpt lat="34.590395" lon="112.493506">
        <ele>-9999.9</ele>
        <time>2026-08-15T10:49:41Z</time>
      </trkpt>
      <trkpt lat="34.590395" lon="112.493506">
        <ele>-9999.9</ele>
        <time>2026-08-15T10:49:44Z</time>
      </trkpt>
      <trkpt lat="34.590394" lon="112.493503">
        <ele>-9999.9</ele>
        <time>2026-08-15T10:49:47Z</time>
      </trkpt>
      <trkpt lat="34.590394" lon="112.493499">
        <ele>-9999.9</ele>
        <time>2026-08-15T10:49:50Z</time>
      </trkpt>
      <trkpt lat="34.590398" lon="112.493503">
        <ele>-9999.9</ele>
        <time>2026-08-15T10:49:53Z</time>
      </trkpt>
      <trkpt lat="34.590394" lon="112.4935">
        <ele>-9999.9</ele>
        <time>2026-08-15T10:49:56Z</time>
      </trkpt>
      <trkpt lat="34.59039" lon="112.493496">
        <ele>-9999.9</ele>
        <time>2026-08-15T10:49:59Z</time>
      </trkpt>
      <trkpt lat="34.590384" lon="112.493495">
        <ele>-9999.9</ele>
        <time>2026-08-15T10:50:02Z</time>
      </trkpt>
      <trkpt lat="34.590382" lon="112.493498">
        <ele>-9999.9</ele>
        <time>2026-08-15T10:50:05Z</time>
      </trkpt>
      <trkpt lat="34.590383" lon="112.493499">
        <ele>-9999.9</ele>
        <time>2026-08-15T10:50:08Z</time>
      </trkpt>
      <trkpt lat="34.590386" lon="112.493503">
        <ele>-9999.9</ele>
        <time>2026-08-15T10:50:11Z</time>
      </trkpt>
      <trkpt lat="34.590397" lon="112.493502">
        <ele>-9999.9</ele>
        <time>2026-08-15T10:50:14Z</time>
      </trkpt>
      <trkpt lat="34.59042" lon="112.4935">
        <ele>-9999.9</ele>
        <time>2026-08-15T10:50:17Z</time>
      </trkpt>
      <trkpt lat="34.590441" lon="112.493509">
        <ele>-9999.9</ele>
        <time>2026-08-15T10:50:20Z</time>
      </trkpt>
      <trkpt lat="34.59046" lon="112.493521">
        <ele>-9999.9</ele>
        <time>2026-08-15T10:50:23Z</time>
      </trkpt>
      <trkpt lat="34.590586" lon="112.493626">
        <ele>-9999.9</ele>
        <time>2026-08-15T10:50:29Z</time>
      </trkpt>
      <trkpt lat="34.590635" lon="112.493666">
        <ele>-9999.9</ele>
        <time>2026-08-15T10:50:32Z</time>
      </trkpt>
      <trkpt lat="34.59072" lon="112.493719">
        <ele>-9999.9</ele>
        <time>2026-08-15T10:50:35Z</time>
      </trkpt>
      <trkpt lat="34.590816" lon="112.493762">
        <ele>-9999.9</ele>
        <time>2026-08-15T10:50:38Z</time>
      </trkpt>
      <trkpt lat="34.590927" lon="112.493818">
        <ele>-9999.9</ele>
        <time>2026-08-15T10:50:41Z</time>
      </trkpt>
      <trkpt lat="34.590961" lon="112.493849">
        <ele>-9999.9</ele>
        <time>2026-08-15T10:50:44Z</time>
      </trkpt>
      <trkpt lat="34.590998" lon="112.493911">
        <ele>-9999.9</ele>
        <time>2026-08-15T10:50:47Z</time>
      </trkpt>
      <trkpt lat="34.591041" lon="112.493993">
        <ele>-9999.9</ele>
        <time>2026-08-15T10:50:50Z</time>
      </trkpt>
      <trkpt lat="34.591052" lon="112.494118">
        <ele>-9999.9</ele>
        <time>2026-08-15T10:50:53Z</time>
      </trkpt>
      <trkpt lat="34.591046" lon="112.494172">
        <ele>-9999.9</ele>
        <time>2026-08-15T10:50:56Z</time>
      </trkpt>
      <trkpt lat="34.591071" lon="112.49424">
        <ele>-9999.9</ele>
        <time>2026-08-15T10:50:59Z</time>
      </trkpt>
      <trkpt lat="34.591102" lon="112.494309">
        <ele>-9999.9</ele>
        <time>2026-08-15T10:51:02Z</time>
      </trkpt>
      <trkpt lat="34.591158" lon="112.494387">
        <ele>-9999.9</ele>
        <time>2026-08-15T10:51:05Z</time>
      </trkpt>
      <trkpt lat="34.591191" lon="112.494415">
        <ele>-9999.9</ele>
        <time>2026-08-15T10:51:08Z</time>
      </trkpt>
      <trkpt lat="34.591243" lon="112.49445">
        <ele>-9999.9</ele>
        <time>2026-08-15T10:51:11Z</time>
      </trkpt>
      <trkpt lat="34.591315" lon="112.49447">
        <ele>-9999.9</ele>
        <time>2026-08-15T10:51:14Z</time>
      </trkpt>
      <trkpt lat="34.591403" lon="112.494489">
        <ele>-9999.9</ele>
        <time>2026-08-15T10:51:17Z</time>
      </trkpt>
      <trkpt lat="34.591499" lon="112.49452">
        <ele>-9999.9</ele>
        <time>2026-08-15T10:51:20Z</time>
      </trkpt>
      <trkpt lat="34.591582" lon="112.494567">
        <ele>-9999.9</ele>
        <time>2026-08-15T10:51:23Z</time>
      </trkpt>
      <trkpt lat="34.591674" lon="112.49464">
        <ele>-9999.9</ele>
        <time>2026-08-15T10:51:26Z</time>
      </trkpt>
      <trkpt lat="34.591726" lon="112.494673">
        <ele>-9999.9</ele>
        <time>2026-08-15T10:51:29Z</time>
      </trkpt>
      <trkpt lat="34.591803" lon="112.494719">
        <ele>-9999.9</ele>
        <time>2026-08-15T10:51:32Z</time>
      </trkpt>
      <trkpt lat="34.591879" lon="112.494758">
        <ele>-9999.9</ele>
        <time>2026-08-15T10:51:35Z</time>
      </trkpt>
      <trkpt lat="34.591985" lon="112.494808">
        <ele>-9999.9</ele>
        <time>2026-08-15T10:51:38Z</time>
      </trkpt>
      <trkpt lat="34.592043" lon="112.49484">
        <ele>-9999.9</ele>
        <time>2026-08-15T10:51:41Z</time>
      </trkpt>
      <trkpt lat="34.592121" lon="112.494889">
        <ele>-9999.9</ele>
        <time>2026-08-15T10:51:44Z</time>
      </trkpt>
      <trkpt lat="34.592176" lon="112.494948">
        <ele>-9999.9</ele>
        <time>2026-08-15T10:51:47Z</time>
      </trkpt>
      <trkpt lat="34.592224" lon="112.495038">
        <ele>-9999.9</ele>
        <time>2026-08-15T10:51:50Z</time>
      </trkpt>
      <trkpt lat="34.592244" lon="112.495085">
        <ele>-9999.9</ele>
        <time>2026-08-15T10:51:53Z</time>
      </trkpt>
      <trkpt lat="34.592281" lon="112.495154">
        <ele>-9999.9</ele>
        <time>2026-08-15T10:51:56Z</time>
      </trkpt>
      <trkpt lat="34.592341" lon="112.495238">
        <ele>-9999.9</ele>
        <time>2026-08-15T10:51:59Z</time>
      </trkpt>
      <trkpt lat="34.592391" lon="112.495331">
        <ele>-9999.9</ele>
        <time>2026-08-15T10:52:02Z</time>
      </trkpt>
      <trkpt lat="34.592423" lon="112.495414">
        <ele>-9999.9</ele>
        <time>2026-08-15T10:52:05Z</time>
      </trkpt>
      <trkpt lat="34.592458" lon="112.495486">
        <ele>-9999.9</ele>
        <time>2026-08-15T10:52:08Z</time>
      </trkpt>
      <trkpt lat="34.592487" lon="112.495535">
        <ele>-9999.9</ele>
        <time>2026-08-15T10:52:10Z</time>
      </trkpt>
      <trkpt lat="34.592526" lon="112.495591">
        <ele>-9999.9</ele>
        <time>2026-08-15T10:52:13Z</time>
      </trkpt>
      <trkpt lat="34.592564" lon="112.495657">
        <ele>-9999.9</ele>
        <time>2026-08-15T10:52:16Z</time>
      </trkpt>
      <trkpt lat="34.59262" lon="112.495722">
        <ele>-9999.9</ele>
        <time>2026-08-15T10:52:19Z</time>
      </trkpt>
      <trkpt lat="34.592715" lon="112.495804">
        <ele>-9999.9</ele>
        <time>2026-08-15T10:52:23Z</time>
      </trkpt>
      <trkpt lat="34.59276" lon="112.495844">
        <ele>-9999.9</ele>
        <time>2026-08-15T10:52:26Z</time>
      </trkpt>
      <trkpt lat="34.592861" lon="112.495907">
        <ele>-9999.9</ele>
        <time>2026-08-15T10:52:29Z</time>
      </trkpt>
      <trkpt lat="34.59293" lon="112.495947">
        <ele>-9999.9</ele>
        <time>2026-08-15T10:52:32Z</time>
      </trkpt>
      <trkpt lat="34.593001" lon="112.495989">
        <ele>-9999.9</ele>
        <time>2026-08-15T10:52:35Z</time>
      </trkpt>
      <trkpt lat="34.593049" lon="112.496019">
        <ele>-9999.9</ele>
        <time>2026-08-15T10:52:38Z</time>
      </trkpt>
      <trkpt lat="34.593107" lon="112.496075">
        <ele>-9999.9</ele>
        <time>2026-08-15T10:52:41Z</time>
      </trkpt>
      <trkpt lat="34.593137" lon="112.496118">
        <ele>-9999.9</ele>
        <time>2026-08-15T10:52:44Z</time>
      </trkpt>
      <trkpt lat="34.593158" lon="112.496151">
        <ele>-9999.9</ele>
        <time>2026-08-15T10:52:47Z</time>
      </trkpt>
      <trkpt lat="34.593199" lon="112.496204">
        <ele>-9999.9</ele>
        <time>2026-08-15T10:52:50Z</time>
      </trkpt>
      <trkpt lat="34.593279" lon="112.496267">
        <ele>-9999.9</ele>
        <time>2026-08-15T10:52:53Z</time>
      </trkpt>
      <trkpt lat="34.593353" lon="112.49631">
        <ele>-9999.9</ele>
        <time>2026-08-15T10:52:56Z</time>
      </trkpt>
      <trkpt lat="34.593401" lon="112.49634">
        <ele>-9999.9</ele>
        <time>2026-08-15T10:52:59Z</time>
      </trkpt>
      <trkpt lat="34.593475" lon="112.496391">
        <ele>-9999.9</ele>
        <time>2026-08-15T10:53:02Z</time>
      </trkpt>
      <trkpt lat="34.593567" lon="112.496464">
        <ele>-9999.9</ele>
        <time>2026-08-15T10:53:05Z</time>
      </trkpt>
      <trkpt lat="34.593632" lon="112.496526">
        <ele>-9999.9</ele>
        <time>2026-08-15T10:53:08Z</time>
      </trkpt>
      <trkpt lat="34.593673" lon="112.496571">
        <ele>-9999.9</ele>
        <time>2026-08-15T10:53:11Z</time>
      </trkpt>
      <trkpt lat="34.593728" lon="112.496639">
        <ele>-9999.9</ele>
        <time>2026-08-15T10:53:14Z</time>
      </trkpt>
      <trkpt lat="34.593789" lon="112.496719">
        <ele>-9999.9</ele>
        <time>2026-08-15T10:53:17Z</time>
      </trkpt>
      <trkpt lat="34.593816" lon="112.496754">
        <ele>-9999.9</ele>
        <time>2026-08-15T10:53:20Z</time>
      </trkpt>
      <trkpt lat="34.593858" lon="112.496814">
        <ele>-9999.9</ele>
        <time>2026-08-15T10:53:23Z</time>
      </trkpt>
      <trkpt lat="34.59391" lon="112.496885">
        <ele>-9999.9</ele>
        <time>2026-08-15T10:53:26Z</time>
      </trkpt>
      <trkpt lat="34.593991" lon="112.496976">
        <ele>-9999.9</ele>
        <time>2026-08-15T10:53:29Z</time>
      </trkpt>
      <trkpt lat="34.59403" lon="112.497013">
        <ele>-9999.9</ele>
        <time>2026-08-15T10:53:32Z</time>
      </trkpt>
      <trkpt lat="34.594092" lon="112.49705">
        <ele>-9999.9</ele>
        <time>2026-08-15T10:53:35Z</time>
      </trkpt>
      <trkpt lat="34.594155" lon="112.49708">
        <ele>-9999.9</ele>
        <time>2026-08-15T10:53:38Z</time>
      </trkpt>
      <trkpt lat="34.594237" lon="112.497154">
        <ele>-9999.9</ele>
        <time>2026-08-15T10:53:41Z</time>
      </trkpt>
      <trkpt lat="34.594279" lon="112.497202">
        <ele>-9999.9</ele>
        <time>2026-08-15T10:53:44Z</time>
      </trkpt>
      <trkpt lat="34.594348" lon="112.497288">
        <ele>-9999.9</ele>
        <time>2026-08-15T10:53:47Z</time>
      </trkpt>
      <trkpt lat="34.594426" lon="112.497375">
        <ele>-9999.9</ele>
        <time>2026-08-15T10:53:50Z</time>
      </trkpt>
      <trkpt lat="34.594526" lon="112.497486">
        <ele>-9999.9</ele>
        <time>2026-08-15T10:53:53Z</time>
      </trkpt>
      <trkpt lat="34.594578" lon="112.497542">
        <ele>-9999.9</ele>
        <time>2026-08-15T10:53:56Z</time>
      </trkpt>
      <trkpt lat="34.594649" lon="112.497624">
        <ele>-9999.9</ele>
        <time>2026-08-15T10:53:59Z</time>
      </trkpt>
      <trkpt lat="34.594714" lon="112.497696">
        <ele>-9999.9</ele>
        <time>2026-08-15T10:54:02Z</time>
      </trkpt>
      <trkpt lat="34.594776" lon="112.497761">
        <ele>-9999.9</ele>
        <time>2026-08-15T10:54:05Z</time>
      </trkpt>
      <trkpt lat="34.594842" lon="112.497823">
        <ele>-9999.9</ele>
        <time>2026-08-15T10:54:08Z</time>
      </trkpt>
      <trkpt lat="34.5949" lon="112.497887">
        <ele>-9999.9</ele>
        <time>2026-08-15T10:54:11Z</time>
      </trkpt>
      <trkpt lat="34.594964" lon="112.497936">
        <ele>-9999.9</ele>
        <time>2026-08-15T10:54:14Z</time>
      </trkpt>
      <trkpt lat="34.595039" lon="112.497974">
        <ele>-9999.9</ele>
        <time>2026-08-15T10:54:17Z</time>
      </trkpt>
      <trkpt lat="34.595117" lon="112.497999">
        <ele>-9999.9</ele>
        <time>2026-08-15T10:54:20Z</time>
      </trkpt>
      <trkpt lat="34.59519" lon="112.498032">
        <ele>-9999.9</ele>
        <time>2026-08-15T10:54:23Z</time>
      </trkpt>
      <trkpt lat="34.595257" lon="112.498105">
        <ele>-9999.9</ele>
        <time>2026-08-15T10:54:26Z</time>
      </trkpt>
      <trkpt lat="34.595292" lon="112.498142">
        <ele>-9999.9</ele>
        <time>2026-08-15T10:54:29Z</time>
      </trkpt>
      <trkpt lat="34.595345" lon="112.498192">
        <ele>-9999.9</ele>
        <time>2026-08-15T10:54:32Z</time>
      </trkpt>
      <trkpt lat="34.595403" lon="112.498226">
        <ele>-9999.9</ele>
        <time>2026-08-15T10:54:35Z</time>
      </trkpt>
      <trkpt lat="34.595444" lon="112.498254">
        <ele>-9999.9</ele>
        <time>2026-08-15T10:54:38Z</time>
      </trkpt>
      <trkpt lat="34.59547" lon="112.498315">
        <ele>-9999.9</ele>
        <time>2026-08-15T10:54:44Z</time>
      </trkpt>
      <trkpt lat="34.595481" lon="112.498335">
        <ele>-9999.9</ele>
        <time>2026-08-15T10:54:47Z</time>
      </trkpt>
      <trkpt lat="34.595482" lon="112.498338">
        <ele>-9999.9</ele>
        <time>2026-08-15T10:54:50Z</time>
      </trkpt>
      <trkpt lat="34.595481" lon="112.49834">
        <ele>-9999.9</ele>
        <time>2026-08-15T10:54:53Z</time>
      </trkpt>
      <trkpt lat="34.595483" lon="112.498339">
        <ele>-9999.9</ele>
        <time>2026-08-15T10:54:56Z</time>
      </trkpt>
      <trkpt lat="34.595483" lon="112.498333">
        <ele>-9999.9</ele>
        <time>2026-08-15T10:54:59Z</time>
      </trkpt>
      <trkpt lat="34.595478" lon="112.498327">
        <ele>-9999.9</ele>
        <time>2026-08-15T10:55:02Z</time>
      </trkpt>
      <trkpt lat="34.595476" lon="112.498334">
        <ele>-9999.9</ele>
        <time>2026-08-15T10:55:05Z</time>
      </trkpt>
      <trkpt lat="34.595462" lon="112.498336">
        <ele>-9999.9</ele>
        <time>2026-08-15T10:55:08Z</time>
      </trkpt>
      <trkpt lat="34.595439" lon="112.498331">
        <ele>-9999.9</ele>
        <time>2026-08-15T10:55:10Z</time>
      </trkpt>
      <trkpt lat="34.59541" lon="112.498332">
        <ele>-9999.9</ele>
        <time>2026-08-15T10:55:13Z</time>
      </trkpt>
      <trkpt lat="34.595378" lon="112.498336">
        <ele>-9999.9</ele>
        <time>2026-08-15T10:55:16Z</time>
      </trkpt>
      <trkpt lat="34.595344" lon="112.498349">
        <ele>-9999.9</ele>
        <time>2026-08-15T10:55:19Z</time>
      </trkpt>
      <trkpt lat="34.595313" lon="112.498357">
        <ele>-9999.9</ele>
        <time>2026-08-15T10:55:23Z</time>
      </trkpt>
      <trkpt lat="34.595276" lon="112.498354">
        <ele>-9999.9</ele>
        <time>2026-08-15T10:55:26Z</time>
      </trkpt>
      <trkpt lat="34.595218" lon="112.49835">
        <ele>-9999.9</ele>
        <time>2026-08-15T10:55:29Z</time>
      </trkpt>
      <trkpt lat="34.595167" lon="112.498328">
        <ele>-9999.9</ele>
        <time>2026-08-15T10:55:32Z</time>
      </trkpt>
      <trkpt lat="34.595138" lon="112.498315">
        <ele>-9999.9</ele>
        <time>2026-08-15T10:55:35Z</time>
      </trkpt>
      <trkpt lat="34.595098" lon="112.4983">
        <ele>-9999.9</ele>
        <time>2026-08-15T10:55:38Z</time>
      </trkpt>
      <trkpt lat="34.595048" lon="112.4983">
        <ele>-9999.9</ele>
        <time>2026-08-15T10:55:41Z</time>
      </trkpt>
      <trkpt lat="34.595006" lon="112.498303">
        <ele>-9999.9</ele>
        <time>2026-08-15T10:55:44Z</time>
      </trkpt>
      <trkpt lat="34.594984" lon="112.498305">
        <ele>-9999.9</ele>
        <time>2026-08-15T10:55:47Z</time>
      </trkpt>
      <trkpt lat="34.594968" lon="112.498308">
        <ele>-9999.9</ele>
        <time>2026-08-15T10:55:50Z</time>
      </trkpt>
      <trkpt lat="34.594965" lon="112.498318">
        <ele>-9999.9</ele>
        <time>2026-08-15T10:55:53Z</time>
      </trkpt>
      <trkpt lat="34.594965" lon="112.498324">
        <ele>-9999.9</ele>
        <time>2026-08-15T10:55:56Z</time>
      </trkpt>
      <trkpt lat="34.594966" lon="112.498326">
        <ele>-9999.9</ele>
        <time>2026-08-15T10:55:59Z</time>
      </trkpt>
      <trkpt lat="34.594961" lon="112.498344">
        <ele>-9999.9</ele>
        <time>2026-08-15T10:56:08Z</time>
      </trkpt>
      <trkpt lat="34.594959" lon="112.498342">
        <ele>-9999.9</ele>
        <time>2026-08-15T10:56:11Z</time>
      </trkpt>
      <trkpt lat="34.594958" lon="112.498341">
        <ele>-9999.9</ele>
        <time>2026-08-15T10:56:14Z</time>
      </trkpt>
      <trkpt lat="34.594961" lon="112.498335">
        <ele>-9999.9</ele>
        <time>2026-08-15T10:56:17Z</time>
      </trkpt>
      <trkpt lat="34.594965" lon="112.498334">
        <ele>-9999.9</ele>
        <time>2026-08-15T10:56:20Z</time>
      </trkpt>
      <trkpt lat="34.594967" lon="112.498332">
        <ele>-9999.9</ele>
        <time>2026-08-15T10:56:23Z</time>
      </trkpt>
      <trkpt lat="34.594968" lon="112.498331">
        <ele>-9999.9</ele>
        <time>2026-08-15T10:56:26Z</time>
      </trkpt>
      <trkpt lat="34.594968" lon="112.498326">
        <ele>-9999.9</ele>
        <time>2026-08-15T10:56:29Z</time>
      </trkpt>
      <trkpt lat="34.594969" lon="112.498324">
        <ele>-9999.9</ele>
        <time>2026-08-15T10:56:32Z</time>
      </trkpt>
      <trkpt lat="34.59497" lon="112.498323">
        <ele>-9999.9</ele>
        <time>2026-08-15T10:56:35Z</time>
      </trkpt>
      <trkpt lat="34.594972" lon="112.498322">
        <ele>-9999.9</ele>
        <time>2026-08-15T10:56:38Z</time>
      </trkpt>
      <trkpt lat="34.594974" lon="112.498324">
        <ele>-9999.9</ele>
        <time>2026-08-15T10:56:41Z</time>
      </trkpt>
      <trkpt lat="34.594975" lon="112.498324">
        <ele>-9999.9</ele>
        <time>2026-08-15T10:56:44Z</time>
      </trkpt>
      <trkpt lat="34.594977" lon="112.498327">
        <ele>-9999.9</ele>
        <time>2026-08-15T10:56:47Z</time>
      </trkpt>
      <trkpt lat="34.594973" lon="112.49833">
        <ele>-9999.9</ele>
        <time>2026-08-15T10:56:50Z</time>
      </trkpt>
      <trkpt lat="34.594972" lon="112.49833">
        <ele>-9999.9</ele>
        <time>2026-08-15T10:56:53Z</time>
      </trkpt>
      <trkpt lat="34.594969" lon="112.498326">
        <ele>-9999.9</ele>
        <time>2026-08-15T10:56:56Z</time>
      </trkpt>
      <trkpt lat="34.594963" lon="112.498317">
        <ele>-9999.9</ele>
        <time>2026-08-15T10:56:59Z</time>
      </trkpt>
      <trkpt lat="34.594958" lon="112.498312">
        <ele>-9999.9</ele>
        <time>2026-08-15T10:57:02Z</time>
      </trkpt>
      <trkpt lat="34.594958" lon="112.498312">
        <ele>-9999.9</ele>
        <time>2026-08-15T10:57:05Z</time>
      </trkpt>
      <trkpt lat="34.594962" lon="112.498314">
        <ele>-9999.9</ele>
        <time>2026-08-15T10:57:08Z</time>
      </trkpt>
      <trkpt lat="34.594964" lon="112.498315">
        <ele>-9999.9</ele>
        <time>2026-08-15T10:57:11Z</time>
      </trkpt>
      <trkpt lat="34.59496" lon="112.498312">
        <ele>-9999.9</ele>
        <time>2026-08-15T10:57:14Z</time>
      </trkpt>
      <trkpt lat="34.594961" lon="112.498311">
        <ele>-9999.9</ele>
        <time>2026-08-15T10:57:17Z</time>
      </trkpt>
      <trkpt lat="34.594964" lon="112.498312">
        <ele>-9999.9</ele>
        <time>2026-08-15T10:57:20Z</time>
      </trkpt>
      <trkpt lat="34.59496" lon="112.49832">
        <ele>-9999.9</ele>
        <time>2026-08-15T10:57:23Z</time>
      </trkpt>
      <trkpt lat="34.59494" lon="112.49837">
        <ele>-9999.9</ele>
        <time>2026-08-15T10:57:35Z</time>
      </trkpt>
      <trkpt lat="34.594938" lon="112.498375">
        <ele>-9999.9</ele>
        <time>2026-08-15T10:57:38Z</time>
      </trkpt>
      <trkpt lat="34.59494" lon="112.498385">
        <ele>-9999.9</ele>
        <time>2026-08-15T10:57:41Z</time>
      </trkpt>
      <trkpt lat="34.594941" lon="112.49839">
        <ele>-9999.9</ele>
        <time>2026-08-15T10:57:44Z</time>
      </trkpt>
      <trkpt lat="34.594941" lon="112.498394">
        <ele>-9999.9</ele>
        <time>2026-08-15T10:57:47Z</time>
      </trkpt>
      <trkpt lat="34.594943" lon="112.498399">
        <ele>-9999.9</ele>
        <time>2026-08-15T10:57:50Z</time>
      </trkpt>
      <trkpt lat="34.594949" lon="112.498413">
        <ele>-9999.9</ele>
        <time>2026-08-15T10:57:53Z</time>
      </trkpt>
      <trkpt lat="34.594961" lon="112.498431">
        <ele>-9999.9</ele>
        <time>2026-08-15T10:57:56Z</time>
      </trkpt>
      <trkpt lat="34.594985" lon="112.498464">
        <ele>-9999.9</ele>
        <time>2026-08-15T10:57:59Z</time>
      </trkpt>
      <trkpt lat="34.594997" lon="112.498481">
        <ele>-9999.9</ele>
        <time>2026-08-15T10:58:02Z</time>
      </trkpt>
      <trkpt lat="34.595014" lon="112.498506">
        <ele>-9999.9</ele>
        <time>2026-08-15T10:58:05Z</time>
      </trkpt>
      <trkpt lat="34.595033" lon="112.498537">
        <ele>-9999.9</ele>
        <time>2026-08-15T10:58:08Z</time>
      </trkpt>
      <trkpt lat="34.595049" lon="112.498573">
        <ele>-9999.9</ele>
        <time>2026-08-15T10:58:11Z</time>
      </trkpt>
      <trkpt lat="34.595068" lon="112.498609">
        <ele>-9999.9</ele>
        <time>2026-08-15T10:58:14Z</time>
      </trkpt>
      <trkpt lat="34.595089" lon="112.498647">
        <ele>-9999.9</ele>
        <time>2026-08-15T10:58:17Z</time>
      </trkpt>
      <trkpt lat="34.595111" lon="112.498679">
        <ele>-9999.9</ele>
        <time>2026-08-15T10:58:19Z</time>
      </trkpt>
      <trkpt lat="34.595137" lon="112.498712">
        <ele>-9999.9</ele>
        <time>2026-08-15T10:58:22Z</time>
      </trkpt>
      <trkpt lat="34.595164" lon="112.498748">
        <ele>-9999.9</ele>
        <time>2026-08-15T10:58:25Z</time>
      </trkpt>
      <trkpt lat="34.595196" lon="112.498784">
        <ele>-9999.9</ele>
        <time>2026-08-15T10:58:28Z</time>
      </trkpt>
      <trkpt lat="34.595219" lon="112.498809">
        <ele>-9999.9</ele>
        <time>2026-08-15T10:58:32Z</time>
      </trkpt>
      <trkpt lat="34.595219" lon="112.498809">
        <ele>-9999.9</ele>
        <time>2026-08-15T10:58:35Z</time>
      </trkpt>
      <trkpt lat="34.595209" lon="112.498817">
        <ele>-9999.9</ele>
        <time>2026-08-15T10:58:38Z</time>
      </trkpt>
      <trkpt lat="34.595204" lon="112.498823">
        <ele>-9999.9</ele>
        <time>2026-08-15T10:58:41Z</time>
      </trkpt>
      <trkpt lat="34.595204" lon="112.498822">
        <ele>-9999.9</ele>
        <time>2026-08-15T10:58:44Z</time>
      </trkpt>
      <trkpt lat="34.595206" lon="112.498821">
        <ele>-9999.9</ele>
        <time>2026-08-15T10:58:47Z</time>
      </trkpt>
      <trkpt lat="34.595211" lon="112.498825">
        <ele>-9999.9</ele>
        <time>2026-08-15T10:58:50Z</time>
      </trkpt>
      <trkpt lat="34.595253" lon="112.498872">
        <ele>-9999.9</ele>
        <time>2026-08-15T10:58:53Z</time>
      </trkpt>
      <trkpt lat="34.595282" lon="112.498908">
        <ele>-9999.9</ele>
        <time>2026-08-15T10:58:56Z</time>
      </trkpt>
      <trkpt lat="34.595314" lon="112.498951">
        <ele>-9999.9</ele>
        <time>2026-08-15T10:58:59Z</time>
      </trkpt>
      <trkpt lat="34.595413" lon="112.499051">
        <ele>-9999.9</ele>
        <time>2026-08-15T10:59:02Z</time>
      </trkpt>
      <trkpt lat="34.595506" lon="112.499114">
        <ele>-9999.9</ele>
        <time>2026-08-15T10:59:05Z</time>
      </trkpt>
      <trkpt lat="34.595574" lon="112.49915">
        <ele>-9999.9</ele>
        <time>2026-08-15T10:59:08Z</time>
      </trkpt>
      <trkpt lat="34.595655" lon="112.499214">
        <ele>-9999.9</ele>
        <time>2026-08-15T10:59:11Z</time>
      </trkpt>
      <trkpt lat="34.595751" lon="112.49929">
        <ele>-9999.9</ele>
        <time>2026-08-15T10:59:14Z</time>
      </trkpt>
      <trkpt lat="34.595801" lon="112.499343">
        <ele>-9999.9</ele>
        <time>2026-08-15T10:59:17Z</time>
      </trkpt>
      <trkpt lat="34.595826" lon="112.499383">
        <ele>-9999.9</ele>
        <time>2026-08-15T10:59:20Z</time>
      </trkpt>
      <trkpt lat="34.595866" lon="112.499437">
        <ele>-9999.9</ele>
        <time>2026-08-15T10:59:23Z</time>
      </trkpt>
      <trkpt lat="34.595936" lon="112.499493">
        <ele>-9999.9</ele>
        <time>2026-08-15T10:59:26Z</time>
      </trkpt>
      <trkpt lat="34.595986" lon="112.49953">
        <ele>-9999.9</ele>
        <time>2026-08-15T10:59:29Z</time>
      </trkpt>
      <trkpt lat="34.596022" lon="112.499559">
        <ele>-9999.9</ele>
        <time>2026-08-15T10:59:32Z</time>
      </trkpt>
      <trkpt lat="34.596089" lon="112.499603">
        <ele>-9999.9</ele>
        <time>2026-08-15T10:59:35Z</time>
      </trkpt>
      <trkpt lat="34.596177" lon="112.499667">
        <ele>-9999.9</ele>
        <time>2026-08-15T10:59:38Z</time>
      </trkpt>
      <trkpt lat="34.596221" lon="112.499704">
        <ele>-9999.9</ele>
        <time>2026-08-15T10:59:41Z</time>
      </trkpt>
      <trkpt lat="34.59628" lon="112.499766">
        <ele>-9999.9</ele>
        <time>2026-08-15T10:59:44Z</time>
      </trkpt>
      <trkpt lat="34.596328" lon="112.499831">
        <ele>-9999.9</ele>
        <time>2026-08-15T10:59:47Z</time>
      </trkpt>
      <trkpt lat="34.59639" lon="112.499907">
        <ele>-9999.9</ele>
        <time>2026-08-15T10:59:50Z</time>
      </trkpt>
      <trkpt lat="34.596423" lon="112.499947">
        <ele>-9999.9</ele>
        <time>2026-08-15T10:59:53Z</time>
      </trkpt>
      <trkpt lat="34.596469" lon="112.50001">
        <ele>-9999.9</ele>
        <time>2026-08-15T10:59:56Z</time>
      </trkpt>
      <trkpt lat="34.596523" lon="112.500067">
        <ele>-9999.9</ele>
        <time>2026-08-15T10:59:59Z</time>
      </trkpt>
      <trkpt lat="34.596601" lon="112.500138">
        <ele>-9999.9</ele>
        <time>2026-08-15T11:00:02Z</time>
      </trkpt>
      <trkpt lat="34.596639" lon="112.500171">
        <ele>-9999.9</ele>
        <time>2026-08-15T11:00:05Z</time>
      </trkpt>
      <trkpt lat="34.596699" lon="112.500224">
        <ele>-9999.9</ele>
        <time>2026-08-15T11:00:08Z</time>
      </trkpt>
      <trkpt lat="34.596792" lon="112.500295">
        <ele>-9999.9</ele>
        <time>2026-08-15T11:00:11Z</time>
      </trkpt>
      <trkpt lat="34.596835" lon="112.500332">
        <ele>-9999.9</ele>
        <time>2026-08-15T11:00:14Z</time>
      </trkpt>
      <trkpt lat="34.596887" lon="112.500383">
        <ele>-9999.9</ele>
        <time>2026-08-15T11:00:17Z</time>
      </trkpt>
      <trkpt lat="34.596931" lon="112.50043">
        <ele>-9999.9</ele>
        <time>2026-08-15T11:00:20Z</time>
      </trkpt>
      <trkpt lat="34.597014" lon="112.500493">
        <ele>-9999.9</ele>
        <time>2026-08-15T11:00:23Z</time>
      </trkpt>
      <trkpt lat="34.597062" lon="112.500531">
        <ele>-9999.9</ele>
        <time>2026-08-15T11:00:26Z</time>
      </trkpt>
      <trkpt lat="34.597139" lon="112.500592">
        <ele>-9999.9</ele>
        <time>2026-08-15T11:00:29Z</time>
      </trkpt>
      <trkpt lat="34.597222" lon="112.500657">
        <ele>-9999.9</ele>
        <time>2026-08-15T11:00:32Z</time>
      </trkpt>
      <trkpt lat="34.597323" lon="112.500758">
        <ele>-9999.9</ele>
        <time>2026-08-15T11:00:35Z</time>
      </trkpt>
      <trkpt lat="34.597369" lon="112.500811">
        <ele>-9999.9</ele>
        <time>2026-08-15T11:00:38Z</time>
      </trkpt>
      <trkpt lat="34.597442" lon="112.500884">
        <ele>-9999.9</ele>
        <time>2026-08-15T11:00:41Z</time>
      </trkpt>
      <trkpt lat="34.597509" lon="112.500946">
        <ele>-9999.9</ele>
        <time>2026-08-15T11:00:44Z</time>
      </trkpt>
      <trkpt lat="34.59759" lon="112.50102">
        <ele>-9999.9</ele>
        <time>2026-08-15T11:00:47Z</time>
      </trkpt>
      <trkpt lat="34.597631" lon="112.501049">
        <ele>-9999.9</ele>
        <time>2026-08-15T11:00:50Z</time>
      </trkpt>
      <trkpt lat="34.59769" lon="112.501094">
        <ele>-9999.9</ele>
        <time>2026-08-15T11:00:53Z</time>
      </trkpt>
      <trkpt lat="34.59775" lon="112.501148">
        <ele>-9999.9</ele>
        <time>2026-08-15T11:00:56Z</time>
      </trkpt>
      <trkpt lat="34.597818" lon="112.501203">
        <ele>-9999.9</ele>
        <time>2026-08-15T11:00:59Z</time>
      </trkpt>
      <trkpt lat="34.597844" lon="112.501257">
        <ele>-9999.9</ele>
        <time>2026-08-15T11:01:02Z</time>
      </trkpt>
      <trkpt lat="34.59782" lon="112.501301">
        <ele>-9999.9</ele>
        <time>2026-08-15T11:01:05Z</time>
      </trkpt>
      <trkpt lat="34.597743" lon="112.501321">
        <ele>-9999.9</ele>
        <time>2026-08-15T11:01:08Z</time>
      </trkpt>
      <trkpt lat="34.597645" lon="112.501321">
        <ele>-9999.9</ele>
        <time>2026-08-15T11:01:11Z</time>
      </trkpt>
      <trkpt lat="34.59755" lon="112.501315">
        <ele>-9999.9</ele>
        <time>2026-08-15T11:01:14Z</time>
      </trkpt>
      <trkpt lat="34.597441" lon="112.501326">
        <ele>-9999.9</ele>
        <time>2026-08-15T11:01:20Z</time>
      </trkpt>
      <trkpt lat="34.597422" lon="112.501338">
        <ele>-9999.9</ele>
        <time>2026-08-15T11:01:23Z</time>
      </trkpt>
      <trkpt lat="34.597386" lon="112.501366">
        <ele>-9999.9</ele>
        <time>2026-08-15T11:01:26Z</time>
      </trkpt>
      <trkpt lat="34.59735" lon="112.501365">
        <ele>-9999.9</ele>
        <time>2026-08-15T11:01:29Z</time>
      </trkpt>
      <trkpt lat="34.59732" lon="112.501355">
        <ele>-9999.9</ele>
        <time>2026-08-15T11:01:31Z</time>
      </trkpt>
      <trkpt lat="34.597305" lon="112.501341">
        <ele>-9999.9</ele>
        <time>2026-08-15T11:01:34Z</time>
      </trkpt>
      <trkpt lat="34.597288" lon="112.501341">
        <ele>-9999.9</ele>
        <time>2026-08-15T11:01:37Z</time>
      </trkpt>
      <trkpt lat="34.597262" lon="112.501342">
        <ele>-9999.9</ele>
        <time>2026-08-15T11:01:40Z</time>
      </trkpt>
      <trkpt lat="34.597217" lon="112.501347">
        <ele>-9999.9</ele>
        <time>2026-08-15T11:01:43Z</time>
      </trkpt>
      <trkpt lat="34.59715" lon="112.501368">
        <ele>-9999.9</ele>
        <time>2026-08-15T11:01:46Z</time>
      </trkpt>
      <trkpt lat="34.597076" lon="112.501406">
        <ele>-9999.9</ele>
        <time>2026-08-15T11:01:49Z</time>
      </trkpt>
      <trkpt lat="34.597" lon="112.501459">
        <ele>-9999.9</ele>
        <time>2026-08-15T11:01:52Z</time>
      </trkpt>
      <trkpt lat="34.596916" lon="112.501522">
        <ele>-9999.9</ele>
        <time>2026-08-15T11:01:55Z</time>
      </trkpt>
      <trkpt lat="34.596828" lon="112.501582">
        <ele>-9999.9</ele>
        <time>2026-08-15T11:01:58Z</time>
      </trkpt>
      <trkpt lat="34.596723" lon="112.50166">
        <ele>-9999.9</ele>
        <time>2026-08-15T11:02:02Z</time>
      </trkpt>
      <trkpt lat="34.59666" lon="112.501734">
        <ele>-9999.9</ele>
        <time>2026-08-15T11:02:05Z</time>
      </trkpt>
      <trkpt lat="34.596616" lon="112.501786">
        <ele>-9999.9</ele>
        <time>2026-08-15T11:02:08Z</time>
      </trkpt>
      <trkpt lat="34.596535" lon="112.501884">
        <ele>-9999.9</ele>
        <time>2026-08-15T11:02:11Z</time>
      </trkpt>
      <trkpt lat="34.596502" lon="112.501952">
        <ele>-9999.9</ele>
        <time>2026-08-15T11:02:14Z</time>
      </trkpt>
      <trkpt lat="34.596496" lon="112.501999">
        <ele>-9999.9</ele>
        <time>2026-08-15T11:02:17Z</time>
      </trkpt>
      <trkpt lat="34.596499" lon="112.50208">
        <ele>-9999.9</ele>
        <time>2026-08-15T11:02:20Z</time>
      </trkpt>
      <trkpt lat="34.596519" lon="112.502203">
        <ele>-9999.9</ele>
        <time>2026-08-15T11:02:23Z</time>
      </trkpt>
      <trkpt lat="34.596542" lon="112.502301">
        <ele>-9999.9</ele>
        <time>2026-08-15T11:02:26Z</time>
      </trkpt>
      <trkpt lat="34.596558" lon="112.502362">
        <ele>-9999.9</ele>
        <time>2026-08-15T11:02:29Z</time>
      </trkpt>
      <trkpt lat="34.596575" lon="112.502452">
        <ele>-9999.9</ele>
        <time>2026-08-15T11:02:32Z</time>
      </trkpt>
      <trkpt lat="34.596578" lon="112.50258">
        <ele>-9999.9</ele>
        <time>2026-08-15T11:02:35Z</time>
      </trkpt>
      <trkpt lat="34.596576" lon="112.502681">
        <ele>-9999.9</ele>
        <time>2026-08-15T11:02:38Z</time>
      </trkpt>
      <trkpt lat="34.596577" lon="112.502753">
        <ele>-9999.9</ele>
        <time>2026-08-15T11:02:41Z</time>
      </trkpt>
      <trkpt lat="34.596572" lon="112.502847">
        <ele>-9999.9</ele>
        <time>2026-08-15T11:02:44Z</time>
      </trkpt>
      <trkpt lat="34.596566" lon="112.502949">
        <ele>-9999.9</ele>
        <time>2026-08-15T11:02:47Z</time>
      </trkpt>
      <trkpt lat="34.596564" lon="112.503016">
        <ele>-9999.9</ele>
        <time>2026-08-15T11:02:50Z</time>
      </trkpt>
      <trkpt lat="34.596554" lon="112.503056">
        <ele>-9999.9</ele>
        <time>2026-08-15T11:02:53Z</time>
      </trkpt>
      <trkpt lat="34.596544" lon="112.50312">
        <ele>-9999.9</ele>
        <time>2026-08-15T11:02:56Z</time>
      </trkpt>
      <trkpt lat="34.596547" lon="112.503207">
        <ele>-9999.9</ele>
        <time>2026-08-15T11:02:59Z</time>
      </trkpt>
      <trkpt lat="34.596555" lon="112.503253">
        <ele>-9999.9</ele>
        <time>2026-08-15T11:03:02Z</time>
      </trkpt>
      <trkpt lat="34.596552" lon="112.503313">
        <ele>-9999.9</ele>
        <time>2026-08-15T11:03:05Z</time>
      </trkpt>
      <trkpt lat="34.59655" lon="112.50337">
        <ele>-9999.9</ele>
        <time>2026-08-15T11:03:08Z</time>
      </trkpt>
      <trkpt lat="34.596536" lon="112.503438">
        <ele>-9999.9</ele>
        <time>2026-08-15T11:03:11Z</time>
      </trkpt>
      <trkpt lat="34.596528" lon="112.503483">
        <ele>-9999.9</ele>
        <time>2026-08-15T11:03:14Z</time>
      </trkpt>
      <trkpt lat="34.596521" lon="112.503546">
        <ele>-9999.9</ele>
        <time>2026-08-15T11:03:17Z</time>
      </trkpt>
      <trkpt lat="34.596509" lon="112.503619">
        <ele>-9999.9</ele>
        <time>2026-08-15T11:03:20Z</time>
      </trkpt>
      <trkpt lat="34.596485" lon="112.503723">
        <ele>-9999.9</ele>
        <time>2026-08-15T11:03:23Z</time>
      </trkpt>
      <trkpt lat="34.596482" lon="112.503774">
        <ele>-9999.9</ele>
        <time>2026-08-15T11:03:26Z</time>
      </trkpt>
      <trkpt lat="34.596472" lon="112.50385">
        <ele>-9999.9</ele>
        <time>2026-08-15T11:03:29Z</time>
      </trkpt>
      <trkpt lat="34.596439" lon="112.503954">
        <ele>-9999.9</ele>
        <time>2026-08-15T11:03:32Z</time>
      </trkpt>
      <trkpt lat="34.59642" lon="112.504045">
        <ele>-9999.9</ele>
        <time>2026-08-15T11:03:35Z</time>
      </trkpt>
      <trkpt lat="34.596407" lon="112.504103">
        <ele>-9999.9</ele>
        <time>2026-08-15T11:03:38Z</time>
      </trkpt>
      <trkpt lat="34.596389" lon="112.50417">
        <ele>-9999.9</ele>
        <time>2026-08-15T11:03:41Z</time>
      </trkpt>
      <trkpt lat="34.596373" lon="112.504244">
        <ele>-9999.9</ele>
        <time>2026-08-15T11:03:44Z</time>
      </trkpt>
      <trkpt lat="34.596369" lon="112.504281">
        <ele>-9999.9</ele>
        <time>2026-08-15T11:03:47Z</time>
      </trkpt>
      <trkpt lat="34.596352" lon="112.504335">
        <ele>-9999.9</ele>
        <time>2026-08-15T11:03:50Z</time>
      </trkpt>
      <trkpt lat="34.596326" lon="112.504391">
        <ele>-9999.9</ele>
        <time>2026-08-15T11:03:53Z</time>
      </trkpt>
      <trkpt lat="34.596292" lon="112.504471">
        <ele>-9999.9</ele>
        <time>2026-08-15T11:03:56Z</time>
      </trkpt>
      <trkpt lat="34.59628" lon="112.504524">
        <ele>-9999.9</ele>
        <time>2026-08-15T11:03:59Z</time>
      </trkpt>
      <trkpt lat="34.596265" lon="112.504618">
        <ele>-9999.9</ele>
        <time>2026-08-15T11:04:02Z</time>
      </trkpt>
      <trkpt lat="34.596256" lon="112.504725">
        <ele>-9999.9</ele>
        <time>2026-08-15T11:04:05Z</time>
      </trkpt>
      <trkpt lat="34.596255" lon="112.50486">
        <ele>-9999.9</ele>
        <time>2026-08-15T11:04:08Z</time>
      </trkpt>
      <trkpt lat="34.596253" lon="112.50492">
        <ele>-9999.9</ele>
        <time>2026-08-15T11:04:11Z</time>
      </trkpt>
      <trkpt lat="34.596254" lon="112.505003">
        <ele>-9999.9</ele>
        <time>2026-08-15T11:04:14Z</time>
      </trkpt>
      <trkpt lat="34.596258" lon="112.505073">
        <ele>-9999.9</ele>
        <time>2026-08-15T11:04:17Z</time>
      </trkpt>
      <trkpt lat="34.596258" lon="112.505111">
        <ele>-9999.9</ele>
        <time>2026-08-15T11:04:18Z</time>
      </trkpt>
      <trkpt lat="34.596263" lon="112.505173">
        <ele>-9999.9</ele>
        <time>2026-08-15T11:04:23Z</time>
      </trkpt>
      <trkpt lat="34.596286" lon="112.505223">
        <ele>-9999.9</ele>
        <time>2026-08-15T11:04:26Z</time>
      </trkpt>
      <trkpt lat="34.596314" lon="112.505282">
        <ele>-9999.9</ele>
        <time>2026-08-15T11:04:29Z</time>
      </trkpt>
      <trkpt lat="34.596332" lon="112.505335">
        <ele>-9999.9</ele>
        <time>2026-08-15T11:04:32Z</time>
      </trkpt>
      <trkpt lat="34.59632" lon="112.505396">
        <ele>-9999.9</ele>
        <time>2026-08-15T11:04:35Z</time>
      </trkpt>
      <trkpt lat="34.59631" lon="112.505448">
        <ele>-9999.9</ele>
        <time>2026-08-15T11:04:38Z</time>
      </trkpt>
      <trkpt lat="34.596307" lon="112.505521">
        <ele>-9999.9</ele>
        <time>2026-08-15T11:04:41Z</time>
      </trkpt>
      <trkpt lat="34.596318" lon="112.505559">
        <ele>-9999.9</ele>
        <time>2026-08-15T11:04:44Z</time>
      </trkpt>
      <trkpt lat="34.596348" lon="112.505614">
        <ele>-9999.9</ele>
        <time>2026-08-15T11:04:47Z</time>
      </trkpt>
      <trkpt lat="34.59637" lon="112.505666">
        <ele>-9999.9</ele>
        <time>2026-08-15T11:04:50Z</time>
      </trkpt>
      <trkpt lat="34.596372" lon="112.505755">
        <ele>-9999.9</ele>
        <time>2026-08-15T11:04:53Z</time>
      </trkpt>
      <trkpt lat="34.596367" lon="112.505794">
        <ele>-9999.9</ele>
        <time>2026-08-15T11:04:56Z</time>
      </trkpt>
      <trkpt lat="34.596362" lon="112.50584">
        <ele>-9999.9</ele>
        <time>2026-08-15T11:04:59Z</time>
      </trkpt>
      <trkpt lat="34.596359" lon="112.505864">
        <ele>-9999.9</ele>
        <time>2026-08-15T11:05:05Z</time>
      </trkpt>
      <trkpt lat="34.596368" lon="112.505866">
        <ele>-9999.9</ele>
        <time>2026-08-15T11:05:08Z</time>
      </trkpt>
      <trkpt lat="34.596372" lon="112.505887">
        <ele>-9999.9</ele>
        <time>2026-08-15T11:05:11Z</time>
      </trkpt>
      <trkpt lat="34.596373" lon="112.50591">
        <ele>-9999.9</ele>
        <time>2026-08-15T11:05:14Z</time>
      </trkpt>
      <trkpt lat="34.596362" lon="112.50593">
        <ele>-9999.9</ele>
        <time>2026-08-15T11:05:17Z</time>
      </trkpt>
      <trkpt lat="34.596351" lon="112.505944">
        <ele>-9999.9</ele>
        <time>2026-08-15T11:05:19Z</time>
      </trkpt>
      <trkpt lat="34.596326" lon="112.505988">
        <ele>-9999.9</ele>
        <time>2026-08-15T11:05:23Z</time>
      </trkpt>
      <trkpt lat="34.596303" lon="112.50604">
        <ele>-9999.9</ele>
        <time>2026-08-15T11:05:26Z</time>
      </trkpt>
      <trkpt lat="34.596266" lon="112.506125">
        <ele>-9999.9</ele>
        <time>2026-08-15T11:05:29Z</time>
      </trkpt>
      <trkpt lat="34.596233" lon="112.506231">
        <ele>-9999.9</ele>
        <time>2026-08-15T11:05:32Z</time>
      </trkpt>
      <trkpt lat="34.596204" lon="112.506335">
        <ele>-9999.9</ele>
        <time>2026-08-15T11:05:35Z</time>
      </trkpt>
      <trkpt lat="34.596169" lon="112.50642">
        <ele>-9999.9</ele>
        <time>2026-08-15T11:05:38Z</time>
      </trkpt>
      <trkpt lat="34.596148" lon="112.506482">
        <ele>-9999.9</ele>
        <time>2026-08-15T11:05:41Z</time>
      </trkpt>
      <trkpt lat="34.596131" lon="112.506534">
        <ele>-9999.9</ele>
        <time>2026-08-15T11:05:43Z</time>
      </trkpt>
      <trkpt lat="34.596112" lon="112.506571">
        <ele>-9999.9</ele>
        <time>2026-08-15T11:05:46Z</time>
      </trkpt>
      <trkpt lat="34.596085" lon="112.506612">
        <ele>-9999.9</ele>
        <time>2026-08-15T11:05:49Z</time>
      </trkpt>
      <trkpt lat="34.596065" lon="112.506666">
        <ele>-9999.9</ele>
        <time>2026-08-15T11:05:52Z</time>
      </trkpt>
      <trkpt lat="34.596043" lon="112.506753">
        <ele>-9999.9</ele>
        <time>2026-08-15T11:05:56Z</time>
      </trkpt>
      <trkpt lat="34.596021" lon="112.506848">
        <ele>-9999.9</ele>
        <time>2026-08-15T11:05:59Z</time>
      </trkpt>
      <trkpt lat="34.596004" lon="112.506927">
        <ele>-9999.9</ele>
        <time>2026-08-15T11:06:04Z</time>
      </trkpt>
      <trkpt lat="34.595997" lon="112.506965">
        <ele>-9999.9</ele>
        <time>2026-08-15T11:06:07Z</time>
      </trkpt>
      <trkpt lat="34.595984" lon="112.507013">
        <ele>-9999.9</ele>
        <time>2026-08-15T11:06:10Z</time>
      </trkpt>
      <trkpt lat="34.595969" lon="112.507052">
        <ele>-9999.9</ele>
        <time>2026-08-15T11:06:13Z</time>
      </trkpt>
      <trkpt lat="34.595971" lon="112.507091">
        <ele>-9999.9</ele>
        <time>2026-08-15T11:06:16Z</time>
      </trkpt>
      <trkpt lat="34.596" lon="112.507148">
        <ele>-9999.9</ele>
        <time>2026-08-15T11:06:20Z</time>
      </trkpt>
      <trkpt lat="34.596037" lon="112.507188">
        <ele>-9999.9</ele>
        <time>2026-08-15T11:06:23Z</time>
      </trkpt>
      <trkpt lat="34.59607" lon="112.507218">
        <ele>-9999.9</ele>
        <time>2026-08-15T11:06:26Z</time>
      </trkpt>
      <trkpt lat="34.59616" lon="112.507272">
        <ele>-9999.9</ele>
        <time>2026-08-15T11:06:29Z</time>
      </trkpt>
      <trkpt lat="34.596231" lon="112.507313">
        <ele>-9999.9</ele>
        <time>2026-08-15T11:06:32Z</time>
      </trkpt>
      <trkpt lat="34.596284" lon="112.507345">
        <ele>-9999.9</ele>
        <time>2026-08-15T11:06:35Z</time>
      </trkpt>
      <trkpt lat="34.596369" lon="112.507396">
        <ele>-9999.9</ele>
        <time>2026-08-15T11:06:38Z</time>
      </trkpt>
      <trkpt lat="34.596475" lon="112.507472">
        <ele>-9999.9</ele>
        <time>2026-08-15T11:06:41Z</time>
      </trkpt>
      <trkpt lat="34.596529" lon="112.507539">
        <ele>-9999.9</ele>
        <time>2026-08-15T11:06:44Z</time>
      </trkpt>
      <trkpt lat="34.596557" lon="112.507586">
        <ele>-9999.9</ele>
        <time>2026-08-15T11:06:47Z</time>
      </trkpt>
      <trkpt lat="34.596602" lon="112.507654">
        <ele>-9999.9</ele>
        <time>2026-08-15T11:06:50Z</time>
      </trkpt>
      <trkpt lat="34.596663" lon="112.507741">
        <ele>-9999.9</ele>
        <time>2026-08-15T11:06:53Z</time>
      </trkpt>
      <trkpt lat="34.59671" lon="112.507804">
        <ele>-9999.9</ele>
        <time>2026-08-15T11:06:56Z</time>
      </trkpt>
      <trkpt lat="34.596738" lon="112.507851">
        <ele>-9999.9</ele>
        <time>2026-08-15T11:06:59Z</time>
      </trkpt>
      <trkpt lat="34.596785" lon="112.50792">
        <ele>-9999.9</ele>
        <time>2026-08-15T11:07:02Z</time>
      </trkpt>
      <trkpt lat="34.596859" lon="112.508009">
        <ele>-9999.9</ele>
        <time>2026-08-15T11:07:05Z</time>
      </trkpt>
      <trkpt lat="34.596897" lon="112.508056">
        <ele>-9999.9</ele>
        <time>2026-08-15T11:07:08Z</time>
      </trkpt>
      <trkpt lat="34.596952" lon="112.508133">
        <ele>-9999.9</ele>
        <time>2026-08-15T11:07:11Z</time>
      </trkpt>
      <trkpt lat="34.597008" lon="112.508207">
        <ele>-9999.9</ele>
        <time>2026-08-15T11:07:14Z</time>
      </trkpt>
      <trkpt lat="34.597068" lon="112.508294">
        <ele>-9999.9</ele>
        <time>2026-08-15T11:07:17Z</time>
      </trkpt>
      <trkpt lat="34.597096" lon="112.508325">
        <ele>-9999.9</ele>
        <time>2026-08-15T11:07:20Z</time>
      </trkpt>
      <trkpt lat="34.597129" lon="112.508364">
        <ele>-9999.9</ele>
        <time>2026-08-15T11:07:23Z</time>
      </trkpt>
      <trkpt lat="34.597142" lon="112.508389">
        <ele>-9999.9</ele>
        <time>2026-08-15T11:07:26Z</time>
      </trkpt>
      <trkpt lat="34.597133" lon="112.508395">
        <ele>-9999.9</ele>
        <time>2026-08-15T11:07:29Z</time>
      </trkpt>
      <trkpt lat="34.59713" lon="112.508398">
        <ele>-9999.9</ele>
        <time>2026-08-15T11:07:32Z</time>
      </trkpt>
      <trkpt lat="34.597132" lon="112.508403">
        <ele>-9999.9</ele>
        <time>2026-08-15T11:07:35Z</time>
      </trkpt>
      <trkpt lat="34.597135" lon="112.508403">
        <ele>-9999.9</ele>
        <time>2026-08-15T11:07:38Z</time>
      </trkpt>
      <trkpt lat="34.597137" lon="112.508404">
        <ele>-9999.9</ele>
        <time>2026-08-15T11:07:41Z</time>
      </trkpt>
      <trkpt lat="34.597138" lon="112.508404">
        <ele>-9999.9</ele>
        <time>2026-08-15T11:07:44Z</time>
      </trkpt>
      <trkpt lat="34.597138" lon="112.508405">
        <ele>-9999.9</ele>
        <time>2026-08-15T11:07:47Z</time>
      </trkpt>
      <trkpt lat="34.597139" lon="112.508412">
        <ele>-9999.9</ele>
        <time>2026-08-15T11:07:50Z</time>
      </trkpt>
      <trkpt lat="34.597133" lon="112.508432">
        <ele>-9999.9</ele>
        <time>2026-08-15T11:07:53Z</time>
      </trkpt>
      <trkpt lat="34.597105" lon="112.50846">
        <ele>-9999.9</ele>
        <time>2026-08-15T11:07:56Z</time>
      </trkpt>
      <trkpt lat="34.597054" lon="112.508509">
        <ele>-9999.9</ele>
        <time>2026-08-15T11:07:59Z</time>
      </trkpt>
      <trkpt lat="34.596972" lon="112.508588">
        <ele>-9999.9</ele>
        <time>2026-08-15T11:08:02Z</time>
      </trkpt>
      <trkpt lat="34.596917" lon="112.508623">
        <ele>-9999.9</ele>
        <time>2026-08-15T11:08:05Z</time>
      </trkpt>
      <trkpt lat="34.596829" lon="112.508649">
        <ele>-9999.9</ele>
        <time>2026-08-15T11:08:08Z</time>
      </trkpt>
      <trkpt lat="34.596728" lon="112.508649">
        <ele>-9999.9</ele>
        <time>2026-08-15T11:08:11Z</time>
      </trkpt>
      <trkpt lat="34.596603" lon="112.508633">
        <ele>-9999.9</ele>
        <time>2026-08-15T11:08:14Z</time>
      </trkpt>
      <trkpt lat="34.596548" lon="112.508629">
        <ele>-9999.9</ele>
        <time>2026-08-15T11:08:17Z</time>
      </trkpt>
      <trkpt lat="34.59647" lon="112.508637">
        <ele>-9999.9</ele>
        <time>2026-08-15T11:08:20Z</time>
      </trkpt>
      <trkpt lat="34.596396" lon="112.508654">
        <ele>-9999.9</ele>
        <time>2026-08-15T11:08:23Z</time>
      </trkpt>
      <trkpt lat="34.596299" lon="112.508676">
        <ele>-9999.9</ele>
        <time>2026-08-15T11:08:26Z</time>
      </trkpt>
      <trkpt lat="34.596247" lon="112.508684">
        <ele>-9999.9</ele>
        <time>2026-08-15T11:08:29Z</time>
      </trkpt>
      <trkpt lat="34.596163" lon="112.5087">
        <ele>-9999.9</ele>
        <time>2026-08-15T11:08:32Z</time>
      </trkpt>
      <trkpt lat="34.596079" lon="112.508707">
        <ele>-9999.9</ele>
        <time>2026-08-15T11:08:35Z</time>
      </trkpt>
      <trkpt lat="34.595989" lon="112.508721">
        <ele>-9999.9</ele>
        <time>2026-08-15T11:08:38Z</time>
      </trkpt>
      <trkpt lat="34.595898" lon="112.508736">
        <ele>-9999.9</ele>
        <time>2026-08-15T11:08:41Z</time>
      </trkpt>
      <trkpt lat="34.595805" lon="112.508738">
        <ele>-9999.9</ele>
        <time>2026-08-15T11:08:44Z</time>
      </trkpt>
      <trkpt lat="34.595714" lon="112.508732">
        <ele>-9999.9</ele>
        <time>2026-08-15T11:08:47Z</time>
      </trkpt>
      <trkpt lat="34.595624" lon="112.508725">
        <ele>-9999.9</ele>
        <time>2026-08-15T11:08:50Z</time>
      </trkpt>
      <trkpt lat="34.59554" lon="112.508724">
        <ele>-9999.9</ele>
        <time>2026-08-15T11:08:52Z</time>
      </trkpt>
      <trkpt lat="34.59547" lon="112.508717">
        <ele>-9999.9</ele>
        <time>2026-08-15T11:08:55Z</time>
      </trkpt>
      <trkpt lat="34.595421" lon="112.508712">
        <ele>-9999.9</ele>
        <time>2026-08-15T11:08:58Z</time>
      </trkpt>
      <trkpt lat="34.595412" lon="112.508752">
        <ele>-9999.9</ele>
        <time>2026-08-15T11:09:01Z</time>
      </trkpt>
      <trkpt lat="34.59541" lon="112.508811">
        <ele>-9999.9</ele>
        <time>2026-08-15T11:09:04Z</time>
      </trkpt>
      <trkpt lat="34.595415" lon="112.508887">
        <ele>-9999.9</ele>
        <time>2026-08-15T11:09:08Z</time>
      </trkpt>
      <trkpt lat="34.595424" lon="112.508914">
        <ele>-9999.9</ele>
        <time>2026-08-15T11:09:11Z</time>
      </trkpt>
      <trkpt lat="34.595436" lon="112.50894">
        <ele>-9999.9</ele>
        <time>2026-08-15T11:09:14Z</time>
      </trkpt>
      <trkpt lat="34.595445" lon="112.508944">
        <ele>-9999.9</ele>
        <time>2026-08-15T11:09:17Z</time>
      </trkpt>
      <trkpt lat="34.595462" lon="112.508942">
        <ele>-9999.9</ele>
        <time>2026-08-15T11:09:20Z</time>
      </trkpt>
      <trkpt lat="34.595481" lon="112.508946">
        <ele>-9999.9</ele>
        <time>2026-08-15T11:09:23Z</time>
      </trkpt>
      <trkpt lat="34.595506" lon="112.508969">
        <ele>-9999.9</ele>
        <time>2026-08-15T11:09:25Z</time>
      </trkpt>
      <trkpt lat="34.595529" lon="112.509047">
        <ele>-9999.9</ele>
        <time>2026-08-15T11:09:29Z</time>
      </trkpt>
      <trkpt lat="34.595533" lon="112.509153">
        <ele>-9999.9</ele>
        <time>2026-08-15T11:09:32Z</time>
      </trkpt>
      <trkpt lat="34.595524" lon="112.509233">
        <ele>-9999.9</ele>
        <time>2026-08-15T11:09:35Z</time>
      </trkpt>
      <trkpt lat="34.595492" lon="112.509347">
        <ele>-9999.9</ele>
        <time>2026-08-15T11:09:38Z</time>
      </trkpt>
      <trkpt lat="34.595522" lon="112.50942">
        <ele>-9999.9</ele>
        <time>2026-08-15T11:09:56Z</time>
      </trkpt>
      <trkpt lat="34.595522" lon="112.50942">
        <ele>-9999.9</ele>
        <time>2026-08-15T11:11:05Z</time>
      </trkpt>
      <trkpt lat="34.595522" lon="112.50942">
        <ele>-9999.9</ele>
        <time>2026-08-15T11:11:08Z</time>
      </trkpt>
      <trkpt lat="34.595522" lon="112.50942">
        <ele>-9999.9</ele>
        <time>2026-08-15T11:11:11Z</time>
      </trkpt>
      <trkpt lat="34.595917" lon="112.508512">
        <ele>-9999.9</ele>
        <time>2026-08-15T11:11:14Z</time>
      </trkpt>
      <trkpt lat="34.595895" lon="112.508533">
        <ele>-9999.9</ele>
        <time>2026-08-15T11:11:26Z</time>
      </trkpt>
      <trkpt lat="34.595762" lon="112.509053">
        <ele>-9999.9</ele>
        <time>2026-08-15T11:11:35Z</time>
      </trkpt>
      <trkpt lat="34.595742" lon="112.509112">
        <ele>-9999.9</ele>
        <time>2026-08-15T11:11:38Z</time>
      </trkpt>
      <trkpt lat="34.595723" lon="112.509222">
        <ele>-9999.9</ele>
        <time>2026-08-15T11:11:41Z</time>
      </trkpt>
      <trkpt lat="34.595716" lon="112.509431">
        <ele>-9999.9</ele>
        <time>2026-08-15T11:11:44Z</time>
      </trkpt>
      <trkpt lat="34.595709" lon="112.50972">
        <ele>-9999.9</ele>
        <time>2026-08-15T11:11:47Z</time>
      </trkpt>
      <trkpt lat="34.595703" lon="112.509877">
        <ele>-9999.9</ele>
        <time>2026-08-15T11:11:50Z</time>
      </trkpt>
      <trkpt lat="34.595689" lon="112.510105">
        <ele>-9999.9</ele>
        <time>2026-08-15T11:11:53Z</time>
      </trkpt>
      <trkpt lat="34.595667" lon="112.510317">
        <ele>-9999.9</ele>
        <time>2026-08-15T11:11:56Z</time>
      </trkpt>
      <trkpt lat="34.59562" lon="112.510586">
        <ele>-9999.9</ele>
        <time>2026-08-15T11:11:59Z</time>
      </trkpt>
      <trkpt lat="34.595596" lon="112.510691">
        <ele>-9999.9</ele>
        <time>2026-08-15T11:12:02Z</time>
      </trkpt>
    </trkseg>
  </trk>
</gpx>