<?xml version="1.0" encoding="UTF-8"?>
<gpx xmlns="http://www.topografix.com/GPX/1/1" xmlns:gpxtpx="http://www.garmin.com/xmlschemas/TrackPointExtension/v1" xmlns:xsi="http://www.w3.org/2001/XMLSchema-instance" xsi:schemaLocation="http://www.topografix.com/GPX/1/1 http://www.topografix.com/GPX/1/1/gpx.xsd" version="1.1" creator="gpx.py -- https://github.com/tkrajina/gpxpy">
  <trk>
    <name>晚上跑步</name>
    <type>running</type>
    <trkseg>
      <trkpt lat="34.585645" lon="112.558632">
        <ele>-9999.9</ele>
        <time>2026-08-18T12:10:46Z</time>
      </trkpt>
      <trkpt lat="34.585733" lon="112.558643">
        <ele>-9999.9</ele>
        <time>2026-08-18T12:10:49Z</time>
      </trkpt>
      <trkpt lat="34.585885" lon="112.558658">
        <ele>-9999.9</ele>
        <time>2026-08-18T12:10:52Z</time>
      </trkpt>
      <trkpt lat="34.58597" lon="112.558665">
        <ele>-9999.9</ele>
        <time>2026-08-18T12:10:55Z</time>
      </trkpt>
      <trkpt lat="34.586136" lon="112.558679">
        <ele>-9999.9</ele>
        <time>2026-08-18T12:10:58Z</time>
      </trkpt>
      <trkpt lat="34.586253" lon="112.558689">
        <ele>-9999.9</ele>
        <time>2026-08-18T12:11:01Z</time>
      </trkpt>
      <trkpt lat="34.586364" lon="112.558691">
        <ele>-9999.9</ele>
        <time>2026-08-18T12:11:04Z</time>
      </trkpt>
      <trkpt lat="34.586428" lon="112.558692">
        <ele>-9999.9</ele>
        <time>2026-08-18T12:11:07Z</time>
      </trkpt>
      <trkpt lat="34.58656" lon="112.558696">
        <ele>-9999.9</ele>
        <time>2026-08-18T12:11:10Z</time>
      </trkpt>
      <trkpt lat="34.586662" lon="112.558701">
        <ele>-9999.9</ele>
        <time>2026-08-18T12:11:13Z</time>
      </trkpt>
      <trkpt lat="34.586761" lon="112.558686">
        <ele>-9999.9</ele>
        <time>2026-08-18T12:11:16Z</time>
      </trkpt>
      <trkpt lat="34.586842" lon="112.558623">
        <ele>-9999.9</ele>
        <time>2026-08-18T12:11:19Z</time>
      </trkpt>
      <trkpt lat="34.586911" lon="112.55851">
        <ele>-9999.9</ele>
        <time>2026-08-18T12:11:22Z</time>
      </trkpt>
      <trkpt lat="34.586957" lon="112.558402">
        <ele>-9999.9</ele>
        <time>2026-08-18T12:11:25Z</time>
      </trkpt>
      <trkpt lat="34.586967" lon="112.558332">
        <ele>-9999.9</ele>
        <time>2026-08-18T12:11:28Z</time>
      </trkpt>
      <trkpt lat="34.586967" lon="112.558185">
        <ele>-9999.9</ele>
        <time>2026-08-18T12:11:31Z</time>
      </trkpt>
      <trkpt lat="34.586943" lon="112.558071">
        <ele>-9999.9</ele>
        <time>2026-08-18T12:11:34Z</time>
      </trkpt>
      <trkpt lat="34.586889" lon="112.557968">
        <ele>-9999.9</ele>
        <time>2026-08-18T12:11:37Z</time>
      </trkpt>
      <trkpt lat="34.586843" lon="112.557916">
        <ele>-9999.9</ele>
        <time>2026-08-18T12:11:40Z</time>
      </trkpt>
      <trkpt lat="34.586718" lon="112.557849">
        <ele>-9999.9</ele>
        <time>2026-08-18T12:11:43Z</time>
      </trkpt>
      <trkpt lat="34.586612" lon="112.557842">
        <ele>-9999.9</ele>
        <time>2026-08-18T12:11:46Z</time>
      </trkpt>
      <trkpt lat="34.586498" lon="112.557857">
        <ele>-9999.9</ele>
        <time>2026-08-18T12:11:49Z</time>
      </trkpt>
      <trkpt lat="34.586422" lon="112.557868">
        <ele>-9999.9</ele>
        <time>2026-08-18T12:11:52Z</time>
      </trkpt>
      <trkpt lat="34.58627" lon="112.55789">
        <ele>-9999.9</ele>
        <time>2026-08-18T12:11:55Z</time>
      </trkpt>
      <trkpt lat="34.586151" lon="112.557902">
        <ele>-9999.9</ele>
        <time>2026-08-18T12:11:58Z</time>
      </trkpt>
      <trkpt lat="34.586031" lon="112.557906">
        <ele>-9999.9</ele>
        <time>2026-08-18T12:12:01Z</time>
      </trkpt>
      <trkpt lat="34.585951" lon="112.557906">
        <ele>-9999.9</ele>
        <time>2026-08-18T12:12:04Z</time>
      </trkpt>
      <trkpt lat="34.585791" lon="112.557901">
        <ele>-9999.9</ele>
        <time>2026-08-18T12:12:07Z</time>
      </trkpt>
      <trkpt lat="34.585678" lon="112.557926">
        <ele>-9999.9</ele>
        <time>2026-08-18T12:12:10Z</time>
      </trkpt>
      <trkpt lat="34.58561" lon="112.557963">
        <ele>-9999.9</ele>
        <time>2026-08-18T12:12:13Z</time>
      </trkpt>
      <trkpt lat="34.585527" lon="112.558062">
        <ele>-9999.9</ele>
        <time>2026-08-18T12:12:16Z</time>
      </trkpt>
      <trkpt lat="34.585464" lon="112.558243">
        <ele>-9999.9</ele>
        <time>2026-08-18T12:12:19Z</time>
      </trkpt>
      <trkpt lat="34.58545" lon="112.558387">
        <ele>-9999.9</ele>
        <time>2026-08-18T12:12:22Z</time>
      </trkpt>
      <trkpt lat="34.585464" lon="112.558473">
        <ele>-9999.9</ele>
        <time>2026-08-18T12:12:25Z</time>
      </trkpt>
      <trkpt lat="34.585517" lon="112.558579">
        <ele>-9999.9</ele>
        <time>2026-08-18T12:12:28Z</time>
      </trkpt>
      <trkpt lat="34.585626" lon="112.558672">
        <ele>-9999.9</ele>
        <time>2026-08-18T12:12:31Z</time>
      </trkpt>
      <trkpt lat="34.585722" lon="112.55871">
        <ele>-9999.9</ele>
        <time>2026-08-18T12:12:34Z</time>
      </trkpt>
      <trkpt lat="34.585829" lon="112.558723">
        <ele>-9999.9</ele>
        <time>2026-08-18T12:12:38Z</time>
      </trkpt>
      <trkpt lat="34.585941" lon="112.558716">
        <ele>-9999.9</ele>
        <time>2026-08-18T12:12:41Z</time>
      </trkpt>
      <trkpt lat="34.586049" lon="112.558705">
        <ele>-9999.9</ele>
        <time>2026-08-18T12:12:44Z</time>
      </trkpt>
      <trkpt lat="34.586145" lon="112.5587">
        <ele>-9999.9</ele>
        <time>2026-08-18T12:12:47Z</time>
      </trkpt>
      <trkpt lat="34.586238" lon="112.558698">
        <ele>-9999.9</ele>
        <time>2026-08-18T12:12:50Z</time>
      </trkpt>
      <trkpt lat="34.58633" lon="112.558691">
        <ele>-9999.9</ele>
        <time>2026-08-18T12:12:53Z</time>
      </trkpt>
      <trkpt lat="34.586418" lon="112.558692">
        <ele>-9999.9</ele>
        <time>2026-08-18T12:12:56Z</time>
      </trkpt>
      <trkpt lat="34.586508" lon="112.55869">
        <ele>-9999.9</ele>
        <time>2026-08-18T12:12:59Z</time>
      </trkpt>
      <trkpt lat="34.586596" lon="112.558682">
        <ele>-9999.9</ele>
        <time>2026-08-18T12:13:02Z</time>
      </trkpt>
      <trkpt lat="34.586684" lon="112.55867">
        <ele>-9999.9</ele>
        <time>2026-08-18T12:13:04Z</time>
      </trkpt>
      <trkpt lat="34.586804" lon="112.558626">
        <ele>-9999.9</ele>
        <time>2026-08-18T12:13:08Z</time>
      </trkpt>
      <trkpt lat="34.586853" lon="112.558588">
        <ele>-9999.9</ele>
        <time>2026-08-18T12:13:11Z</time>
      </trkpt>
      <trkpt lat="34.586932" lon="112.558472">
        <ele>-9999.9</ele>
        <time>2026-08-18T12:13:14Z</time>
      </trkpt>
      <trkpt lat="34.586965" lon="112.558355">
        <ele>-9999.9</ele>
        <time>2026-08-18T12:13:17Z</time>
      </trkpt>
      <trkpt lat="34.58697" lon="112.558238">
        <ele>-9999.9</ele>
        <time>2026-08-18T12:13:20Z</time>
      </trkpt>
      <trkpt lat="34.586956" lon="112.558164">
        <ele>-9999.9</ele>
        <time>2026-08-18T12:13:23Z</time>
      </trkpt>
      <trkpt lat="34.586896" lon="112.558029">
        <ele>-9999.9</ele>
        <time>2026-08-18T12:13:26Z</time>
      </trkpt>
      <trkpt lat="34.586852" lon="112.557976">
        <ele>-9999.9</ele>
        <time>2026-08-18T12:13:28Z</time>
      </trkpt>
      <trkpt lat="34.586784" lon="112.557917">
        <ele>-9999.9</ele>
        <time>2026-08-18T12:13:31Z</time>
      </trkpt>
      <trkpt lat="34.586704" lon="112.557886">
        <ele>-9999.9</ele>
        <time>2026-08-18T12:13:34Z</time>
      </trkpt>
      <trkpt lat="34.586611" lon="112.557878">
        <ele>-9999.9</ele>
        <time>2026-08-18T12:13:37Z</time>
      </trkpt>
      <trkpt lat="34.586505" lon="112.557885">
        <ele>-9999.9</ele>
        <time>2026-08-18T12:13:40Z</time>
      </trkpt>
      <trkpt lat="34.586428" lon="112.557892">
        <ele>-9999.9</ele>
        <time>2026-08-18T12:13:43Z</time>
      </trkpt>
      <trkpt lat="34.586284" lon="112.557904">
        <ele>-9999.9</ele>
        <time>2026-08-18T12:13:46Z</time>
      </trkpt>
      <trkpt lat="34.586189" lon="112.557914">
        <ele>-9999.9</ele>
        <time>2026-08-18T12:13:49Z</time>
      </trkpt>
      <trkpt lat="34.586092" lon="112.557917">
        <ele>-9999.9</ele>
        <time>2026-08-18T12:13:52Z</time>
      </trkpt>
      <trkpt lat="34.586023" lon="112.557915">
        <ele>-9999.9</ele>
        <time>2026-08-18T12:13:55Z</time>
      </trkpt>
      <trkpt lat="34.585882" lon="112.557909">
        <ele>-9999.9</ele>
        <time>2026-08-18T12:13:58Z</time>
      </trkpt>
      <trkpt lat="34.585771" lon="112.557915">
        <ele>-9999.9</ele>
        <time>2026-08-18T12:14:01Z</time>
      </trkpt>
      <trkpt lat="34.585661" lon="112.557957">
        <ele>-9999.9</ele>
        <time>2026-08-18T12:14:04Z</time>
      </trkpt>
      <trkpt lat="34.58557" lon="112.558042">
        <ele>-9999.9</ele>
        <time>2026-08-18T12:14:07Z</time>
      </trkpt>
      <trkpt lat="34.585508" lon="112.558153">
        <ele>-9999.9</ele>
        <time>2026-08-18T12:14:10Z</time>
      </trkpt>
      <trkpt lat="34.585477" lon="112.558283">
        <ele>-9999.9</ele>
        <time>2026-08-18T12:14:13Z</time>
      </trkpt>
      <trkpt lat="34.58547" lon="112.558378">
        <ele>-9999.9</ele>
        <time>2026-08-18T12:14:16Z</time>
      </trkpt>
      <trkpt lat="34.585511" lon="112.558557">
        <ele>-9999.9</ele>
        <time>2026-08-18T12:14:19Z</time>
      </trkpt>
      <trkpt lat="34.585582" lon="112.558664">
        <ele>-9999.9</ele>
        <time>2026-08-18T12:14:22Z</time>
      </trkpt>
      <trkpt lat="34.585685" lon="112.558733">
        <ele>-9999.9</ele>
        <time>2026-08-18T12:14:25Z</time>
      </trkpt>
      <trkpt lat="34.585768" lon="112.558751">
        <ele>-9999.9</ele>
        <time>2026-08-18T12:14:28Z</time>
      </trkpt>
      <trkpt lat="34.585943" lon="112.558726">
        <ele>-9999.9</ele>
        <time>2026-08-18T12:14:31Z</time>
      </trkpt>
      <trkpt lat="34.586071" lon="112.558712">
        <ele>-9999.9</ele>
        <time>2026-08-18T12:14:34Z</time>
      </trkpt>
      <trkpt lat="34.586202" lon="112.5587">
        <ele>-9999.9</ele>
        <time>2026-08-18T12:14:37Z</time>
      </trkpt>
      <trkpt lat="34.586294" lon="112.558696">
        <ele>-9999.9</ele>
        <time>2026-08-18T12:14:40Z</time>
      </trkpt>
      <trkpt lat="34.58646" lon="112.558727">
        <ele>-9999.9</ele>
        <time>2026-08-18T12:14:43Z</time>
      </trkpt>
    </trkseg>
  </trk>
</gpx>