<?xml version="1.0" encoding="UTF-8"?>
<gpx xmlns="http://www.topografix.com/GPX/1/1" xmlns:gpxtpx="http://www.garmin.com/xmlschemas/TrackPointExtension/v1" xmlns:xsi="http://www.w3.org/2001/XMLSchema-instance" xsi:schemaLocation="http://www.topografix.com/GPX/1/1 http://www.topografix.com/GPX/1/1/gpx.xsd" version="1.1" creator="gpx.py -- https://github.com/tkrajina/gpxpy">
  <trk>
    <name>晚上跑步</name>
    <type>running</type>
    <trkseg>
      <trkpt lat="34.596023" lon="112.559365">
        <ele>175.6</ele>
        <time>2026-08-20T13:23:37Z</time>
      </trkpt>
      <trkpt lat="34.59606" lon="112.559418">
        <ele>175.4</ele>
        <time>2026-08-20T13:23:40Z</time>
      </trkpt>
      <trkpt lat="34.596108" lon="112.559427">
        <ele>175.3</ele>
        <time>2026-08-20T13:23:43Z</time>
      </trkpt>
      <trkpt lat="34.596201" lon="112.559433">
        <ele>175.1</ele>
        <time>2026-08-20T13:23:46Z</time>
      </trkpt>
      <trkpt lat="34.59627" lon="112.559436">
        <ele>175.1</ele>
        <time>2026-08-20T13:23:49Z</time>
      </trkpt>
      <trkpt lat="34.596295" lon="112.559437">
        <ele>175.2</ele>
        <time>2026-08-20T13:23:52Z</time>
      </trkpt>
      <trkpt lat="34.596393" lon="112.559425">
        <ele>175.1</ele>
        <time>2026-08-20T13:23:55Z</time>
      </trkpt>
      <trkpt lat="34.596502" lon="112.559412">
        <ele>175</ele>
        <time>2026-08-20T13:23:58Z</time>
      </trkpt>
      <trkpt lat="34.596579" lon="112.559406">
        <ele>174.9</ele>
        <time>2026-08-20T13:24:01Z</time>
      </trkpt>
      <trkpt lat="34.596633" lon="112.5594">
        <ele>174.8</ele>
        <time>2026-08-20T13:24:04Z</time>
      </trkpt>
      <trkpt lat="34.596709" lon="112.559391">
        <ele>174.7</ele>
        <time>2026-08-20T13:24:07Z</time>
      </trkpt>
      <trkpt lat="34.596818" lon="112.559383">
        <ele>174.6</ele>
        <time>2026-08-20T13:24:10Z</time>
      </trkpt>
      <trkpt lat="34.596906" lon="112.559375">
        <ele>174.7</ele>
        <time>2026-08-20T13:24:13Z</time>
      </trkpt>
      <trkpt lat="34.596959" lon="112.559375">
        <ele>174.6</ele>
        <time>2026-08-20T13:24:16Z</time>
      </trkpt>
      <trkpt lat="34.597054" lon="112.55939">
        <ele>174.5</ele>
        <time>2026-08-20T13:24:19Z</time>
      </trkpt>
      <trkpt lat="34.597128" lon="112.559403">
        <ele>174.4</ele>
        <time>2026-08-20T13:24:22Z</time>
      </trkpt>
      <trkpt lat="34.597201" lon="112.559415">
        <ele>174.2</ele>
        <time>2026-08-20T13:24:26Z</time>
      </trkpt>
      <trkpt lat="34.597287" lon="112.559436">
        <ele>174.1</ele>
        <time>2026-08-20T13:24:29Z</time>
      </trkpt>
      <trkpt lat="34.597353" lon="112.559448">
        <ele>174.2</ele>
        <time>2026-08-20T13:24:32Z</time>
      </trkpt>
      <trkpt lat="34.597426" lon="112.559443">
        <ele>173.9</ele>
        <time>2026-08-20T13:24:35Z</time>
      </trkpt>
      <trkpt lat="34.597475" lon="112.559432">
        <ele>174</ele>
        <time>2026-08-20T13:24:38Z</time>
      </trkpt>
      <trkpt lat="34.597582" lon="112.559402">
        <ele>174</ele>
        <time>2026-08-20T13:24:41Z</time>
      </trkpt>
      <trkpt lat="34.597667" lon="112.559381">
        <ele>174.1</ele>
        <time>2026-08-20T13:24:44Z</time>
      </trkpt>
      <trkpt lat="34.597749" lon="112.559365">
        <ele>173.9</ele>
        <time>2026-08-20T13:24:47Z</time>
      </trkpt>
      <trkpt lat="34.597802" lon="112.55936">
        <ele>173.9</ele>
        <time>2026-08-20T13:24:50Z</time>
      </trkpt>
      <trkpt lat="34.597905" lon="112.559357">
        <ele>174</ele>
        <time>2026-08-20T13:24:53Z</time>
      </trkpt>
      <trkpt lat="34.597976" lon="112.559352">
        <ele>174</ele>
        <time>2026-08-20T13:24:56Z</time>
      </trkpt>
      <trkpt lat="34.59802" lon="112.559349">
        <ele>174.1</ele>
        <time>2026-08-20T13:24:59Z</time>
      </trkpt>
      <trkpt lat="34.598082" lon="112.55934">
        <ele>174.2</ele>
        <time>2026-08-20T13:25:02Z</time>
      </trkpt>
      <trkpt lat="34.598165" lon="112.559312">
        <ele>174.4</ele>
        <time>2026-08-20T13:25:05Z</time>
      </trkpt>
      <trkpt lat="34.598226" lon="112.559283">
        <ele>174.3</ele>
        <time>2026-08-20T13:25:08Z</time>
      </trkpt>
      <trkpt lat="34.598263" lon="112.559256">
        <ele>174.4</ele>
        <time>2026-08-20T13:25:11Z</time>
      </trkpt>
      <trkpt lat="34.598311" lon="112.5592">
        <ele>174.2</ele>
        <time>2026-08-20T13:25:14Z</time>
      </trkpt>
      <trkpt lat="34.598342" lon="112.559185">
        <ele>174.1</ele>
        <time>2026-08-20T13:25:17Z</time>
      </trkpt>
      <trkpt lat="34.598358" lon="112.559215">
        <ele>174.2</ele>
        <time>2026-08-20T13:25:20Z</time>
      </trkpt>
      <trkpt lat="34.598377" lon="112.559249">
        <ele>174.2</ele>
        <time>2026-08-20T13:25:23Z</time>
      </trkpt>
      <trkpt lat="34.598453" lon="112.559304">
        <ele>174.4</ele>
        <time>2026-08-20T13:25:26Z</time>
      </trkpt>
      <trkpt lat="34.598535" lon="112.559319">
        <ele>174.4</ele>
        <time>2026-08-20T13:25:29Z</time>
      </trkpt>
      <trkpt lat="34.598622" lon="112.559323">
        <ele>174.3</ele>
        <time>2026-08-20T13:25:32Z</time>
      </trkpt>
      <trkpt lat="34.59868" lon="112.55932">
        <ele>174.1</ele>
        <time>2026-08-20T13:25:35Z</time>
      </trkpt>
      <trkpt lat="34.598772" lon="112.559284">
        <ele>174.1</ele>
        <time>2026-08-20T13:25:38Z</time>
      </trkpt>
      <trkpt lat="34.598795" lon="112.559245">
        <ele>174.1</ele>
        <time>2026-08-20T13:25:40Z</time>
      </trkpt>
      <trkpt lat="34.598805" lon="112.559164">
        <ele>174.1</ele>
        <time>2026-08-20T13:25:43Z</time>
      </trkpt>
      <trkpt lat="34.598797" lon="112.559063">
        <ele>174.1</ele>
        <time>2026-08-20T13:25:46Z</time>
      </trkpt>
      <trkpt lat="34.598787" lon="112.55896">
        <ele>174.1</ele>
        <time>2026-08-20T13:25:49Z</time>
      </trkpt>
      <trkpt lat="34.598781" lon="112.558856">
        <ele>174</ele>
        <time>2026-08-20T13:25:52Z</time>
      </trkpt>
      <trkpt lat="34.59878" lon="112.558785">
        <ele>173.9</ele>
        <time>2026-08-20T13:25:55Z</time>
      </trkpt>
      <trkpt lat="34.59878" lon="112.558656">
        <ele>173.8</ele>
        <time>2026-08-20T13:25:58Z</time>
      </trkpt>
      <trkpt lat="34.598786" lon="112.55856">
        <ele>173.7</ele>
        <time>2026-08-20T13:26:01Z</time>
      </trkpt>
      <trkpt lat="34.59879" lon="112.55846">
        <ele>173.6</ele>
        <time>2026-08-20T13:26:04Z</time>
      </trkpt>
      <trkpt lat="34.598791" lon="112.558392">
        <ele>173.5</ele>
        <time>2026-08-20T13:26:07Z</time>
      </trkpt>
      <trkpt lat="34.598793" lon="112.558273">
        <ele>173.5</ele>
        <time>2026-08-20T13:26:10Z</time>
      </trkpt>
      <trkpt lat="34.59879" lon="112.558182">
        <ele>173.5</ele>
        <time>2026-08-20T13:26:13Z</time>
      </trkpt>
      <trkpt lat="34.598781" lon="112.558086">
        <ele>173.5</ele>
        <time>2026-08-20T13:26:16Z</time>
      </trkpt>
      <trkpt lat="34.598773" lon="112.55802">
        <ele>173.4</ele>
        <time>2026-08-20T13:26:19Z</time>
      </trkpt>
      <trkpt lat="34.598766" lon="112.557877">
        <ele>173.3</ele>
        <time>2026-08-20T13:26:22Z</time>
      </trkpt>
      <trkpt lat="34.598764" lon="112.557777">
        <ele>173.2</ele>
        <time>2026-08-20T13:26:25Z</time>
      </trkpt>
      <trkpt lat="34.598763" lon="112.557691">
        <ele>173.1</ele>
        <time>2026-08-20T13:26:28Z</time>
      </trkpt>
      <trkpt lat="34.598755" lon="112.557594">
        <ele>173.2</ele>
        <time>2026-08-20T13:26:31Z</time>
      </trkpt>
      <trkpt lat="34.598744" lon="112.557471">
        <ele>173.2</ele>
        <time>2026-08-20T13:26:34Z</time>
      </trkpt>
      <trkpt lat="34.598736" lon="112.557365">
        <ele>173.1</ele>
        <time>2026-08-20T13:26:37Z</time>
      </trkpt>
      <trkpt lat="34.598735" lon="112.557301">
        <ele>172.9</ele>
        <time>2026-08-20T13:26:40Z</time>
      </trkpt>
      <trkpt lat="34.598737" lon="112.557183">
        <ele>172.9</ele>
        <time>2026-08-20T13:26:43Z</time>
      </trkpt>
      <trkpt lat="34.598742" lon="112.557099">
        <ele>172.9</ele>
        <time>2026-08-20T13:26:46Z</time>
      </trkpt>
      <trkpt lat="34.598744" lon="112.55701">
        <ele>172.9</ele>
        <time>2026-08-20T13:26:49Z</time>
      </trkpt>
      <trkpt lat="34.598745" lon="112.556947">
        <ele>172.8</ele>
        <time>2026-08-20T13:26:52Z</time>
      </trkpt>
      <trkpt lat="34.598747" lon="112.556816">
        <ele>172.7</ele>
        <time>2026-08-20T13:26:55Z</time>
      </trkpt>
      <trkpt lat="34.598758" lon="112.556717">
        <ele>172.6</ele>
        <time>2026-08-20T13:26:58Z</time>
      </trkpt>
      <trkpt lat="34.598764" lon="112.556625">
        <ele>172.6</ele>
        <time>2026-08-20T13:27:01Z</time>
      </trkpt>
      <trkpt lat="34.598767" lon="112.556568">
        <ele>172.6</ele>
        <time>2026-08-20T13:27:04Z</time>
      </trkpt>
      <trkpt lat="34.598771" lon="112.556449">
        <ele>172.6</ele>
        <time>2026-08-20T13:27:07Z</time>
      </trkpt>
      <trkpt lat="34.598777" lon="112.556359">
        <ele>172.6</ele>
        <time>2026-08-20T13:27:10Z</time>
      </trkpt>
      <trkpt lat="34.598783" lon="112.556296">
        <ele>172.5</ele>
        <time>2026-08-20T13:27:13Z</time>
      </trkpt>
      <trkpt lat="34.598801" lon="112.556205">
        <ele>172.5</ele>
        <time>2026-08-20T13:27:16Z</time>
      </trkpt>
      <trkpt lat="34.598846" lon="112.556099">
        <ele>172.4</ele>
        <time>2026-08-20T13:27:19Z</time>
      </trkpt>
      <trkpt lat="34.598898" lon="112.555987">
        <ele>172.1</ele>
        <time>2026-08-20T13:27:23Z</time>
      </trkpt>
      <trkpt lat="34.598916" lon="112.555937">
        <ele>171.9</ele>
        <time>2026-08-20T13:27:26Z</time>
      </trkpt>
      <trkpt lat="34.598922" lon="112.555855">
        <ele>171.7</ele>
        <time>2026-08-20T13:27:29Z</time>
      </trkpt>
      <trkpt lat="34.598904" lon="112.555807">
        <ele>171.6</ele>
        <time>2026-08-20T13:27:32Z</time>
      </trkpt>
      <trkpt lat="34.598874" lon="112.555768">
        <ele>171.5</ele>
        <time>2026-08-20T13:27:35Z</time>
      </trkpt>
      <trkpt lat="34.598838" lon="112.555731">
        <ele>171.5</ele>
        <time>2026-08-20T13:27:38Z</time>
      </trkpt>
      <trkpt lat="34.598803" lon="112.5557">
        <ele>171.5</ele>
        <time>2026-08-20T13:27:41Z</time>
      </trkpt>
      <trkpt lat="34.59878" lon="112.555663">
        <ele>171.5</ele>
        <time>2026-08-20T13:27:44Z</time>
      </trkpt>
      <trkpt lat="34.598766" lon="112.555637">
        <ele>171.6</ele>
        <time>2026-08-20T13:27:47Z</time>
      </trkpt>
      <trkpt lat="34.598745" lon="112.55559">
        <ele>171.8</ele>
        <time>2026-08-20T13:27:50Z</time>
      </trkpt>
      <trkpt lat="34.598742" lon="112.555551">
        <ele>171.8</ele>
        <time>2026-08-20T13:27:53Z</time>
      </trkpt>
      <trkpt lat="34.598744" lon="112.555519">
        <ele>171.6</ele>
        <time>2026-08-20T13:27:56Z</time>
      </trkpt>
      <trkpt lat="34.598744" lon="112.555504">
        <ele>171.3</ele>
        <time>2026-08-20T13:27:59Z</time>
      </trkpt>
      <trkpt lat="34.598749" lon="112.555486">
        <ele>171.4</ele>
        <time>2026-08-20T13:28:02Z</time>
      </trkpt>
      <trkpt lat="34.598754" lon="112.555481">
        <ele>171.5</ele>
        <time>2026-08-20T13:28:05Z</time>
      </trkpt>
      <trkpt lat="34.598755" lon="112.555468">
        <ele>171.5</ele>
        <time>2026-08-20T13:28:08Z</time>
      </trkpt>
      <trkpt lat="34.598755" lon="112.55545">
        <ele>171.7</ele>
        <time>2026-08-20T13:28:11Z</time>
      </trkpt>
      <trkpt lat="34.598757" lon="112.555385">
        <ele>171.6</ele>
        <time>2026-08-20T13:28:14Z</time>
      </trkpt>
      <trkpt lat="34.598753" lon="112.555324">
        <ele>171.5</ele>
        <time>2026-08-20T13:28:17Z</time>
      </trkpt>
      <trkpt lat="34.598749" lon="112.555282">
        <ele>171.5</ele>
        <time>2026-08-20T13:28:20Z</time>
      </trkpt>
      <trkpt lat="34.598746" lon="112.555216">
        <ele>171.6</ele>
        <time>2026-08-20T13:28:23Z</time>
      </trkpt>
      <trkpt lat="34.598751" lon="112.555142">
        <ele>171.5</ele>
        <time>2026-08-20T13:28:26Z</time>
      </trkpt>
      <trkpt lat="34.598758" lon="112.555091">
        <ele>171.3</ele>
        <time>2026-08-20T13:28:29Z</time>
      </trkpt>
      <trkpt lat="34.59876" lon="112.555056">
        <ele>171.1</ele>
        <time>2026-08-20T13:28:32Z</time>
      </trkpt>
      <trkpt lat="34.598768" lon="112.555001">
        <ele>171.3</ele>
        <time>2026-08-20T13:28:35Z</time>
      </trkpt>
      <trkpt lat="34.598787" lon="112.554932">
        <ele>171.4</ele>
        <time>2026-08-20T13:28:38Z</time>
      </trkpt>
      <trkpt lat="34.598804" lon="112.554893">
        <ele>171.4</ele>
        <time>2026-08-20T13:28:40Z</time>
      </trkpt>
      <trkpt lat="34.598831" lon="112.554854">
        <ele>171.5</ele>
        <time>2026-08-20T13:28:43Z</time>
      </trkpt>
      <trkpt lat="34.59888" lon="112.554775">
        <ele>171.5</ele>
        <time>2026-08-20T13:28:46Z</time>
      </trkpt>
      <trkpt lat="34.598887" lon="112.554699">
        <ele>171.4</ele>
        <time>2026-08-20T13:28:49Z</time>
      </trkpt>
      <trkpt lat="34.598863" lon="112.554609">
        <ele>171.3</ele>
        <time>2026-08-20T13:28:52Z</time>
      </trkpt>
      <trkpt lat="34.598817" lon="112.554511">
        <ele>171.3</ele>
        <time>2026-08-20T13:28:55Z</time>
      </trkpt>
      <trkpt lat="34.598773" lon="112.554413">
        <ele>171.1</ele>
        <time>2026-08-20T13:28:58Z</time>
      </trkpt>
      <trkpt lat="34.598747" lon="112.554329">
        <ele>171.1</ele>
        <time>2026-08-20T13:29:01Z</time>
      </trkpt>
      <trkpt lat="34.598739" lon="112.554245">
        <ele>171.1</ele>
        <time>2026-08-20T13:29:04Z</time>
      </trkpt>
      <trkpt lat="34.598747" lon="112.55416">
        <ele>171.1</ele>
        <time>2026-08-20T13:29:07Z</time>
      </trkpt>
      <trkpt lat="34.598756" lon="112.554072">
        <ele>171</ele>
        <time>2026-08-20T13:29:10Z</time>
      </trkpt>
      <trkpt lat="34.598768" lon="112.553989">
        <ele>170.8</ele>
        <time>2026-08-20T13:29:13Z</time>
      </trkpt>
      <trkpt lat="34.598777" lon="112.553937">
        <ele>170.8</ele>
        <time>2026-08-20T13:29:16Z</time>
      </trkpt>
      <trkpt lat="34.598787" lon="112.553829">
        <ele>170.9</ele>
        <time>2026-08-20T13:29:19Z</time>
      </trkpt>
      <trkpt lat="34.598792" lon="112.553735">
        <ele>170.7</ele>
        <time>2026-08-20T13:29:22Z</time>
      </trkpt>
      <trkpt lat="34.598798" lon="112.553634">
        <ele>170.7</ele>
        <time>2026-08-20T13:29:25Z</time>
      </trkpt>
      <trkpt lat="34.598801" lon="112.553576">
        <ele>170.7</ele>
        <time>2026-08-20T13:29:28Z</time>
      </trkpt>
      <trkpt lat="34.598805" lon="112.553456">
        <ele>170.8</ele>
        <time>2026-08-20T13:29:31Z</time>
      </trkpt>
      <trkpt lat="34.598809" lon="112.553379">
        <ele>170.6</ele>
        <time>2026-08-20T13:29:34Z</time>
      </trkpt>
      <trkpt lat="34.598807" lon="112.5533">
        <ele>170.5</ele>
        <time>2026-08-20T13:29:37Z</time>
      </trkpt>
      <trkpt lat="34.598806" lon="112.553254">
        <ele>170.5</ele>
        <time>2026-08-20T13:29:40Z</time>
      </trkpt>
      <trkpt lat="34.598805" lon="112.553149">
        <ele>170.4</ele>
        <time>2026-08-20T13:29:43Z</time>
      </trkpt>
      <trkpt lat="34.598804" lon="112.553068">
        <ele>170.5</ele>
        <time>2026-08-20T13:29:46Z</time>
      </trkpt>
      <trkpt lat="34.598802" lon="112.552958">
        <ele>170.4</ele>
        <time>2026-08-20T13:29:49Z</time>
      </trkpt>
      <trkpt lat="34.598799" lon="112.552884">
        <ele>170.3</ele>
        <time>2026-08-20T13:29:52Z</time>
      </trkpt>
      <trkpt lat="34.598792" lon="112.552743">
        <ele>170.4</ele>
        <time>2026-08-20T13:29:55Z</time>
      </trkpt>
      <trkpt lat="34.598786" lon="112.552584">
        <ele>170.1</ele>
        <time>2026-08-20T13:29:59Z</time>
      </trkpt>
      <trkpt lat="34.598785" lon="112.552499">
        <ele>170.1</ele>
        <time>2026-08-20T13:30:02Z</time>
      </trkpt>
      <trkpt lat="34.598772" lon="112.552305">
        <ele>170.1</ele>
        <time>2026-08-20T13:30:05Z</time>
      </trkpt>
      <trkpt lat="34.598765" lon="112.552156">
        <ele>170.1</ele>
        <time>2026-08-20T13:30:08Z</time>
      </trkpt>
      <trkpt lat="34.598762" lon="112.552033">
        <ele>170.1</ele>
        <time>2026-08-20T13:30:11Z</time>
      </trkpt>
      <trkpt lat="34.598763" lon="112.551968">
        <ele>169.9</ele>
        <time>2026-08-20T13:30:14Z</time>
      </trkpt>
      <trkpt lat="34.598769" lon="112.551856">
        <ele>169.9</ele>
        <time>2026-08-20T13:30:17Z</time>
      </trkpt>
      <trkpt lat="34.598782" lon="112.551765">
        <ele>169.9</ele>
        <time>2026-08-20T13:30:20Z</time>
      </trkpt>
      <trkpt lat="34.598789" lon="112.551698">
        <ele>170.1</ele>
        <time>2026-08-20T13:30:23Z</time>
      </trkpt>
      <trkpt lat="34.598802" lon="112.551567">
        <ele>169.9</ele>
        <time>2026-08-20T13:30:26Z</time>
      </trkpt>
      <trkpt lat="34.598805" lon="112.551478">
        <ele>169.9</ele>
        <time>2026-08-20T13:30:29Z</time>
      </trkpt>
      <trkpt lat="34.5988" lon="112.551386">
        <ele>169.8</ele>
        <time>2026-08-20T13:30:32Z</time>
      </trkpt>
      <trkpt lat="34.598795" lon="112.551324">
        <ele>169.9</ele>
        <time>2026-08-20T13:30:35Z</time>
      </trkpt>
      <trkpt lat="34.598788" lon="112.55119">
        <ele>169.7</ele>
        <time>2026-08-20T13:30:38Z</time>
      </trkpt>
      <trkpt lat="34.598786" lon="112.551091">
        <ele>169.6</ele>
        <time>2026-08-20T13:30:41Z</time>
      </trkpt>
      <trkpt lat="34.598781" lon="112.550988">
        <ele>169.3</ele>
        <time>2026-08-20T13:30:44Z</time>
      </trkpt>
      <trkpt lat="34.598779" lon="112.550909">
        <ele>169.4</ele>
        <time>2026-08-20T13:30:47Z</time>
      </trkpt>
      <trkpt lat="34.598778" lon="112.550745">
        <ele>169.4</ele>
        <time>2026-08-20T13:30:50Z</time>
      </trkpt>
      <trkpt lat="34.598775" lon="112.550616">
        <ele>169.5</ele>
        <time>2026-08-20T13:30:53Z</time>
      </trkpt>
      <trkpt lat="34.598779" lon="112.550505">
        <ele>169.4</ele>
        <time>2026-08-20T13:30:56Z</time>
      </trkpt>
      <trkpt lat="34.598781" lon="112.550446">
        <ele>169.4</ele>
        <time>2026-08-20T13:30:59Z</time>
      </trkpt>
      <trkpt lat="34.598774" lon="112.550364">
        <ele>169.3</ele>
        <time>2026-08-20T13:31:02Z</time>
      </trkpt>
      <trkpt lat="34.59877" lon="112.550311">
        <ele>169.2</ele>
        <time>2026-08-20T13:31:05Z</time>
      </trkpt>
      <trkpt lat="34.598767" lon="112.550265">
        <ele>169.1</ele>
        <time>2026-08-20T13:31:08Z</time>
      </trkpt>
      <trkpt lat="34.598766" lon="112.550177">
        <ele>169.1</ele>
        <time>2026-08-20T13:31:11Z</time>
      </trkpt>
      <trkpt lat="34.598773" lon="112.550037">
        <ele>169.2</ele>
        <time>2026-08-20T13:31:14Z</time>
      </trkpt>
      <trkpt lat="34.598776" lon="112.549962">
        <ele>169.2</ele>
        <time>2026-08-20T13:31:16Z</time>
      </trkpt>
      <trkpt lat="34.598781" lon="112.54985">
        <ele>169.3</ele>
        <time>2026-08-20T13:31:20Z</time>
      </trkpt>
      <trkpt lat="34.598785" lon="112.549742">
        <ele>169.3</ele>
        <time>2026-08-20T13:31:22Z</time>
      </trkpt>
      <trkpt lat="34.598785" lon="112.549637">
        <ele>169.3</ele>
        <time>2026-08-20T13:31:25Z</time>
      </trkpt>
      <trkpt lat="34.598777" lon="112.549538">
        <ele>169.3</ele>
        <time>2026-08-20T13:31:28Z</time>
      </trkpt>
      <trkpt lat="34.598768" lon="112.549475">
        <ele>169.2</ele>
        <time>2026-08-20T13:31:31Z</time>
      </trkpt>
      <trkpt lat="34.598754" lon="112.549346">
        <ele>169.1</ele>
        <time>2026-08-20T13:31:34Z</time>
      </trkpt>
      <trkpt lat="34.598747" lon="112.549249">
        <ele>169.1</ele>
        <time>2026-08-20T13:31:37Z</time>
      </trkpt>
      <trkpt lat="34.598746" lon="112.549149">
        <ele>169</ele>
        <time>2026-08-20T13:31:40Z</time>
      </trkpt>
      <trkpt lat="34.598751" lon="112.549052">
        <ele>168.9</ele>
        <time>2026-08-20T13:31:43Z</time>
      </trkpt>
      <trkpt lat="34.598763" lon="112.548956">
        <ele>169</ele>
        <time>2026-08-20T13:31:46Z</time>
      </trkpt>
      <trkpt lat="34.598777" lon="112.548866">
        <ele>169</ele>
        <time>2026-08-20T13:31:49Z</time>
      </trkpt>
      <trkpt lat="34.598792" lon="112.548774">
        <ele>169.1</ele>
        <time>2026-08-20T13:31:52Z</time>
      </trkpt>
      <trkpt lat="34.598799" lon="112.548679">
        <ele>169.1</ele>
        <time>2026-08-20T13:31:55Z</time>
      </trkpt>
      <trkpt lat="34.598805" lon="112.548585">
        <ele>169</ele>
        <time>2026-08-20T13:31:58Z</time>
      </trkpt>
      <trkpt lat="34.598805" lon="112.548485">
        <ele>169</ele>
        <time>2026-08-20T13:32:01Z</time>
      </trkpt>
      <trkpt lat="34.598805" lon="112.548416">
        <ele>169</ele>
        <time>2026-08-20T13:32:04Z</time>
      </trkpt>
      <trkpt lat="34.598804" lon="112.548289">
        <ele>168.7</ele>
        <time>2026-08-20T13:32:07Z</time>
      </trkpt>
      <trkpt lat="34.598798" lon="112.548202">
        <ele>168.7</ele>
        <time>2026-08-20T13:32:10Z</time>
      </trkpt>
      <trkpt lat="34.598789" lon="112.548114">
        <ele>168.7</ele>
        <time>2026-08-20T13:32:13Z</time>
      </trkpt>
      <trkpt lat="34.598783" lon="112.548056">
        <ele>168.8</ele>
        <time>2026-08-20T13:32:16Z</time>
      </trkpt>
      <trkpt lat="34.598768" lon="112.547935">
        <ele>168.8</ele>
        <time>2026-08-20T13:32:19Z</time>
      </trkpt>
      <trkpt lat="34.598761" lon="112.547856">
        <ele>168.9</ele>
        <time>2026-08-20T13:32:22Z</time>
      </trkpt>
      <trkpt lat="34.59876" lon="112.547768">
        <ele>169</ele>
        <time>2026-08-20T13:32:25Z</time>
      </trkpt>
      <trkpt lat="34.59876" lon="112.547699">
        <ele>168.9</ele>
        <time>2026-08-20T13:32:28Z</time>
      </trkpt>
      <trkpt lat="34.598763" lon="112.54755">
        <ele>168.8</ele>
        <time>2026-08-20T13:32:31Z</time>
      </trkpt>
      <trkpt lat="34.598769" lon="112.547389">
        <ele>168.7</ele>
        <time>2026-08-20T13:32:35Z</time>
      </trkpt>
      <trkpt lat="34.598768" lon="112.54731">
        <ele>168.7</ele>
        <time>2026-08-20T13:32:38Z</time>
      </trkpt>
      <trkpt lat="34.598763" lon="112.54717">
        <ele>168.6</ele>
        <time>2026-08-20T13:32:41Z</time>
      </trkpt>
      <trkpt lat="34.598759" lon="112.54708">
        <ele>168.5</ele>
        <time>2026-08-20T13:32:44Z</time>
      </trkpt>
      <trkpt lat="34.598755" lon="112.546992">
        <ele>168.6</ele>
        <time>2026-08-20T13:32:47Z</time>
      </trkpt>
      <trkpt lat="34.598754" lon="112.546936">
        <ele>168.5</ele>
        <time>2026-08-20T13:32:50Z</time>
      </trkpt>
      <trkpt lat="34.598755" lon="112.546814">
        <ele>168.4</ele>
        <time>2026-08-20T13:32:53Z</time>
      </trkpt>
      <trkpt lat="34.598757" lon="112.546723">
        <ele>168.3</ele>
        <time>2026-08-20T13:32:56Z</time>
      </trkpt>
      <trkpt lat="34.598755" lon="112.546666">
        <ele>168.5</ele>
        <time>2026-08-20T13:32:59Z</time>
      </trkpt>
      <trkpt lat="34.598755" lon="112.546585">
        <ele>168.4</ele>
        <time>2026-08-20T13:33:02Z</time>
      </trkpt>
      <trkpt lat="34.598761" lon="112.546486">
        <ele>168.5</ele>
        <time>2026-08-20T13:33:05Z</time>
      </trkpt>
      <trkpt lat="34.598765" lon="112.546415">
        <ele>168.4</ele>
        <time>2026-08-20T13:33:08Z</time>
      </trkpt>
      <trkpt lat="34.598763" lon="112.546365">
        <ele>168.3</ele>
        <time>2026-08-20T13:33:11Z</time>
      </trkpt>
      <trkpt lat="34.598761" lon="112.546243">
        <ele>168.3</ele>
        <time>2026-08-20T13:33:14Z</time>
      </trkpt>
      <trkpt lat="34.598757" lon="112.546134">
        <ele>168.4</ele>
        <time>2026-08-20T13:33:17Z</time>
      </trkpt>
      <trkpt lat="34.598751" lon="112.546023">
        <ele>168.5</ele>
        <time>2026-08-20T13:33:20Z</time>
      </trkpt>
      <trkpt lat="34.598756" lon="112.545955">
        <ele>168.5</ele>
        <time>2026-08-20T13:33:23Z</time>
      </trkpt>
      <trkpt lat="34.598765" lon="112.54582">
        <ele>168.3</ele>
        <time>2026-08-20T13:33:26Z</time>
      </trkpt>
      <trkpt lat="34.598772" lon="112.545719">
        <ele>168.3</ele>
        <time>2026-08-20T13:33:29Z</time>
      </trkpt>
      <trkpt lat="34.598776" lon="112.545619">
        <ele>168.2</ele>
        <time>2026-08-20T13:33:32Z</time>
      </trkpt>
      <trkpt lat="34.598776" lon="112.545557">
        <ele>168.1</ele>
        <time>2026-08-20T13:33:35Z</time>
      </trkpt>
      <trkpt lat="34.598781" lon="112.545441">
        <ele>168.1</ele>
        <time>2026-08-20T13:33:38Z</time>
      </trkpt>
      <trkpt lat="34.598788" lon="112.545361">
        <ele>168.1</ele>
        <time>2026-08-20T13:33:41Z</time>
      </trkpt>
      <trkpt lat="34.598783" lon="112.545305">
        <ele>168.1</ele>
        <time>2026-08-20T13:33:44Z</time>
      </trkpt>
      <trkpt lat="34.598766" lon="112.545211">
        <ele>168.2</ele>
        <time>2026-08-20T13:33:47Z</time>
      </trkpt>
      <trkpt lat="34.59875" lon="112.545085">
        <ele>168.1</ele>
        <time>2026-08-20T13:33:50Z</time>
      </trkpt>
      <trkpt lat="34.598745" lon="112.545026">
        <ele>168.1</ele>
        <time>2026-08-20T13:33:52Z</time>
      </trkpt>
      <trkpt lat="34.598744" lon="112.544979">
        <ele>168.1</ele>
        <time>2026-08-20T13:33:55Z</time>
      </trkpt>
      <trkpt lat="34.598744" lon="112.544907">
        <ele>168.1</ele>
        <time>2026-08-20T13:33:58Z</time>
      </trkpt>
      <trkpt lat="34.598741" lon="112.544865">
        <ele>168.1</ele>
        <time>2026-08-20T13:34:01Z</time>
      </trkpt>
      <trkpt lat="34.598743" lon="112.544833">
        <ele>168.1</ele>
        <time>2026-08-20T13:34:04Z</time>
      </trkpt>
      <trkpt lat="34.598746" lon="112.544814">
        <ele>168.1</ele>
        <time>2026-08-20T13:34:07Z</time>
      </trkpt>
      <trkpt lat="34.598754" lon="112.544777">
        <ele>168</ele>
        <time>2026-08-20T13:34:10Z</time>
      </trkpt>
      <trkpt lat="34.59876" lon="112.54474">
        <ele>168</ele>
        <time>2026-08-20T13:34:13Z</time>
      </trkpt>
      <trkpt lat="34.598772" lon="112.54467">
        <ele>168</ele>
        <time>2026-08-20T13:34:16Z</time>
      </trkpt>
      <trkpt lat="34.598778" lon="112.544569">
        <ele>168</ele>
        <time>2026-08-20T13:34:19Z</time>
      </trkpt>
      <trkpt lat="34.598779" lon="112.544452">
        <ele>168.1</ele>
        <time>2026-08-20T13:34:22Z</time>
      </trkpt>
      <trkpt lat="34.598772" lon="112.544328">
        <ele>168.1</ele>
        <time>2026-08-20T13:34:25Z</time>
      </trkpt>
      <trkpt lat="34.598763" lon="112.544206">
        <ele>168</ele>
        <time>2026-08-20T13:34:28Z</time>
      </trkpt>
      <trkpt lat="34.598755" lon="112.544098">
        <ele>168.1</ele>
        <time>2026-08-20T13:34:31Z</time>
      </trkpt>
      <trkpt lat="34.598748" lon="112.544001">
        <ele>168.1</ele>
        <time>2026-08-20T13:34:34Z</time>
      </trkpt>
      <trkpt lat="34.59875" lon="112.543907">
        <ele>168.2</ele>
        <time>2026-08-20T13:34:37Z</time>
      </trkpt>
      <trkpt lat="34.598756" lon="112.543845">
        <ele>168.1</ele>
        <time>2026-08-20T13:34:40Z</time>
      </trkpt>
      <trkpt lat="34.598765" lon="112.543724">
        <ele>168.1</ele>
        <time>2026-08-20T13:34:43Z</time>
      </trkpt>
      <trkpt lat="34.598768" lon="112.543641">
        <ele>168</ele>
        <time>2026-08-20T13:34:46Z</time>
      </trkpt>
      <trkpt lat="34.598766" lon="112.543554">
        <ele>168.1</ele>
        <time>2026-08-20T13:34:49Z</time>
      </trkpt>
      <trkpt lat="34.598764" lon="112.543499">
        <ele>168.1</ele>
        <time>2026-08-20T13:34:52Z</time>
      </trkpt>
      <trkpt lat="34.598762" lon="112.543386">
        <ele>168.1</ele>
        <time>2026-08-20T13:34:55Z</time>
      </trkpt>
      <trkpt lat="34.598764" lon="112.543291">
        <ele>168.2</ele>
        <time>2026-08-20T13:34:58Z</time>
      </trkpt>
      <trkpt lat="34.598769" lon="112.543205">
        <ele>168.2</ele>
        <time>2026-08-20T13:35:01Z</time>
      </trkpt>
      <trkpt lat="34.598772" lon="112.543154">
        <ele>168.2</ele>
        <time>2026-08-20T13:35:04Z</time>
      </trkpt>
      <trkpt lat="34.598775" lon="112.543057">
        <ele>168.4</ele>
        <time>2026-08-20T13:35:07Z</time>
      </trkpt>
      <trkpt lat="34.598777" lon="112.542977">
        <ele>168.3</ele>
        <time>2026-08-20T13:35:10Z</time>
      </trkpt>
      <trkpt lat="34.598775" lon="112.542922">
        <ele>168.3</ele>
        <time>2026-08-20T13:35:13Z</time>
      </trkpt>
      <trkpt lat="34.598765" lon="112.542837">
        <ele>168.4</ele>
        <time>2026-08-20T13:35:16Z</time>
      </trkpt>
      <trkpt lat="34.598765" lon="112.542721">
        <ele>168.4</ele>
        <time>2026-08-20T13:35:19Z</time>
      </trkpt>
      <trkpt lat="34.598772" lon="112.542601">
        <ele>168.4</ele>
        <time>2026-08-20T13:35:23Z</time>
      </trkpt>
      <trkpt lat="34.598774" lon="112.542546">
        <ele>168.5</ele>
        <time>2026-08-20T13:35:26Z</time>
      </trkpt>
      <trkpt lat="34.598778" lon="112.542454">
        <ele>168.4</ele>
        <time>2026-08-20T13:35:29Z</time>
      </trkpt>
      <trkpt lat="34.598775" lon="112.542362">
        <ele>168.4</ele>
        <time>2026-08-20T13:35:32Z</time>
      </trkpt>
      <trkpt lat="34.598768" lon="112.542258">
        <ele>168.3</ele>
        <time>2026-08-20T13:35:35Z</time>
      </trkpt>
      <trkpt lat="34.598758" lon="112.542149">
        <ele>168.2</ele>
        <time>2026-08-20T13:35:38Z</time>
      </trkpt>
      <trkpt lat="34.598746" lon="112.542036">
        <ele>168.2</ele>
        <time>2026-08-20T13:35:41Z</time>
      </trkpt>
      <trkpt lat="34.598737" lon="112.54192">
        <ele>168.2</ele>
        <time>2026-08-20T13:35:44Z</time>
      </trkpt>
      <trkpt lat="34.598732" lon="112.541848">
        <ele>168.2</ele>
        <time>2026-08-20T13:35:47Z</time>
      </trkpt>
      <trkpt lat="34.598725" lon="112.541711">
        <ele>168.3</ele>
        <time>2026-08-20T13:35:50Z</time>
      </trkpt>
      <trkpt lat="34.598729" lon="112.541612">
        <ele>168.4</ele>
        <time>2026-08-20T13:35:53Z</time>
      </trkpt>
      <trkpt lat="34.59873" lon="112.541505">
        <ele>168.3</ele>
        <time>2026-08-20T13:35:56Z</time>
      </trkpt>
      <trkpt lat="34.598733" lon="112.541426">
        <ele>168.2</ele>
        <time>2026-08-20T13:35:59Z</time>
      </trkpt>
      <trkpt lat="34.598745" lon="112.541276">
        <ele>168.3</ele>
        <time>2026-08-20T13:36:02Z</time>
      </trkpt>
      <trkpt lat="34.598757" lon="112.541177">
        <ele>168.3</ele>
        <time>2026-08-20T13:36:05Z</time>
      </trkpt>
      <trkpt lat="34.598773" lon="112.541088">
        <ele>168.3</ele>
        <time>2026-08-20T13:36:08Z</time>
      </trkpt>
      <trkpt lat="34.598784" lon="112.541029">
        <ele>168.3</ele>
        <time>2026-08-20T13:36:11Z</time>
      </trkpt>
      <trkpt lat="34.598804" lon="112.540911">
        <ele>168.3</ele>
        <time>2026-08-20T13:36:14Z</time>
      </trkpt>
      <trkpt lat="34.598811" lon="112.540806">
        <ele>168.2</ele>
        <time>2026-08-20T13:36:17Z</time>
      </trkpt>
      <trkpt lat="34.598813" lon="112.540725">
        <ele>168.2</ele>
        <time>2026-08-20T13:36:20Z</time>
      </trkpt>
      <trkpt lat="34.59882" lon="112.540598">
        <ele>168.2</ele>
        <time>2026-08-20T13:36:23Z</time>
      </trkpt>
      <trkpt lat="34.598821" lon="112.540429">
        <ele>168.4</ele>
        <time>2026-08-20T13:36:26Z</time>
      </trkpt>
      <trkpt lat="34.598813" lon="112.540302">
        <ele>168.4</ele>
        <time>2026-08-20T13:36:29Z</time>
      </trkpt>
      <trkpt lat="34.598807" lon="112.540224">
        <ele>168.6</ele>
        <time>2026-08-20T13:36:32Z</time>
      </trkpt>
      <trkpt lat="34.5988" lon="112.540119">
        <ele>168.5</ele>
        <time>2026-08-20T13:36:35Z</time>
      </trkpt>
      <trkpt lat="34.598801" lon="112.540021">
        <ele>168.5</ele>
        <time>2026-08-20T13:36:37Z</time>
      </trkpt>
      <trkpt lat="34.598802" lon="112.539914">
        <ele>168.6</ele>
        <time>2026-08-20T13:36:40Z</time>
      </trkpt>
      <trkpt lat="34.598803" lon="112.539843">
        <ele>168.7</ele>
        <time>2026-08-20T13:36:43Z</time>
      </trkpt>
      <trkpt lat="34.598801" lon="112.539716">
        <ele>168.5</ele>
        <time>2026-08-20T13:36:46Z</time>
      </trkpt>
      <trkpt lat="34.598797" lon="112.53963">
        <ele>168.5</ele>
        <time>2026-08-20T13:36:49Z</time>
      </trkpt>
      <trkpt lat="34.598796" lon="112.539553">
        <ele>168.5</ele>
        <time>2026-08-20T13:36:52Z</time>
      </trkpt>
      <trkpt lat="34.598796" lon="112.53948">
        <ele>168.7</ele>
        <time>2026-08-20T13:36:55Z</time>
      </trkpt>
      <trkpt lat="34.598794" lon="112.539399">
        <ele>168.8</ele>
        <time>2026-08-20T13:36:58Z</time>
      </trkpt>
      <trkpt lat="34.598786" lon="112.539288">
        <ele>168.8</ele>
        <time>2026-08-20T13:37:01Z</time>
      </trkpt>
      <trkpt lat="34.598779" lon="112.539162">
        <ele>168.8</ele>
        <time>2026-08-20T13:37:04Z</time>
      </trkpt>
      <trkpt lat="34.598773" lon="112.539051">
        <ele>168.9</ele>
        <time>2026-08-20T13:37:07Z</time>
      </trkpt>
      <trkpt lat="34.598767" lon="112.538957">
        <ele>168.7</ele>
        <time>2026-08-20T13:37:10Z</time>
      </trkpt>
      <trkpt lat="34.598764" lon="112.538878">
        <ele>168.8</ele>
        <time>2026-08-20T13:37:13Z</time>
      </trkpt>
      <trkpt lat="34.598761" lon="112.538824">
        <ele>168.9</ele>
        <time>2026-08-20T13:37:16Z</time>
      </trkpt>
      <trkpt lat="34.598758" lon="112.538717">
        <ele>169</ele>
        <time>2026-08-20T13:37:19Z</time>
      </trkpt>
      <trkpt lat="34.598756" lon="112.538644">
        <ele>169.1</ele>
        <time>2026-08-20T13:37:22Z</time>
      </trkpt>
      <trkpt lat="34.598757" lon="112.538569">
        <ele>169</ele>
        <time>2026-08-20T13:37:25Z</time>
      </trkpt>
      <trkpt lat="34.59876" lon="112.538517">
        <ele>169.1</ele>
        <time>2026-08-20T13:37:28Z</time>
      </trkpt>
      <trkpt lat="34.598764" lon="112.538406">
        <ele>169.2</ele>
        <time>2026-08-20T13:37:31Z</time>
      </trkpt>
      <trkpt lat="34.598769" lon="112.538316">
        <ele>169.1</ele>
        <time>2026-08-20T13:37:34Z</time>
      </trkpt>
      <trkpt lat="34.598774" lon="112.538228">
        <ele>169.2</ele>
        <time>2026-08-20T13:37:37Z</time>
      </trkpt>
      <trkpt lat="34.598775" lon="112.538168">
        <ele>169.2</ele>
        <time>2026-08-20T13:37:40Z</time>
      </trkpt>
      <trkpt lat="34.598781" lon="112.538054">
        <ele>169.2</ele>
        <time>2026-08-20T13:37:43Z</time>
      </trkpt>
      <trkpt lat="34.598783" lon="112.537979">
        <ele>169.2</ele>
        <time>2026-08-20T13:37:46Z</time>
      </trkpt>
      <trkpt lat="34.598784" lon="112.537897">
        <ele>169.3</ele>
        <time>2026-08-20T13:37:49Z</time>
      </trkpt>
      <trkpt lat="34.598786" lon="112.537838">
        <ele>169.3</ele>
        <time>2026-08-20T13:37:52Z</time>
      </trkpt>
      <trkpt lat="34.598782" lon="112.537713">
        <ele>169.3</ele>
        <time>2026-08-20T13:37:55Z</time>
      </trkpt>
      <trkpt lat="34.598781" lon="112.537594">
        <ele>169.4</ele>
        <time>2026-08-20T13:37:59Z</time>
      </trkpt>
      <trkpt lat="34.598784" lon="112.537533">
        <ele>169.4</ele>
        <time>2026-08-20T13:38:02Z</time>
      </trkpt>
      <trkpt lat="34.598785" lon="112.537412">
        <ele>169.6</ele>
        <time>2026-08-20T13:38:05Z</time>
      </trkpt>
      <trkpt lat="34.598784" lon="112.53732">
        <ele>169.6</ele>
        <time>2026-08-20T13:38:08Z</time>
      </trkpt>
      <trkpt lat="34.598784" lon="112.537216">
        <ele>169.7</ele>
        <time>2026-08-20T13:38:11Z</time>
      </trkpt>
      <trkpt lat="34.598784" lon="112.537147">
        <ele>169.7</ele>
        <time>2026-08-20T13:38:14Z</time>
      </trkpt>
      <trkpt lat="34.598783" lon="112.537003">
        <ele>170</ele>
        <time>2026-08-20T13:38:17Z</time>
      </trkpt>
      <trkpt lat="34.598778" lon="112.536888">
        <ele>170</ele>
        <time>2026-08-20T13:38:20Z</time>
      </trkpt>
      <trkpt lat="34.598776" lon="112.536814">
        <ele>169.9</ele>
        <time>2026-08-20T13:38:23Z</time>
      </trkpt>
      <trkpt lat="34.598774" lon="112.536726">
        <ele>170.1</ele>
        <time>2026-08-20T13:38:26Z</time>
      </trkpt>
      <trkpt lat="34.598787" lon="112.536672">
        <ele>170.3</ele>
        <time>2026-08-20T13:38:29Z</time>
      </trkpt>
      <trkpt lat="34.598802" lon="112.536653">
        <ele>170.2</ele>
        <time>2026-08-20T13:38:32Z</time>
      </trkpt>
      <trkpt lat="34.598807" lon="112.536647">
        <ele>170.1</ele>
        <time>2026-08-20T13:38:34Z</time>
      </trkpt>
      <trkpt lat="34.598833" lon="112.536619">
        <ele>169.9</ele>
        <time>2026-08-20T13:38:38Z</time>
      </trkpt>
      <trkpt lat="34.59885" lon="112.536594">
        <ele>170.1</ele>
        <time>2026-08-20T13:38:41Z</time>
      </trkpt>
      <trkpt lat="34.598864" lon="112.536545">
        <ele>170.1</ele>
        <time>2026-08-20T13:38:44Z</time>
      </trkpt>
      <trkpt lat="34.598867" lon="112.536488">
        <ele>170.3</ele>
        <time>2026-08-20T13:38:47Z</time>
      </trkpt>
      <trkpt lat="34.598858" lon="112.536345">
        <ele>170.3</ele>
        <time>2026-08-20T13:38:50Z</time>
      </trkpt>
      <trkpt lat="34.598843" lon="112.536246">
        <ele>170.3</ele>
        <time>2026-08-20T13:38:53Z</time>
      </trkpt>
      <trkpt lat="34.598814" lon="112.536164">
        <ele>170.4</ele>
        <time>2026-08-20T13:38:56Z</time>
      </trkpt>
      <trkpt lat="34.598795" lon="112.536114">
        <ele>170.3</ele>
        <time>2026-08-20T13:38:59Z</time>
      </trkpt>
      <trkpt lat="34.59878" lon="112.536013">
        <ele>170.5</ele>
        <time>2026-08-20T13:39:02Z</time>
      </trkpt>
      <trkpt lat="34.598781" lon="112.535934">
        <ele>170.5</ele>
        <time>2026-08-20T13:39:05Z</time>
      </trkpt>
      <trkpt lat="34.598781" lon="112.535875">
        <ele>170.4</ele>
        <time>2026-08-20T13:39:08Z</time>
      </trkpt>
      <trkpt lat="34.598776" lon="112.535783">
        <ele>170.3</ele>
        <time>2026-08-20T13:39:11Z</time>
      </trkpt>
      <trkpt lat="34.598774" lon="112.53565">
        <ele>170.4</ele>
        <time>2026-08-20T13:39:14Z</time>
      </trkpt>
      <trkpt lat="34.598778" lon="112.535539">
        <ele>170.4</ele>
        <time>2026-08-20T13:39:17Z</time>
      </trkpt>
      <trkpt lat="34.598778" lon="112.535464">
        <ele>170.4</ele>
        <time>2026-08-20T13:39:20Z</time>
      </trkpt>
      <trkpt lat="34.598779" lon="112.535322">
        <ele>170.4</ele>
        <time>2026-08-20T13:39:23Z</time>
      </trkpt>
      <trkpt lat="34.598785" lon="112.535225">
        <ele>170.5</ele>
        <time>2026-08-20T13:39:26Z</time>
      </trkpt>
      <trkpt lat="34.598789" lon="112.535137">
        <ele>170.6</ele>
        <time>2026-08-20T13:39:29Z</time>
      </trkpt>
      <trkpt lat="34.59879" lon="112.535076">
        <ele>170.5</ele>
        <time>2026-08-20T13:39:32Z</time>
      </trkpt>
      <trkpt lat="34.598788" lon="112.534961">
        <ele>170.7</ele>
        <time>2026-08-20T13:39:35Z</time>
      </trkpt>
      <trkpt lat="34.598796" lon="112.534941">
        <ele>170.8</ele>
        <time>2026-08-20T13:39:38Z</time>
      </trkpt>
      <trkpt lat="34.598804" lon="112.534978">
        <ele>170.6</ele>
        <time>2026-08-20T13:39:41Z</time>
      </trkpt>
      <trkpt lat="34.598831" lon="112.535025">
        <ele>170.6</ele>
        <time>2026-08-20T13:39:44Z</time>
      </trkpt>
      <trkpt lat="34.598836" lon="112.535065">
        <ele>170.9</ele>
        <time>2026-08-20T13:39:47Z</time>
      </trkpt>
      <trkpt lat="34.598821" lon="112.535074">
        <ele>170.9</ele>
        <time>2026-08-20T13:39:50Z</time>
      </trkpt>
      <trkpt lat="34.598813" lon="112.535066">
        <ele>170.8</ele>
        <time>2026-08-20T13:39:53Z</time>
      </trkpt>
      <trkpt lat="34.598807" lon="112.53504">
        <ele>170.8</ele>
        <time>2026-08-20T13:39:55Z</time>
      </trkpt>
      <trkpt lat="34.598806" lon="112.535006">
        <ele>170.8</ele>
        <time>2026-08-20T13:39:58Z</time>
      </trkpt>
      <trkpt lat="34.598816" lon="112.53499">
        <ele>170.9</ele>
        <time>2026-08-20T13:40:04Z</time>
      </trkpt>
      <trkpt lat="34.598817" lon="112.534992">
        <ele>170.9</ele>
        <time>2026-08-20T13:40:07Z</time>
      </trkpt>
      <trkpt lat="34.598816" lon="112.534996">
        <ele>170.9</ele>
        <time>2026-08-20T13:40:10Z</time>
      </trkpt>
      <trkpt lat="34.598812" lon="112.535006">
        <ele>170.9</ele>
        <time>2026-08-20T13:40:13Z</time>
      </trkpt>
      <trkpt lat="34.598811" lon="112.53502">
        <ele>171</ele>
        <time>2026-08-20T13:40:16Z</time>
      </trkpt>
      <trkpt lat="34.598811" lon="112.535066">
        <ele>171.1</ele>
        <time>2026-08-20T13:40:19Z</time>
      </trkpt>
      <trkpt lat="34.598814" lon="112.535106">
        <ele>171</ele>
        <time>2026-08-20T13:40:25Z</time>
      </trkpt>
      <trkpt lat="34.598811" lon="112.535121">
        <ele>171</ele>
        <time>2026-08-20T13:40:28Z</time>
      </trkpt>
      <trkpt lat="34.598815" lon="112.535143">
        <ele>171</ele>
        <time>2026-08-20T13:40:31Z</time>
      </trkpt>
      <trkpt lat="34.598819" lon="112.53515">
        <ele>170.9</ele>
        <time>2026-08-20T13:40:34Z</time>
      </trkpt>
      <trkpt lat="34.598824" lon="112.535143">
        <ele>171</ele>
        <time>2026-08-20T13:40:37Z</time>
      </trkpt>
      <trkpt lat="34.598829" lon="112.535126">
        <ele>171.2</ele>
        <time>2026-08-20T13:40:40Z</time>
      </trkpt>
      <trkpt lat="34.598828" lon="112.535097">
        <ele>171.1</ele>
        <time>2026-08-20T13:40:43Z</time>
      </trkpt>
      <trkpt lat="34.598823" lon="112.535058">
        <ele>171.1</ele>
        <time>2026-08-20T13:40:46Z</time>
      </trkpt>
      <trkpt lat="34.598821" lon="112.53503">
        <ele>171.1</ele>
        <time>2026-08-20T13:40:49Z</time>
      </trkpt>
      <trkpt lat="34.598823" lon="112.534974">
        <ele>171.1</ele>
        <time>2026-08-20T13:40:52Z</time>
      </trkpt>
      <trkpt lat="34.598825" lon="112.534959">
        <ele>171.1</ele>
        <time>2026-08-20T13:40:55Z</time>
      </trkpt>
      <trkpt lat="34.598818" lon="112.534986">
        <ele>171.1</ele>
        <time>2026-08-20T13:40:58Z</time>
      </trkpt>
      <trkpt lat="34.598817" lon="112.535019">
        <ele>171.1</ele>
        <time>2026-08-20T13:41:01Z</time>
      </trkpt>
      <trkpt lat="34.598793" lon="112.535103">
        <ele>171.1</ele>
        <time>2026-08-20T13:41:10Z</time>
      </trkpt>
      <trkpt lat="34.598789" lon="112.535031">
        <ele>171.2</ele>
        <time>2026-08-20T13:41:16Z</time>
      </trkpt>
      <trkpt lat="34.598792" lon="112.534953">
        <ele>171.3</ele>
        <time>2026-08-20T13:41:20Z</time>
      </trkpt>
      <trkpt lat="34.598793" lon="112.534935">
        <ele>171.4</ele>
        <time>2026-08-20T13:41:22Z</time>
      </trkpt>
      <trkpt lat="34.598807" lon="112.534851">
        <ele>171.3</ele>
        <time>2026-08-20T13:41:26Z</time>
      </trkpt>
      <trkpt lat="34.598817" lon="112.534796">
        <ele>171.1</ele>
        <time>2026-08-20T13:41:29Z</time>
      </trkpt>
      <trkpt lat="34.598821" lon="112.534754">
        <ele>171</ele>
        <time>2026-08-20T13:41:32Z</time>
      </trkpt>
      <trkpt lat="34.59882" lon="112.534722">
        <ele>171.2</ele>
        <time>2026-08-20T13:41:35Z</time>
      </trkpt>
      <trkpt lat="34.598816" lon="112.534639">
        <ele>171.3</ele>
        <time>2026-08-20T13:41:38Z</time>
      </trkpt>
      <trkpt lat="34.598807" lon="112.534573">
        <ele>171.2</ele>
        <time>2026-08-20T13:41:41Z</time>
      </trkpt>
      <trkpt lat="34.598806" lon="112.53452">
        <ele>171.2</ele>
        <time>2026-08-20T13:41:44Z</time>
      </trkpt>
      <trkpt lat="34.59881" lon="112.534436">
        <ele>171</ele>
        <time>2026-08-20T13:41:47Z</time>
      </trkpt>
      <trkpt lat="34.598818" lon="112.534389">
        <ele>171.1</ele>
        <time>2026-08-20T13:41:50Z</time>
      </trkpt>
      <trkpt lat="34.598825" lon="112.53435">
        <ele>171.4</ele>
        <time>2026-08-20T13:41:53Z</time>
      </trkpt>
      <trkpt lat="34.598828" lon="112.534325">
        <ele>171.5</ele>
        <time>2026-08-20T13:41:56Z</time>
      </trkpt>
      <trkpt lat="34.598828" lon="112.534278">
        <ele>171.6</ele>
        <time>2026-08-20T13:41:59Z</time>
      </trkpt>
      <trkpt lat="34.598823" lon="112.534242">
        <ele>171.6</ele>
        <time>2026-08-20T13:42:02Z</time>
      </trkpt>
      <trkpt lat="34.598825" lon="112.534205">
        <ele>171.6</ele>
        <time>2026-08-20T13:42:05Z</time>
      </trkpt>
      <trkpt lat="34.598827" lon="112.534179">
        <ele>171.6</ele>
        <time>2026-08-20T13:42:08Z</time>
      </trkpt>
      <trkpt lat="34.598829" lon="112.534127">
        <ele>171.4</ele>
        <time>2026-08-20T13:42:11Z</time>
      </trkpt>
      <trkpt lat="34.598828" lon="112.534088">
        <ele>171.4</ele>
        <time>2026-08-20T13:42:14Z</time>
      </trkpt>
      <trkpt lat="34.598824" lon="112.534054">
        <ele>171.4</ele>
        <time>2026-08-20T13:42:17Z</time>
      </trkpt>
      <trkpt lat="34.598819" lon="112.534028">
        <ele>171.4</ele>
        <time>2026-08-20T13:42:20Z</time>
      </trkpt>
      <trkpt lat="34.598802" lon="112.533963">
        <ele>171.5</ele>
        <time>2026-08-20T13:42:23Z</time>
      </trkpt>
      <trkpt lat="34.598798" lon="112.53389">
        <ele>171.6</ele>
        <time>2026-08-20T13:42:26Z</time>
      </trkpt>
      <trkpt lat="34.598799" lon="112.533825">
        <ele>171.6</ele>
        <time>2026-08-20T13:42:29Z</time>
      </trkpt>
      <trkpt lat="34.598804" lon="112.533719">
        <ele>171.6</ele>
        <time>2026-08-20T13:42:32Z</time>
      </trkpt>
      <trkpt lat="34.598811" lon="112.533563">
        <ele>171.6</ele>
        <time>2026-08-20T13:42:35Z</time>
      </trkpt>
      <trkpt lat="34.598811" lon="112.533453">
        <ele>171.6</ele>
        <time>2026-08-20T13:42:38Z</time>
      </trkpt>
      <trkpt lat="34.598805" lon="112.533374">
        <ele>171.6</ele>
        <time>2026-08-20T13:42:41Z</time>
      </trkpt>
      <trkpt lat="34.598799" lon="112.533265">
        <ele>171.6</ele>
        <time>2026-08-20T13:42:44Z</time>
      </trkpt>
      <trkpt lat="34.598794" lon="112.533134">
        <ele>171.7</ele>
        <time>2026-08-20T13:42:47Z</time>
      </trkpt>
      <trkpt lat="34.59879" lon="112.533063">
        <ele>171.5</ele>
        <time>2026-08-20T13:42:50Z</time>
      </trkpt>
      <trkpt lat="34.598789" lon="112.533032">
        <ele>171.5</ele>
        <time>2026-08-20T13:42:52Z</time>
      </trkpt>
      <trkpt lat="34.59879" lon="112.532987">
        <ele>171.6</ele>
        <time>2026-08-20T13:42:55Z</time>
      </trkpt>
      <trkpt lat="34.59879" lon="112.532945">
        <ele>171.4</ele>
        <time>2026-08-20T13:42:58Z</time>
      </trkpt>
      <trkpt lat="34.598785" lon="112.532905">
        <ele>171.4</ele>
        <time>2026-08-20T13:43:01Z</time>
      </trkpt>
      <trkpt lat="34.598787" lon="112.532867">
        <ele>171.4</ele>
        <time>2026-08-20T13:43:04Z</time>
      </trkpt>
      <trkpt lat="34.598798" lon="112.532822">
        <ele>171.3</ele>
        <time>2026-08-20T13:43:07Z</time>
      </trkpt>
      <trkpt lat="34.598815" lon="112.532778">
        <ele>171.4</ele>
        <time>2026-08-20T13:43:10Z</time>
      </trkpt>
      <trkpt lat="34.598821" lon="112.532757">
        <ele>171.4</ele>
        <time>2026-08-20T13:43:13Z</time>
      </trkpt>
      <trkpt lat="34.598827" lon="112.532729">
        <ele>171.4</ele>
        <time>2026-08-20T13:43:19Z</time>
      </trkpt>
      <trkpt lat="34.598811" lon="112.532703">
        <ele>171.3</ele>
        <time>2026-08-20T13:43:25Z</time>
      </trkpt>
      <trkpt lat="34.598808" lon="112.532638">
        <ele>171.3</ele>
        <time>2026-08-20T13:43:28Z</time>
      </trkpt>
      <trkpt lat="34.59881" lon="112.532576">
        <ele>171.3</ele>
        <time>2026-08-20T13:43:31Z</time>
      </trkpt>
      <trkpt lat="34.59881" lon="112.532516">
        <ele>171.5</ele>
        <time>2026-08-20T13:43:34Z</time>
      </trkpt>
      <trkpt lat="34.598809" lon="112.532478">
        <ele>171.6</ele>
        <time>2026-08-20T13:43:37Z</time>
      </trkpt>
      <trkpt lat="34.59881" lon="112.532402">
        <ele>171.7</ele>
        <time>2026-08-20T13:43:40Z</time>
      </trkpt>
      <trkpt lat="34.598813" lon="112.532347">
        <ele>171.6</ele>
        <time>2026-08-20T13:43:43Z</time>
      </trkpt>
      <trkpt lat="34.598818" lon="112.532298">
        <ele>171.5</ele>
        <time>2026-08-20T13:43:46Z</time>
      </trkpt>
      <trkpt lat="34.59882" lon="112.532265">
        <ele>171.6</ele>
        <time>2026-08-20T13:43:49Z</time>
      </trkpt>
      <trkpt lat="34.598804" lon="112.53219">
        <ele>171.5</ele>
        <time>2026-08-20T13:43:52Z</time>
      </trkpt>
      <trkpt lat="34.598784" lon="112.532131">
        <ele>171.7</ele>
        <time>2026-08-20T13:43:55Z</time>
      </trkpt>
      <trkpt lat="34.598769" lon="112.532086">
        <ele>171.6</ele>
        <time>2026-08-20T13:43:58Z</time>
      </trkpt>
      <trkpt lat="34.598755" lon="112.532005">
        <ele>171.6</ele>
        <time>2026-08-20T13:44:01Z</time>
      </trkpt>
      <trkpt lat="34.598757" lon="112.531883">
        <ele>171.6</ele>
        <time>2026-08-20T13:44:04Z</time>
      </trkpt>
      <trkpt lat="34.598763" lon="112.531781">
        <ele>171.7</ele>
        <time>2026-08-20T13:44:07Z</time>
      </trkpt>
      <trkpt lat="34.598767" lon="112.531712">
        <ele>171.8</ele>
        <time>2026-08-20T13:44:10Z</time>
      </trkpt>
      <trkpt lat="34.598777" lon="112.53161">
        <ele>171.9</ele>
        <time>2026-08-20T13:44:13Z</time>
      </trkpt>
      <trkpt lat="34.598783" lon="112.531477">
        <ele>171.9</ele>
        <time>2026-08-20T13:44:16Z</time>
      </trkpt>
      <trkpt lat="34.598788" lon="112.531374">
        <ele>172</ele>
        <time>2026-08-20T13:44:20Z</time>
      </trkpt>
      <trkpt lat="34.59879" lon="112.531243">
        <ele>171.9</ele>
        <time>2026-08-20T13:44:23Z</time>
      </trkpt>
      <trkpt lat="34.598783" lon="112.53116">
        <ele>172</ele>
        <time>2026-08-20T13:44:26Z</time>
      </trkpt>
      <trkpt lat="34.598776" lon="112.531078">
        <ele>172</ele>
        <time>2026-08-20T13:44:29Z</time>
      </trkpt>
      <trkpt lat="34.598773" lon="112.531023">
        <ele>172.1</ele>
        <time>2026-08-20T13:44:32Z</time>
      </trkpt>
      <trkpt lat="34.598772" lon="112.530911">
        <ele>172</ele>
        <time>2026-08-20T13:44:35Z</time>
      </trkpt>
      <trkpt lat="34.59878" lon="112.530835">
        <ele>172.1</ele>
        <time>2026-08-20T13:44:38Z</time>
      </trkpt>
      <trkpt lat="34.598788" lon="112.530759">
        <ele>172</ele>
        <time>2026-08-20T13:44:41Z</time>
      </trkpt>
      <trkpt lat="34.598792" lon="112.530702">
        <ele>172.1</ele>
        <time>2026-08-20T13:44:44Z</time>
      </trkpt>
      <trkpt lat="34.598797" lon="112.530568">
        <ele>172.2</ele>
        <time>2026-08-20T13:44:47Z</time>
      </trkpt>
      <trkpt lat="34.598798" lon="112.530456">
        <ele>172.2</ele>
        <time>2026-08-20T13:44:50Z</time>
      </trkpt>
      <trkpt lat="34.5988" lon="112.530335">
        <ele>172.3</ele>
        <time>2026-08-20T13:44:53Z</time>
      </trkpt>
      <trkpt lat="34.598797" lon="112.530255">
        <ele>172.3</ele>
        <time>2026-08-20T13:44:56Z</time>
      </trkpt>
      <trkpt lat="34.598785" lon="112.53011">
        <ele>172.3</ele>
        <time>2026-08-20T13:44:59Z</time>
      </trkpt>
      <trkpt lat="34.598782" lon="112.530013">
        <ele>172.3</ele>
        <time>2026-08-20T13:45:02Z</time>
      </trkpt>
      <trkpt lat="34.598781" lon="112.529951">
        <ele>172.3</ele>
        <time>2026-08-20T13:45:05Z</time>
      </trkpt>
      <trkpt lat="34.598781" lon="112.529864">
        <ele>172.3</ele>
        <time>2026-08-20T13:45:08Z</time>
      </trkpt>
      <trkpt lat="34.598781" lon="112.529759">
        <ele>172.3</ele>
        <time>2026-08-20T13:45:11Z</time>
      </trkpt>
      <trkpt lat="34.598775" lon="112.529676">
        <ele>172.4</ele>
        <time>2026-08-20T13:45:14Z</time>
      </trkpt>
      <trkpt lat="34.598772" lon="112.529615">
        <ele>172.4</ele>
        <time>2026-08-20T13:45:17Z</time>
      </trkpt>
      <trkpt lat="34.598776" lon="112.5295">
        <ele>172.4</ele>
        <time>2026-08-20T13:45:20Z</time>
      </trkpt>
      <trkpt lat="34.598776" lon="112.529419">
        <ele>172.4</ele>
        <time>2026-08-20T13:45:23Z</time>
      </trkpt>
      <trkpt lat="34.598776" lon="112.529339">
        <ele>172.5</ele>
        <time>2026-08-20T13:45:26Z</time>
      </trkpt>
      <trkpt lat="34.598779" lon="112.529285">
        <ele>172.4</ele>
        <time>2026-08-20T13:45:29Z</time>
      </trkpt>
      <trkpt lat="34.598784" lon="112.529176">
        <ele>172.4</ele>
        <time>2026-08-20T13:45:32Z</time>
      </trkpt>
      <trkpt lat="34.59879" lon="112.529086">
        <ele>172.4</ele>
        <time>2026-08-20T13:45:35Z</time>
      </trkpt>
      <trkpt lat="34.598792" lon="112.528989">
        <ele>172.4</ele>
        <time>2026-08-20T13:45:38Z</time>
      </trkpt>
      <trkpt lat="34.598792" lon="112.528926">
        <ele>172.5</ele>
        <time>2026-08-20T13:45:41Z</time>
      </trkpt>
      <trkpt lat="34.598793" lon="112.528804">
        <ele>172.6</ele>
        <time>2026-08-20T13:45:44Z</time>
      </trkpt>
      <trkpt lat="34.59879" lon="112.528701">
        <ele>172.5</ele>
        <time>2026-08-20T13:45:47Z</time>
      </trkpt>
      <trkpt lat="34.59879" lon="112.528637">
        <ele>172.5</ele>
        <time>2026-08-20T13:45:50Z</time>
      </trkpt>
      <trkpt lat="34.598795" lon="112.528551">
        <ele>172.5</ele>
        <time>2026-08-20T13:45:52Z</time>
      </trkpt>
      <trkpt lat="34.598807" lon="112.528467">
        <ele>172.6</ele>
        <time>2026-08-20T13:45:55Z</time>
      </trkpt>
      <trkpt lat="34.598825" lon="112.528384">
        <ele>172.6</ele>
        <time>2026-08-20T13:45:58Z</time>
      </trkpt>
      <trkpt lat="34.598834" lon="112.528326">
        <ele>172.8</ele>
        <time>2026-08-20T13:46:01Z</time>
      </trkpt>
      <trkpt lat="34.598841" lon="112.528195">
        <ele>172.7</ele>
        <time>2026-08-20T13:46:04Z</time>
      </trkpt>
      <trkpt lat="34.598836" lon="112.528091">
        <ele>172.7</ele>
        <time>2026-08-20T13:46:07Z</time>
      </trkpt>
      <trkpt lat="34.59883" lon="112.52799">
        <ele>172.7</ele>
        <time>2026-08-20T13:46:10Z</time>
      </trkpt>
      <trkpt lat="34.598823" lon="112.527924">
        <ele>172.6</ele>
        <time>2026-08-20T13:46:13Z</time>
      </trkpt>
      <trkpt lat="34.598807" lon="112.527795">
        <ele>172.7</ele>
        <time>2026-08-20T13:46:16Z</time>
      </trkpt>
      <trkpt lat="34.598798" lon="112.527705">
        <ele>172.8</ele>
        <time>2026-08-20T13:46:19Z</time>
      </trkpt>
      <trkpt lat="34.598792" lon="112.527622">
        <ele>172.8</ele>
        <time>2026-08-20T13:46:22Z</time>
      </trkpt>
      <trkpt lat="34.598789" lon="112.527552">
        <ele>172.8</ele>
        <time>2026-08-20T13:46:25Z</time>
      </trkpt>
      <trkpt lat="34.598787" lon="112.527497">
        <ele>173</ele>
        <time>2026-08-20T13:46:28Z</time>
      </trkpt>
      <trkpt lat="34.598785" lon="112.527437">
        <ele>173</ele>
        <time>2026-08-20T13:46:31Z</time>
      </trkpt>
      <trkpt lat="34.598782" lon="112.527388">
        <ele>173</ele>
        <time>2026-08-20T13:46:34Z</time>
      </trkpt>
      <trkpt lat="34.598786" lon="112.527278">
        <ele>173</ele>
        <time>2026-08-20T13:46:37Z</time>
      </trkpt>
      <trkpt lat="34.598792" lon="112.527199">
        <ele>173.1</ele>
        <time>2026-08-20T13:46:40Z</time>
      </trkpt>
      <trkpt lat="34.598794" lon="112.527124">
        <ele>173.1</ele>
        <time>2026-08-20T13:46:43Z</time>
      </trkpt>
      <trkpt lat="34.598797" lon="112.527072">
        <ele>173.2</ele>
        <time>2026-08-20T13:46:46Z</time>
      </trkpt>
      <trkpt lat="34.598802" lon="112.526953">
        <ele>173.2</ele>
        <time>2026-08-20T13:46:49Z</time>
      </trkpt>
      <trkpt lat="34.598802" lon="112.526856">
        <ele>173.3</ele>
        <time>2026-08-20T13:46:52Z</time>
      </trkpt>
      <trkpt lat="34.598798" lon="112.526758">
        <ele>173.2</ele>
        <time>2026-08-20T13:46:55Z</time>
      </trkpt>
      <trkpt lat="34.598795" lon="112.526695">
        <ele>173.4</ele>
        <time>2026-08-20T13:46:58Z</time>
      </trkpt>
      <trkpt lat="34.598796" lon="112.526569">
        <ele>173.4</ele>
        <time>2026-08-20T13:47:01Z</time>
      </trkpt>
      <trkpt lat="34.598797" lon="112.526477">
        <ele>173.4</ele>
        <time>2026-08-20T13:47:04Z</time>
      </trkpt>
      <trkpt lat="34.598798" lon="112.526384">
        <ele>173.4</ele>
        <time>2026-08-20T13:47:07Z</time>
      </trkpt>
      <trkpt lat="34.598798" lon="112.526324">
        <ele>173.6</ele>
        <time>2026-08-20T13:47:10Z</time>
      </trkpt>
      <trkpt lat="34.598798" lon="112.526216">
        <ele>173.7</ele>
        <time>2026-08-20T13:47:13Z</time>
      </trkpt>
      <trkpt lat="34.598792" lon="112.526151">
        <ele>173.8</ele>
        <time>2026-08-20T13:47:16Z</time>
      </trkpt>
      <trkpt lat="34.598787" lon="112.526108">
        <ele>173.9</ele>
        <time>2026-08-20T13:47:19Z</time>
      </trkpt>
      <trkpt lat="34.598788" lon="112.525977">
        <ele>173.8</ele>
        <time>2026-08-20T13:47:23Z</time>
      </trkpt>
      <trkpt lat="34.598787" lon="112.525884">
        <ele>173.8</ele>
        <time>2026-08-20T13:47:26Z</time>
      </trkpt>
      <trkpt lat="34.598783" lon="112.525791">
        <ele>173.7</ele>
        <time>2026-08-20T13:47:29Z</time>
      </trkpt>
      <trkpt lat="34.59878" lon="112.525729">
        <ele>173.7</ele>
        <time>2026-08-20T13:47:32Z</time>
      </trkpt>
      <trkpt lat="34.598776" lon="112.525609">
        <ele>173.8</ele>
        <time>2026-08-20T13:47:35Z</time>
      </trkpt>
      <trkpt lat="34.598772" lon="112.52552">
        <ele>173.8</ele>
        <time>2026-08-20T13:47:38Z</time>
      </trkpt>
      <trkpt lat="34.598769" lon="112.525454">
        <ele>174</ele>
        <time>2026-08-20T13:47:41Z</time>
      </trkpt>
      <trkpt lat="34.598767" lon="112.525331">
        <ele>174</ele>
        <time>2026-08-20T13:47:44Z</time>
      </trkpt>
      <trkpt lat="34.598765" lon="112.525233">
        <ele>174</ele>
        <time>2026-08-20T13:47:47Z</time>
      </trkpt>
      <trkpt lat="34.598761" lon="112.525137">
        <ele>174.1</ele>
        <time>2026-08-20T13:47:50Z</time>
      </trkpt>
      <trkpt lat="34.598758" lon="112.525071">
        <ele>174.2</ele>
        <time>2026-08-20T13:47:53Z</time>
      </trkpt>
      <trkpt lat="34.598754" lon="112.524943">
        <ele>174.2</ele>
        <time>2026-08-20T13:47:56Z</time>
      </trkpt>
      <trkpt lat="34.598768" lon="112.524842">
        <ele>174.3</ele>
        <time>2026-08-20T13:47:59Z</time>
      </trkpt>
      <trkpt lat="34.598779" lon="112.524747">
        <ele>174.3</ele>
        <time>2026-08-20T13:48:02Z</time>
      </trkpt>
      <trkpt lat="34.598783" lon="112.524688">
        <ele>174.4</ele>
        <time>2026-08-20T13:48:05Z</time>
      </trkpt>
      <trkpt lat="34.598783" lon="112.524586">
        <ele>174.3</ele>
        <time>2026-08-20T13:48:08Z</time>
      </trkpt>
      <trkpt lat="34.598782" lon="112.524514">
        <ele>174.4</ele>
        <time>2026-08-20T13:48:11Z</time>
      </trkpt>
      <trkpt lat="34.598781" lon="112.524435">
        <ele>174.4</ele>
        <time>2026-08-20T13:48:14Z</time>
      </trkpt>
      <trkpt lat="34.598781" lon="112.524373">
        <ele>174.5</ele>
        <time>2026-08-20T13:48:17Z</time>
      </trkpt>
      <trkpt lat="34.598778" lon="112.524241">
        <ele>174.5</ele>
        <time>2026-08-20T13:48:20Z</time>
      </trkpt>
      <trkpt lat="34.598776" lon="112.524146">
        <ele>174.6</ele>
        <time>2026-08-20T13:48:23Z</time>
      </trkpt>
      <trkpt lat="34.598774" lon="112.52409">
        <ele>174.6</ele>
        <time>2026-08-20T13:48:26Z</time>
      </trkpt>
      <trkpt lat="34.59877" lon="112.524008">
        <ele>174.9</ele>
        <time>2026-08-20T13:48:29Z</time>
      </trkpt>
      <trkpt lat="34.598769" lon="112.523897">
        <ele>174.9</ele>
        <time>2026-08-20T13:48:32Z</time>
      </trkpt>
      <trkpt lat="34.598775" lon="112.523801">
        <ele>174.9</ele>
        <time>2026-08-20T13:48:35Z</time>
      </trkpt>
      <trkpt lat="34.598782" lon="112.523736">
        <ele>174.9</ele>
        <time>2026-08-20T13:48:38Z</time>
      </trkpt>
      <trkpt lat="34.598792" lon="112.523634">
        <ele>175</ele>
        <time>2026-08-20T13:48:41Z</time>
      </trkpt>
      <trkpt lat="34.598791" lon="112.52349">
        <ele>174.9</ele>
        <time>2026-08-20T13:48:44Z</time>
      </trkpt>
      <trkpt lat="34.598783" lon="112.523377">
        <ele>175</ele>
        <time>2026-08-20T13:48:47Z</time>
      </trkpt>
      <trkpt lat="34.598777" lon="112.523308">
        <ele>175</ele>
        <time>2026-08-20T13:48:49Z</time>
      </trkpt>
      <trkpt lat="34.598769" lon="112.523204">
        <ele>175.2</ele>
        <time>2026-08-20T13:48:52Z</time>
      </trkpt>
      <trkpt lat="34.598763" lon="112.523106">
        <ele>175.2</ele>
        <time>2026-08-20T13:48:55Z</time>
      </trkpt>
      <trkpt lat="34.59876" lon="112.523009">
        <ele>175.2</ele>
        <time>2026-08-20T13:48:58Z</time>
      </trkpt>
      <trkpt lat="34.598766" lon="112.522921">
        <ele>175.4</ele>
        <time>2026-08-20T13:49:01Z</time>
      </trkpt>
      <trkpt lat="34.598778" lon="112.522847">
        <ele>175.4</ele>
        <time>2026-08-20T13:49:04Z</time>
      </trkpt>
      <trkpt lat="34.598789" lon="112.52277">
        <ele>175.4</ele>
        <time>2026-08-20T13:49:07Z</time>
      </trkpt>
      <trkpt lat="34.598799" lon="112.522681">
        <ele>175.5</ele>
        <time>2026-08-20T13:49:10Z</time>
      </trkpt>
      <trkpt lat="34.598806" lon="112.522583">
        <ele>175.6</ele>
        <time>2026-08-20T13:49:13Z</time>
      </trkpt>
      <trkpt lat="34.598813" lon="112.522488">
        <ele>175.6</ele>
        <time>2026-08-20T13:49:16Z</time>
      </trkpt>
      <trkpt lat="34.598818" lon="112.522402">
        <ele>175.6</ele>
        <time>2026-08-20T13:49:19Z</time>
      </trkpt>
      <trkpt lat="34.598818" lon="112.522351">
        <ele>175.7</ele>
        <time>2026-08-20T13:49:22Z</time>
      </trkpt>
      <trkpt lat="34.598813" lon="112.522254">
        <ele>175.7</ele>
        <time>2026-08-20T13:49:25Z</time>
      </trkpt>
      <trkpt lat="34.598811" lon="112.522177">
        <ele>175.8</ele>
        <time>2026-08-20T13:49:28Z</time>
      </trkpt>
      <trkpt lat="34.598811" lon="112.522099">
        <ele>175.9</ele>
        <time>2026-08-20T13:49:31Z</time>
      </trkpt>
      <trkpt lat="34.598814" lon="112.522044">
        <ele>175.9</ele>
        <time>2026-08-20T13:49:34Z</time>
      </trkpt>
      <trkpt lat="34.598822" lon="112.521926">
        <ele>176</ele>
        <time>2026-08-20T13:49:37Z</time>
      </trkpt>
      <trkpt lat="34.598826" lon="112.521834">
        <ele>175.9</ele>
        <time>2026-08-20T13:49:40Z</time>
      </trkpt>
      <trkpt lat="34.59883" lon="112.521737">
        <ele>176.1</ele>
        <time>2026-08-20T13:49:43Z</time>
      </trkpt>
      <trkpt lat="34.598835" lon="112.521675">
        <ele>176.3</ele>
        <time>2026-08-20T13:49:46Z</time>
      </trkpt>
      <trkpt lat="34.598843" lon="112.521547">
        <ele>176.2</ele>
        <time>2026-08-20T13:49:49Z</time>
      </trkpt>
      <trkpt lat="34.598845" lon="112.521455">
        <ele>176.2</ele>
        <time>2026-08-20T13:49:52Z</time>
      </trkpt>
      <trkpt lat="34.598846" lon="112.52139">
        <ele>176.2</ele>
        <time>2026-08-20T13:49:55Z</time>
      </trkpt>
      <trkpt lat="34.598849" lon="112.521291">
        <ele>176.1</ele>
        <time>2026-08-20T13:49:58Z</time>
      </trkpt>
      <trkpt lat="34.598861" lon="112.521164">
        <ele>176.2</ele>
        <time>2026-08-20T13:50:01Z</time>
      </trkpt>
      <trkpt lat="34.598874" lon="112.521067">
        <ele>176.2</ele>
        <time>2026-08-20T13:50:05Z</time>
      </trkpt>
      <trkpt lat="34.598872" lon="112.521038">
        <ele>176.2</ele>
        <time>2026-08-20T13:50:08Z</time>
      </trkpt>
      <trkpt lat="34.598849" lon="112.520994">
        <ele>176.4</ele>
        <time>2026-08-20T13:50:11Z</time>
      </trkpt>
      <trkpt lat="34.598827" lon="112.520957">
        <ele>176.5</ele>
        <time>2026-08-20T13:50:14Z</time>
      </trkpt>
      <trkpt lat="34.598808" lon="112.520925">
        <ele>176.5</ele>
        <time>2026-08-20T13:50:17Z</time>
      </trkpt>
      <trkpt lat="34.598791" lon="112.520902">
        <ele>176.4</ele>
        <time>2026-08-20T13:50:20Z</time>
      </trkpt>
      <trkpt lat="34.598784" lon="112.520885">
        <ele>176.5</ele>
        <time>2026-08-20T13:50:23Z</time>
      </trkpt>
      <trkpt lat="34.598783" lon="112.520876">
        <ele>176.5</ele>
        <time>2026-08-20T13:50:26Z</time>
      </trkpt>
      <trkpt lat="34.598786" lon="112.520876">
        <ele>176.2</ele>
        <time>2026-08-20T13:50:29Z</time>
      </trkpt>
      <trkpt lat="34.598797" lon="112.520879">
        <ele>176.1</ele>
        <time>2026-08-20T13:50:32Z</time>
      </trkpt>
      <trkpt lat="34.598802" lon="112.520886">
        <ele>176</ele>
        <time>2026-08-20T13:50:35Z</time>
      </trkpt>
      <trkpt lat="34.598802" lon="112.520893">
        <ele>175.9</ele>
        <time>2026-08-20T13:50:38Z</time>
      </trkpt>
      <trkpt lat="34.598801" lon="112.520897">
        <ele>176.1</ele>
        <time>2026-08-20T13:50:41Z</time>
      </trkpt>
      <trkpt lat="34.598801" lon="112.520899">
        <ele>176.3</ele>
        <time>2026-08-20T13:50:44Z</time>
      </trkpt>
      <trkpt lat="34.5988" lon="112.520897">
        <ele>176.5</ele>
        <time>2026-08-20T13:50:47Z</time>
      </trkpt>
      <trkpt lat="34.598798" lon="112.520891">
        <ele>176.5</ele>
        <time>2026-08-20T13:50:50Z</time>
      </trkpt>
      <trkpt lat="34.598797" lon="112.520887">
        <ele>176.4</ele>
        <time>2026-08-20T13:50:53Z</time>
      </trkpt>
      <trkpt lat="34.598799" lon="112.520881">
        <ele>176.4</ele>
        <time>2026-08-20T13:50:56Z</time>
      </trkpt>
      <trkpt lat="34.598801" lon="112.520879">
        <ele>176.4</ele>
        <time>2026-08-20T13:50:59Z</time>
      </trkpt>
      <trkpt lat="34.598801" lon="112.520877">
        <ele>176.5</ele>
        <time>2026-08-20T13:51:02Z</time>
      </trkpt>
      <trkpt lat="34.598802" lon="112.520875">
        <ele>176.4</ele>
        <time>2026-08-20T13:51:05Z</time>
      </trkpt>
      <trkpt lat="34.598801" lon="112.520873">
        <ele>176.4</ele>
        <time>2026-08-20T13:51:08Z</time>
      </trkpt>
      <trkpt lat="34.598805" lon="112.520866">
        <ele>176.4</ele>
        <time>2026-08-20T13:51:11Z</time>
      </trkpt>
      <trkpt lat="34.598804" lon="112.520862">
        <ele>176.3</ele>
        <time>2026-08-20T13:51:14Z</time>
      </trkpt>
      <trkpt lat="34.598804" lon="112.520854">
        <ele>176.2</ele>
        <time>2026-08-20T13:51:17Z</time>
      </trkpt>
      <trkpt lat="34.5988" lon="112.520844">
        <ele>176.1</ele>
        <time>2026-08-20T13:51:20Z</time>
      </trkpt>
      <trkpt lat="34.598798" lon="112.520842">
        <ele>176.1</ele>
        <time>2026-08-20T13:51:23Z</time>
      </trkpt>
      <trkpt lat="34.598799" lon="112.520841">
        <ele>176.1</ele>
        <time>2026-08-20T13:51:26Z</time>
      </trkpt>
      <trkpt lat="34.598798" lon="112.520843">
        <ele>176.2</ele>
        <time>2026-08-20T13:51:29Z</time>
      </trkpt>
      <trkpt lat="34.598797" lon="112.520846">
        <ele>176.2</ele>
        <time>2026-08-20T13:51:32Z</time>
      </trkpt>
      <trkpt lat="34.598798" lon="112.520847">
        <ele>176.2</ele>
        <time>2026-08-20T13:51:34Z</time>
      </trkpt>
      <trkpt lat="34.598797" lon="112.52085">
        <ele>176.2</ele>
        <time>2026-08-20T13:51:37Z</time>
      </trkpt>
      <trkpt lat="34.598797" lon="112.520852">
        <ele>176.2</ele>
        <time>2026-08-20T13:51:40Z</time>
      </trkpt>
      <trkpt lat="34.598795" lon="112.52085">
        <ele>176.1</ele>
        <time>2026-08-20T13:51:43Z</time>
      </trkpt>
      <trkpt lat="34.598794" lon="112.520832">
        <ele>176.2</ele>
        <time>2026-08-20T13:51:46Z</time>
      </trkpt>
      <trkpt lat="34.598797" lon="112.520783">
        <ele>176.4</ele>
        <time>2026-08-20T13:51:50Z</time>
      </trkpt>
      <trkpt lat="34.598795" lon="112.520701">
        <ele>176.6</ele>
        <time>2026-08-20T13:51:53Z</time>
      </trkpt>
      <trkpt lat="34.598807" lon="112.520642">
        <ele>176.6</ele>
        <time>2026-08-20T13:51:56Z</time>
      </trkpt>
      <trkpt lat="34.598813" lon="112.520623">
        <ele>176.6</ele>
        <time>2026-08-20T13:51:58Z</time>
      </trkpt>
      <trkpt lat="34.598835" lon="112.520548">
        <ele>176.4</ele>
        <time>2026-08-20T13:52:01Z</time>
      </trkpt>
      <trkpt lat="34.59884" lon="112.520474">
        <ele>176.6</ele>
        <time>2026-08-20T13:52:04Z</time>
      </trkpt>
      <trkpt lat="34.598834" lon="112.520367">
        <ele>176.7</ele>
        <time>2026-08-20T13:52:07Z</time>
      </trkpt>
      <trkpt lat="34.598827" lon="112.520287">
        <ele>176.5</ele>
        <time>2026-08-20T13:52:10Z</time>
      </trkpt>
      <trkpt lat="34.598816" lon="112.520137">
        <ele>176.4</ele>
        <time>2026-08-20T13:52:13Z</time>
      </trkpt>
      <trkpt lat="34.598809" lon="112.520039">
        <ele>176.4</ele>
        <time>2026-08-20T13:52:16Z</time>
      </trkpt>
      <trkpt lat="34.598807" lon="112.519942">
        <ele>176.5</ele>
        <time>2026-08-20T13:52:19Z</time>
      </trkpt>
      <trkpt lat="34.598804" lon="112.51985">
        <ele>176.5</ele>
        <time>2026-08-20T13:52:22Z</time>
      </trkpt>
      <trkpt lat="34.598801" lon="112.51976">
        <ele>176.4</ele>
        <time>2026-08-20T13:52:25Z</time>
      </trkpt>
      <trkpt lat="34.598804" lon="112.519664">
        <ele>176.3</ele>
        <time>2026-08-20T13:52:28Z</time>
      </trkpt>
      <trkpt lat="34.598808" lon="112.519562">
        <ele>176.2</ele>
        <time>2026-08-20T13:52:31Z</time>
      </trkpt>
      <trkpt lat="34.598813" lon="112.519466">
        <ele>176.3</ele>
        <time>2026-08-20T13:52:34Z</time>
      </trkpt>
      <trkpt lat="34.598812" lon="112.519374">
        <ele>176.3</ele>
        <time>2026-08-20T13:52:37Z</time>
      </trkpt>
      <trkpt lat="34.598812" lon="112.519285">
        <ele>176.1</ele>
        <time>2026-08-20T13:52:40Z</time>
      </trkpt>
      <trkpt lat="34.598812" lon="112.519228">
        <ele>176</ele>
        <time>2026-08-20T13:52:43Z</time>
      </trkpt>
      <trkpt lat="34.598809" lon="112.519117">
        <ele>176</ele>
        <time>2026-08-20T13:52:46Z</time>
      </trkpt>
      <trkpt lat="34.598812" lon="112.51904">
        <ele>176.1</ele>
        <time>2026-08-20T13:52:49Z</time>
      </trkpt>
      <trkpt lat="34.598813" lon="112.518963">
        <ele>176</ele>
        <time>2026-08-20T13:52:52Z</time>
      </trkpt>
      <trkpt lat="34.598811" lon="112.518906">
        <ele>175.9</ele>
        <time>2026-08-20T13:52:55Z</time>
      </trkpt>
      <trkpt lat="34.598813" lon="112.518788">
        <ele>175.9</ele>
        <time>2026-08-20T13:52:58Z</time>
      </trkpt>
      <trkpt lat="34.598813" lon="112.518692">
        <ele>175.6</ele>
        <time>2026-08-20T13:53:01Z</time>
      </trkpt>
      <trkpt lat="34.598809" lon="112.518594">
        <ele>175.7</ele>
        <time>2026-08-20T13:53:04Z</time>
      </trkpt>
      <trkpt lat="34.598806" lon="112.518529">
        <ele>175.6</ele>
        <time>2026-08-20T13:53:07Z</time>
      </trkpt>
      <trkpt lat="34.598798" lon="112.518409">
        <ele>175.7</ele>
        <time>2026-08-20T13:53:10Z</time>
      </trkpt>
      <trkpt lat="34.598822" lon="112.518013">
        <ele>176</ele>
        <time>2026-08-20T13:53:32Z</time>
      </trkpt>
      <trkpt lat="34.598829" lon="112.51789">
        <ele>176.3</ele>
        <time>2026-08-20T13:53:35Z</time>
      </trkpt>
      <trkpt lat="34.598837" lon="112.517783">
        <ele>176.4</ele>
        <time>2026-08-20T13:53:38Z</time>
      </trkpt>
      <trkpt lat="34.598834" lon="112.517709">
        <ele>176.3</ele>
        <time>2026-08-20T13:53:41Z</time>
      </trkpt>
      <trkpt lat="34.598825" lon="112.51756">
        <ele>176.1</ele>
        <time>2026-08-20T13:53:44Z</time>
      </trkpt>
      <trkpt lat="34.598823" lon="112.517454">
        <ele>176.1</ele>
        <time>2026-08-20T13:53:47Z</time>
      </trkpt>
      <trkpt lat="34.598827" lon="112.517388">
        <ele>176.1</ele>
        <time>2026-08-20T13:53:50Z</time>
      </trkpt>
      <trkpt lat="34.598839" lon="112.517293">
        <ele>176</ele>
        <time>2026-08-20T13:53:53Z</time>
      </trkpt>
      <trkpt lat="34.598861" lon="112.51717">
        <ele>175.9</ele>
        <time>2026-08-20T13:53:56Z</time>
      </trkpt>
      <trkpt lat="34.598872" lon="112.517082">
        <ele>175.6</ele>
        <time>2026-08-20T13:53:59Z</time>
      </trkpt>
      <trkpt lat="34.598881" lon="112.517027">
        <ele>175.4</ele>
        <time>2026-08-20T13:54:02Z</time>
      </trkpt>
      <trkpt lat="34.598897" lon="112.516911">
        <ele>175.3</ele>
        <time>2026-08-20T13:54:05Z</time>
      </trkpt>
      <trkpt lat="34.598914" lon="112.51682">
        <ele>175.2</ele>
        <time>2026-08-20T13:54:08Z</time>
      </trkpt>
      <trkpt lat="34.598943" lon="112.516732">
        <ele>175</ele>
        <time>2026-08-20T13:54:11Z</time>
      </trkpt>
      <trkpt lat="34.59897" lon="112.516678">
        <ele>174.7</ele>
        <time>2026-08-20T13:54:14Z</time>
      </trkpt>
      <trkpt lat="34.599032" lon="112.516581">
        <ele>174.5</ele>
        <time>2026-08-20T13:54:17Z</time>
      </trkpt>
      <trkpt lat="34.599073" lon="112.516505">
        <ele>174.6</ele>
        <time>2026-08-20T13:54:20Z</time>
      </trkpt>
      <trkpt lat="34.599091" lon="112.51645">
        <ele>174.4</ele>
        <time>2026-08-20T13:54:23Z</time>
      </trkpt>
      <trkpt lat="34.599104" lon="112.51636">
        <ele>174.6</ele>
        <time>2026-08-20T13:54:26Z</time>
      </trkpt>
      <trkpt lat="34.599117" lon="112.516231">
        <ele>174.6</ele>
        <time>2026-08-20T13:54:31Z</time>
      </trkpt>
      <trkpt lat="34.599118" lon="112.516192">
        <ele>174.5</ele>
        <time>2026-08-20T13:54:34Z</time>
      </trkpt>
      <trkpt lat="34.599108" lon="112.516092">
        <ele>174.5</ele>
        <time>2026-08-20T13:54:37Z</time>
      </trkpt>
      <trkpt lat="34.5991" lon="112.515986">
        <ele>174.5</ele>
        <time>2026-08-20T13:54:40Z</time>
      </trkpt>
      <trkpt lat="34.599091" lon="112.515878">
        <ele>174.6</ele>
        <time>2026-08-20T13:54:43Z</time>
      </trkpt>
      <trkpt lat="34.599084" lon="112.515807">
        <ele>174.7</ele>
        <time>2026-08-20T13:54:46Z</time>
      </trkpt>
      <trkpt lat="34.599067" lon="112.515675">
        <ele>175</ele>
        <time>2026-08-20T13:54:49Z</time>
      </trkpt>
      <trkpt lat="34.599054" lon="112.515583">
        <ele>175.2</ele>
        <time>2026-08-20T13:54:52Z</time>
      </trkpt>
      <trkpt lat="34.599058" lon="112.515503">
        <ele>175.2</ele>
        <time>2026-08-20T13:54:55Z</time>
      </trkpt>
      <trkpt lat="34.599056" lon="112.515453">
        <ele>175.3</ele>
        <time>2026-08-20T13:54:58Z</time>
      </trkpt>
      <trkpt lat="34.599059" lon="112.515341">
        <ele>175.3</ele>
        <time>2026-08-20T13:55:01Z</time>
      </trkpt>
      <trkpt lat="34.59907" lon="112.51527">
        <ele>175.3</ele>
        <time>2026-08-20T13:55:04Z</time>
      </trkpt>
      <trkpt lat="34.599033" lon="112.514793">
        <ele>176.3</ele>
        <time>2026-08-20T13:55:22Z</time>
      </trkpt>
      <trkpt lat="34.598994" lon="112.514701">
        <ele>176.5</ele>
        <time>2026-08-20T13:55:25Z</time>
      </trkpt>
      <trkpt lat="34.598953" lon="112.514605">
        <ele>176.7</ele>
        <time>2026-08-20T13:55:28Z</time>
      </trkpt>
      <trkpt lat="34.598926" lon="112.514538">
        <ele>177</ele>
        <time>2026-08-20T13:55:31Z</time>
      </trkpt>
      <trkpt lat="34.598887" lon="112.514415">
        <ele>177.1</ele>
        <time>2026-08-20T13:55:34Z</time>
      </trkpt>
      <trkpt lat="34.598877" lon="112.514322">
        <ele>177.1</ele>
        <time>2026-08-20T13:55:37Z</time>
      </trkpt>
      <trkpt lat="34.598869" lon="112.514232">
        <ele>177.2</ele>
        <time>2026-08-20T13:55:40Z</time>
      </trkpt>
      <trkpt lat="34.598867" lon="112.514177">
        <ele>177.4</ele>
        <time>2026-08-20T13:55:43Z</time>
      </trkpt>
      <trkpt lat="34.598867" lon="112.51407">
        <ele>177.6</ele>
        <time>2026-08-20T13:55:46Z</time>
      </trkpt>
      <trkpt lat="34.598869" lon="112.513998">
        <ele>177.3</ele>
        <time>2026-08-20T13:55:50Z</time>
      </trkpt>
      <trkpt lat="34.598872" lon="112.513968">
        <ele>177.3</ele>
        <time>2026-08-20T13:55:52Z</time>
      </trkpt>
      <trkpt lat="34.598872" lon="112.513933">
        <ele>177.3</ele>
        <time>2026-08-20T13:55:55Z</time>
      </trkpt>
      <trkpt lat="34.59888" lon="112.513854">
        <ele>177.4</ele>
        <time>2026-08-20T13:55:58Z</time>
      </trkpt>
      <trkpt lat="34.598884" lon="112.513808">
        <ele>177.4</ele>
        <time>2026-08-20T13:56:01Z</time>
      </trkpt>
      <trkpt lat="34.598884" lon="112.513786">
        <ele>177.5</ele>
        <time>2026-08-20T13:56:04Z</time>
      </trkpt>
      <trkpt lat="34.598883" lon="112.513727">
        <ele>177.4</ele>
        <time>2026-08-20T13:56:08Z</time>
      </trkpt>
      <trkpt lat="34.598882" lon="112.513679">
        <ele>177.4</ele>
        <time>2026-08-20T13:56:11Z</time>
      </trkpt>
      <trkpt lat="34.598888" lon="112.513617">
        <ele>177.5</ele>
        <time>2026-08-20T13:56:14Z</time>
      </trkpt>
      <trkpt lat="34.598891" lon="112.513532">
        <ele>177.5</ele>
        <time>2026-08-20T13:56:17Z</time>
      </trkpt>
      <trkpt lat="34.598879" lon="112.513444">
        <ele>177.5</ele>
        <time>2026-08-20T13:56:20Z</time>
      </trkpt>
      <trkpt lat="34.598865" lon="112.513386">
        <ele>177.6</ele>
        <time>2026-08-20T13:56:22Z</time>
      </trkpt>
      <trkpt lat="34.598843" lon="112.513304">
        <ele>177.6</ele>
        <time>2026-08-20T13:56:25Z</time>
      </trkpt>
      <trkpt lat="34.598831" lon="112.513246">
        <ele>177.6</ele>
        <time>2026-08-20T13:56:28Z</time>
      </trkpt>
      <trkpt lat="34.598817" lon="112.513136">
        <ele>177.7</ele>
        <time>2026-08-20T13:56:31Z</time>
      </trkpt>
      <trkpt lat="34.59881" lon="112.51305">
        <ele>177.8</ele>
        <time>2026-08-20T13:56:34Z</time>
      </trkpt>
      <trkpt lat="34.598808" lon="112.512991">
        <ele>177.7</ele>
        <time>2026-08-20T13:56:37Z</time>
      </trkpt>
      <trkpt lat="34.598804" lon="112.512909">
        <ele>177.6</ele>
        <time>2026-08-20T13:56:40Z</time>
      </trkpt>
      <trkpt lat="34.598795" lon="112.512787">
        <ele>177.4</ele>
        <time>2026-08-20T13:56:43Z</time>
      </trkpt>
      <trkpt lat="34.598793" lon="112.512688">
        <ele>177.5</ele>
        <time>2026-08-20T13:56:46Z</time>
      </trkpt>
      <trkpt lat="34.598795" lon="112.512624">
        <ele>177.4</ele>
        <time>2026-08-20T13:56:49Z</time>
      </trkpt>
      <trkpt lat="34.598798" lon="112.512496">
        <ele>177.4</ele>
        <time>2026-08-20T13:56:52Z</time>
      </trkpt>
      <trkpt lat="34.598796" lon="112.512409">
        <ele>177.3</ele>
        <time>2026-08-20T13:56:55Z</time>
      </trkpt>
      <trkpt lat="34.598786" lon="112.512326">
        <ele>177.4</ele>
        <time>2026-08-20T13:56:58Z</time>
      </trkpt>
      <trkpt lat="34.598776" lon="112.512269">
        <ele>177.3</ele>
        <time>2026-08-20T13:57:01Z</time>
      </trkpt>
      <trkpt lat="34.598753" lon="112.512147">
        <ele>177.3</ele>
        <time>2026-08-20T13:57:04Z</time>
      </trkpt>
      <trkpt lat="34.598735" lon="112.512039">
        <ele>177.1</ele>
        <time>2026-08-20T13:57:07Z</time>
      </trkpt>
      <trkpt lat="34.598714" lon="112.511935">
        <ele>177.1</ele>
        <time>2026-08-20T13:57:10Z</time>
      </trkpt>
      <trkpt lat="34.5987" lon="112.511874">
        <ele>177.2</ele>
        <time>2026-08-20T13:57:13Z</time>
      </trkpt>
      <trkpt lat="34.598676" lon="112.511758">
        <ele>177</ele>
        <time>2026-08-20T13:57:16Z</time>
      </trkpt>
      <trkpt lat="34.598658" lon="112.511683">
        <ele>177.1</ele>
        <time>2026-08-20T13:57:19Z</time>
      </trkpt>
      <trkpt lat="34.598646" lon="112.511636">
        <ele>177.1</ele>
        <time>2026-08-20T13:57:22Z</time>
      </trkpt>
      <trkpt lat="34.598621" lon="112.511539">
        <ele>177</ele>
        <time>2026-08-20T13:57:25Z</time>
      </trkpt>
      <trkpt lat="34.598603" lon="112.511453">
        <ele>177</ele>
        <time>2026-08-20T13:57:28Z</time>
      </trkpt>
      <trkpt lat="34.598586" lon="112.51137">
        <ele>176.9</ele>
        <time>2026-08-20T13:57:31Z</time>
      </trkpt>
      <trkpt lat="34.598576" lon="112.511317">
        <ele>176.7</ele>
        <time>2026-08-20T13:57:34Z</time>
      </trkpt>
      <trkpt lat="34.598553" lon="112.511224">
        <ele>176.7</ele>
        <time>2026-08-20T13:57:37Z</time>
      </trkpt>
      <trkpt lat="34.59854" lon="112.511155">
        <ele>176.7</ele>
        <time>2026-08-20T13:57:40Z</time>
      </trkpt>
      <trkpt lat="34.598523" lon="112.511083">
        <ele>176.6</ele>
        <time>2026-08-20T13:57:43Z</time>
      </trkpt>
      <trkpt lat="34.598513" lon="112.511029">
        <ele>176.6</ele>
        <time>2026-08-20T13:57:46Z</time>
      </trkpt>
      <trkpt lat="34.598488" lon="112.51091">
        <ele>176.8</ele>
        <time>2026-08-20T13:57:49Z</time>
      </trkpt>
      <trkpt lat="34.598468" lon="112.510828">
        <ele>176.7</ele>
        <time>2026-08-20T13:57:52Z</time>
      </trkpt>
      <trkpt lat="34.598456" lon="112.510776">
        <ele>176.6</ele>
        <time>2026-08-20T13:57:55Z</time>
      </trkpt>
      <trkpt lat="34.598436" lon="112.510701">
        <ele>176.4</ele>
        <time>2026-08-20T13:57:58Z</time>
      </trkpt>
      <trkpt lat="34.598397" lon="112.510611">
        <ele>176.6</ele>
        <time>2026-08-20T13:58:01Z</time>
      </trkpt>
      <trkpt lat="34.598366" lon="112.510548">
        <ele>176.5</ele>
        <time>2026-08-20T13:58:04Z</time>
      </trkpt>
      <trkpt lat="34.598349" lon="112.510501">
        <ele>176.4</ele>
        <time>2026-08-20T13:58:07Z</time>
      </trkpt>
      <trkpt lat="34.598323" lon="112.510422">
        <ele>176.6</ele>
        <time>2026-08-20T13:58:10Z</time>
      </trkpt>
      <trkpt lat="34.598282" lon="112.510294">
        <ele>176.6</ele>
        <time>2026-08-20T13:58:13Z</time>
      </trkpt>
      <trkpt lat="34.598243" lon="112.510211">
        <ele>176.6</ele>
        <time>2026-08-20T13:58:16Z</time>
      </trkpt>
      <trkpt lat="34.598219" lon="112.51015">
        <ele>176.6</ele>
        <time>2026-08-20T13:58:19Z</time>
      </trkpt>
      <trkpt lat="34.598171" lon="112.510023">
        <ele>176.7</ele>
        <time>2026-08-20T13:58:22Z</time>
      </trkpt>
      <trkpt lat="34.598142" lon="112.50993">
        <ele>176.5</ele>
        <time>2026-08-20T13:58:25Z</time>
      </trkpt>
      <trkpt lat="34.598115" lon="112.509847">
        <ele>176.5</ele>
        <time>2026-08-20T13:58:28Z</time>
      </trkpt>
      <trkpt lat="34.59808" lon="112.509739">
        <ele>176.7</ele>
        <time>2026-08-20T13:58:32Z</time>
      </trkpt>
      <trkpt lat="34.598057" lon="112.509658">
        <ele>176.5</ele>
        <time>2026-08-20T13:58:35Z</time>
      </trkpt>
      <trkpt lat="34.598026" lon="112.509581">
        <ele>176.4</ele>
        <time>2026-08-20T13:58:38Z</time>
      </trkpt>
      <trkpt lat="34.598005" lon="112.509538">
        <ele>176.5</ele>
        <time>2026-08-20T13:58:41Z</time>
      </trkpt>
      <trkpt lat="34.597958" lon="112.509459">
        <ele>176.6</ele>
        <time>2026-08-20T13:58:44Z</time>
      </trkpt>
      <trkpt lat="34.597921" lon="112.509399">
        <ele>176.6</ele>
        <time>2026-08-20T13:58:47Z</time>
      </trkpt>
      <trkpt lat="34.597878" lon="112.509347">
        <ele>176.6</ele>
        <time>2026-08-20T13:58:50Z</time>
      </trkpt>
    </trkseg>
  </trk>
</gpx>