<?xml version="1.0" encoding="UTF-8"?>
<gpx xmlns="http://www.topografix.com/GPX/1/1" xmlns:gpxtpx="http://www.garmin.com/xmlschemas/TrackPointExtension/v1" xmlns:xsi="http://www.w3.org/2001/XMLSchema-instance" xsi:schemaLocation="http://www.topografix.com/GPX/1/1 http://www.topografix.com/GPX/1/1/gpx.xsd" version="1.1" creator="gpx.py -- https://github.com/tkrajina/gpxpy">
  <trk>
    <name>晚上跑步</name>
    <type>running</type>
    <trkseg>
      <trkpt lat="34.597565" lon="112.510138">
        <ele>183.5</ele>
        <time>2026-08-20T12:05:20Z</time>
      </trkpt>
      <trkpt lat="34.597632" lon="112.510285">
        <ele>183.6</ele>
        <time>2026-08-20T12:05:23Z</time>
      </trkpt>
      <trkpt lat="34.597642" lon="112.51039">
        <ele>183.5</ele>
        <time>2026-08-20T12:05:26Z</time>
      </trkpt>
      <trkpt lat="34.597673" lon="112.510447">
        <ele>183.6</ele>
        <time>2026-08-20T12:05:29Z</time>
      </trkpt>
      <trkpt lat="34.597709" lon="112.510545">
        <ele>183.6</ele>
        <time>2026-08-20T12:05:32Z</time>
      </trkpt>
      <trkpt lat="34.597745" lon="112.510634">
        <ele>183.5</ele>
        <time>2026-08-20T12:05:35Z</time>
      </trkpt>
      <trkpt lat="34.597776" lon="112.510721">
        <ele>183.5</ele>
        <time>2026-08-20T12:05:38Z</time>
      </trkpt>
      <trkpt lat="34.597793" lon="112.510773">
        <ele>183.6</ele>
        <time>2026-08-20T12:05:41Z</time>
      </trkpt>
      <trkpt lat="34.597816" lon="112.510861">
        <ele>183.6</ele>
        <time>2026-08-20T12:05:44Z</time>
      </trkpt>
      <trkpt lat="34.597833" lon="112.51092">
        <ele>183.6</ele>
        <time>2026-08-20T12:05:47Z</time>
      </trkpt>
      <trkpt lat="34.59784" lon="112.510958">
        <ele>183.6</ele>
        <time>2026-08-20T12:05:49Z</time>
      </trkpt>
      <trkpt lat="34.597861" lon="112.511018">
        <ele>183.5</ele>
        <time>2026-08-20T12:05:52Z</time>
      </trkpt>
      <trkpt lat="34.597893" lon="112.51109">
        <ele>183.5</ele>
        <time>2026-08-20T12:05:55Z</time>
      </trkpt>
      <trkpt lat="34.597921" lon="112.511171">
        <ele>183.5</ele>
        <time>2026-08-20T12:05:58Z</time>
      </trkpt>
      <trkpt lat="34.597953" lon="112.511256">
        <ele>183.5</ele>
        <time>2026-08-20T12:06:01Z</time>
      </trkpt>
      <trkpt lat="34.597976" lon="112.511345">
        <ele>183.5</ele>
        <time>2026-08-20T12:06:04Z</time>
      </trkpt>
      <trkpt lat="34.59799" lon="112.511442">
        <ele>183.5</ele>
        <time>2026-08-20T12:06:07Z</time>
      </trkpt>
      <trkpt lat="34.597998" lon="112.511537">
        <ele>183.5</ele>
        <time>2026-08-20T12:06:10Z</time>
      </trkpt>
      <trkpt lat="34.598003" lon="112.511594">
        <ele>183.6</ele>
        <time>2026-08-20T12:06:13Z</time>
      </trkpt>
      <trkpt lat="34.598009" lon="112.511707">
        <ele>183.6</ele>
        <time>2026-08-20T12:06:16Z</time>
      </trkpt>
      <trkpt lat="34.597999" lon="112.511798">
        <ele>183.7</ele>
        <time>2026-08-20T12:06:19Z</time>
      </trkpt>
      <trkpt lat="34.597984" lon="112.511888">
        <ele>183.7</ele>
        <time>2026-08-20T12:06:22Z</time>
      </trkpt>
      <trkpt lat="34.597974" lon="112.511939">
        <ele>183.6</ele>
        <time>2026-08-20T12:06:25Z</time>
      </trkpt>
      <trkpt lat="34.597957" lon="112.512042">
        <ele>183.6</ele>
        <time>2026-08-20T12:06:28Z</time>
      </trkpt>
      <trkpt lat="34.597935" lon="112.512098">
        <ele>183.5</ele>
        <time>2026-08-20T12:06:30Z</time>
      </trkpt>
      <trkpt lat="34.597905" lon="112.512148">
        <ele>183.5</ele>
        <time>2026-08-20T12:06:33Z</time>
      </trkpt>
      <trkpt lat="34.59788" lon="112.512189">
        <ele>183.3</ele>
        <time>2026-08-20T12:06:36Z</time>
      </trkpt>
      <trkpt lat="34.597831" lon="112.512305">
        <ele>183.1</ele>
        <time>2026-08-20T12:06:39Z</time>
      </trkpt>
      <trkpt lat="34.597788" lon="112.512405">
        <ele>183</ele>
        <time>2026-08-20T12:06:42Z</time>
      </trkpt>
      <trkpt lat="34.597699" lon="112.51283">
        <ele>182.4</ele>
        <time>2026-08-20T12:06:49Z</time>
      </trkpt>
      <trkpt lat="34.597634" lon="112.513005">
        <ele>182.3</ele>
        <time>2026-08-20T12:06:52Z</time>
      </trkpt>
      <trkpt lat="34.597567" lon="112.513092">
        <ele>182.2</ele>
        <time>2026-08-20T12:06:55Z</time>
      </trkpt>
      <trkpt lat="34.597525" lon="112.513129">
        <ele>182.1</ele>
        <time>2026-08-20T12:06:58Z</time>
      </trkpt>
      <trkpt lat="34.597469" lon="112.513213">
        <ele>181.9</ele>
        <time>2026-08-20T12:07:01Z</time>
      </trkpt>
      <trkpt lat="34.597465" lon="112.5133">
        <ele>181.9</ele>
        <time>2026-08-20T12:07:04Z</time>
      </trkpt>
      <trkpt lat="34.597486" lon="112.513387">
        <ele>181.9</ele>
        <time>2026-08-20T12:07:07Z</time>
      </trkpt>
      <trkpt lat="34.597497" lon="112.513443">
        <ele>181.7</ele>
        <time>2026-08-20T12:07:10Z</time>
      </trkpt>
      <trkpt lat="34.597716" lon="112.513842">
        <ele>181.5</ele>
        <time>2026-08-20T12:07:26Z</time>
      </trkpt>
      <trkpt lat="34.597747" lon="112.513908">
        <ele>181.6</ele>
        <time>2026-08-20T12:07:29Z</time>
      </trkpt>
      <trkpt lat="34.59776" lon="112.513953">
        <ele>181.7</ele>
        <time>2026-08-20T12:07:32Z</time>
      </trkpt>
      <trkpt lat="34.597779" lon="112.514045">
        <ele>181.7</ele>
        <time>2026-08-20T12:07:35Z</time>
      </trkpt>
      <trkpt lat="34.597794" lon="112.514092">
        <ele>181.7</ele>
        <time>2026-08-20T12:07:37Z</time>
      </trkpt>
      <trkpt lat="34.597842" lon="112.514191">
        <ele>182</ele>
        <time>2026-08-20T12:07:41Z</time>
      </trkpt>
      <trkpt lat="34.597901" lon="112.514276">
        <ele>182.3</ele>
        <time>2026-08-20T12:07:44Z</time>
      </trkpt>
      <trkpt lat="34.597965" lon="112.514367">
        <ele>182.4</ele>
        <time>2026-08-20T12:07:47Z</time>
      </trkpt>
      <trkpt lat="34.598028" lon="112.514452">
        <ele>182.6</ele>
        <time>2026-08-20T12:07:50Z</time>
      </trkpt>
      <trkpt lat="34.598088" lon="112.51453">
        <ele>182.9</ele>
        <time>2026-08-20T12:07:53Z</time>
      </trkpt>
      <trkpt lat="34.598139" lon="112.514608">
        <ele>183.1</ele>
        <time>2026-08-20T12:07:56Z</time>
      </trkpt>
      <trkpt lat="34.598184" lon="112.514689">
        <ele>183.2</ele>
        <time>2026-08-20T12:07:59Z</time>
      </trkpt>
      <trkpt lat="34.598228" lon="112.514774">
        <ele>183.4</ele>
        <time>2026-08-20T12:08:02Z</time>
      </trkpt>
      <trkpt lat="34.598253" lon="112.514835">
        <ele>183.5</ele>
        <time>2026-08-20T12:08:05Z</time>
      </trkpt>
      <trkpt lat="34.598281" lon="112.514964">
        <ele>183.7</ele>
        <time>2026-08-20T12:08:08Z</time>
      </trkpt>
      <trkpt lat="34.598292" lon="112.515061">
        <ele>183.8</ele>
        <time>2026-08-20T12:08:11Z</time>
      </trkpt>
      <trkpt lat="34.59829" lon="112.515152">
        <ele>183.9</ele>
        <time>2026-08-20T12:08:14Z</time>
      </trkpt>
      <trkpt lat="34.598285" lon="112.515216">
        <ele>184.1</ele>
        <time>2026-08-20T12:08:17Z</time>
      </trkpt>
      <trkpt lat="34.598275" lon="112.515353">
        <ele>184.3</ele>
        <time>2026-08-20T12:08:20Z</time>
      </trkpt>
      <trkpt lat="34.598262" lon="112.515453">
        <ele>184.3</ele>
        <time>2026-08-20T12:08:23Z</time>
      </trkpt>
      <trkpt lat="34.598248" lon="112.515543">
        <ele>184.3</ele>
        <time>2026-08-20T12:08:26Z</time>
      </trkpt>
      <trkpt lat="34.598237" lon="112.515599">
        <ele>184.4</ele>
        <time>2026-08-20T12:08:29Z</time>
      </trkpt>
      <trkpt lat="34.59822" lon="112.515708">
        <ele>184.3</ele>
        <time>2026-08-20T12:08:32Z</time>
      </trkpt>
      <trkpt lat="34.598206" lon="112.515788">
        <ele>184.3</ele>
        <time>2026-08-20T12:08:35Z</time>
      </trkpt>
      <trkpt lat="34.598203" lon="112.515836">
        <ele>184.2</ele>
        <time>2026-08-20T12:08:38Z</time>
      </trkpt>
      <trkpt lat="34.598207" lon="112.515908">
        <ele>184</ele>
        <time>2026-08-20T12:08:41Z</time>
      </trkpt>
      <trkpt lat="34.598207" lon="112.516008">
        <ele>183.8</ele>
        <time>2026-08-20T12:08:44Z</time>
      </trkpt>
      <trkpt lat="34.598203" lon="112.516089">
        <ele>183.6</ele>
        <time>2026-08-20T12:08:47Z</time>
      </trkpt>
      <trkpt lat="34.598198" lon="112.51615">
        <ele>183.5</ele>
        <time>2026-08-20T12:08:50Z</time>
      </trkpt>
      <trkpt lat="34.598193" lon="112.516244">
        <ele>183.5</ele>
        <time>2026-08-20T12:08:53Z</time>
      </trkpt>
      <trkpt lat="34.598188" lon="112.51634">
        <ele>183.5</ele>
        <time>2026-08-20T12:08:55Z</time>
      </trkpt>
      <trkpt lat="34.598194" lon="112.516443">
        <ele>183.4</ele>
        <time>2026-08-20T12:08:58Z</time>
      </trkpt>
      <trkpt lat="34.5982" lon="112.516543">
        <ele>183.3</ele>
        <time>2026-08-20T12:09:01Z</time>
      </trkpt>
      <trkpt lat="34.598211" lon="112.516634">
        <ele>183.1</ele>
        <time>2026-08-20T12:09:04Z</time>
      </trkpt>
      <trkpt lat="34.598219" lon="112.516721">
        <ele>182.8</ele>
        <time>2026-08-20T12:09:07Z</time>
      </trkpt>
      <trkpt lat="34.598223" lon="112.516809">
        <ele>182.6</ele>
        <time>2026-08-20T12:09:10Z</time>
      </trkpt>
      <trkpt lat="34.59822" lon="112.516885">
        <ele>182.6</ele>
        <time>2026-08-20T12:09:13Z</time>
      </trkpt>
      <trkpt lat="34.59821" lon="112.516956">
        <ele>182.5</ele>
        <time>2026-08-20T12:09:16Z</time>
      </trkpt>
      <trkpt lat="34.598212" lon="112.517039">
        <ele>182.5</ele>
        <time>2026-08-20T12:09:19Z</time>
      </trkpt>
      <trkpt lat="34.598217" lon="112.517131">
        <ele>182.5</ele>
        <time>2026-08-20T12:09:22Z</time>
      </trkpt>
      <trkpt lat="34.598224" lon="112.517233">
        <ele>182.3</ele>
        <time>2026-08-20T12:09:25Z</time>
      </trkpt>
      <trkpt lat="34.598233" lon="112.517331">
        <ele>182.1</ele>
        <time>2026-08-20T12:09:28Z</time>
      </trkpt>
      <trkpt lat="34.598249" lon="112.517436">
        <ele>182</ele>
        <time>2026-08-20T12:09:31Z</time>
      </trkpt>
      <trkpt lat="34.598256" lon="112.517503">
        <ele>181.8</ele>
        <time>2026-08-20T12:09:34Z</time>
      </trkpt>
      <trkpt lat="34.598265" lon="112.517599">
        <ele>181.6</ele>
        <time>2026-08-20T12:09:46Z</time>
      </trkpt>
      <trkpt lat="34.598362" lon="112.518285">
        <ele>181</ele>
        <time>2026-08-20T12:10:04Z</time>
      </trkpt>
      <trkpt lat="34.598387" lon="112.518479">
        <ele>181.1</ele>
        <time>2026-08-20T12:10:07Z</time>
      </trkpt>
      <trkpt lat="34.598389" lon="112.518676">
        <ele>181.2</ele>
        <time>2026-08-20T12:10:11Z</time>
      </trkpt>
      <trkpt lat="34.598393" lon="112.518785">
        <ele>181.3</ele>
        <time>2026-08-20T12:10:14Z</time>
      </trkpt>
      <trkpt lat="34.5984" lon="112.518877">
        <ele>181.3</ele>
        <time>2026-08-20T12:10:17Z</time>
      </trkpt>
      <trkpt lat="34.598406" lon="112.518931">
        <ele>181.3</ele>
        <time>2026-08-20T12:10:20Z</time>
      </trkpt>
      <trkpt lat="34.598405" lon="112.519033">
        <ele>181.3</ele>
        <time>2026-08-20T12:10:23Z</time>
      </trkpt>
      <trkpt lat="34.598403" lon="112.519105">
        <ele>181.3</ele>
        <time>2026-08-20T12:10:26Z</time>
      </trkpt>
      <trkpt lat="34.598399" lon="112.519182">
        <ele>181.4</ele>
        <time>2026-08-20T12:10:29Z</time>
      </trkpt>
      <trkpt lat="34.598396" lon="112.519265">
        <ele>181.4</ele>
        <time>2026-08-20T12:10:32Z</time>
      </trkpt>
      <trkpt lat="34.598387" lon="112.519355">
        <ele>181.4</ele>
        <time>2026-08-20T12:10:35Z</time>
      </trkpt>
      <trkpt lat="34.598366" lon="112.519442">
        <ele>181.6</ele>
        <time>2026-08-20T12:10:38Z</time>
      </trkpt>
      <trkpt lat="34.598345" lon="112.5195">
        <ele>181.7</ele>
        <time>2026-08-20T12:10:41Z</time>
      </trkpt>
      <trkpt lat="34.598304" lon="112.519632">
        <ele>181.7</ele>
        <time>2026-08-20T12:10:44Z</time>
      </trkpt>
      <trkpt lat="34.598271" lon="112.519725">
        <ele>181.7</ele>
        <time>2026-08-20T12:10:47Z</time>
      </trkpt>
      <trkpt lat="34.598242" lon="112.519808">
        <ele>181.8</ele>
        <time>2026-08-20T12:10:50Z</time>
      </trkpt>
      <trkpt lat="34.598227" lon="112.519856">
        <ele>181.8</ele>
        <time>2026-08-20T12:10:53Z</time>
      </trkpt>
      <trkpt lat="34.59823" lon="112.519952">
        <ele>181.9</ele>
        <time>2026-08-20T12:10:56Z</time>
      </trkpt>
      <trkpt lat="34.598273" lon="112.52001">
        <ele>181.9</ele>
        <time>2026-08-20T12:10:59Z</time>
      </trkpt>
      <trkpt lat="34.598312" lon="112.520059">
        <ele>182.1</ele>
        <time>2026-08-20T12:11:02Z</time>
      </trkpt>
      <trkpt lat="34.598341" lon="112.520089">
        <ele>182.1</ele>
        <time>2026-08-20T12:11:05Z</time>
      </trkpt>
      <trkpt lat="34.598371" lon="112.520149">
        <ele>182.2</ele>
        <time>2026-08-20T12:11:08Z</time>
      </trkpt>
      <trkpt lat="34.598379" lon="112.520192">
        <ele>182.1</ele>
        <time>2026-08-20T12:11:11Z</time>
      </trkpt>
      <trkpt lat="34.598375" lon="112.520222">
        <ele>182.2</ele>
        <time>2026-08-20T12:11:14Z</time>
      </trkpt>
      <trkpt lat="34.598367" lon="112.520234">
        <ele>182.1</ele>
        <time>2026-08-20T12:11:17Z</time>
      </trkpt>
      <trkpt lat="34.59835" lon="112.520243">
        <ele>182.2</ele>
        <time>2026-08-20T12:11:20Z</time>
      </trkpt>
      <trkpt lat="34.598337" lon="112.520238">
        <ele>182.1</ele>
        <time>2026-08-20T12:11:23Z</time>
      </trkpt>
      <trkpt lat="34.59833" lon="112.52023">
        <ele>182.1</ele>
        <time>2026-08-20T12:11:26Z</time>
      </trkpt>
      <trkpt lat="34.598325" lon="112.520212">
        <ele>182.1</ele>
        <time>2026-08-20T12:11:29Z</time>
      </trkpt>
      <trkpt lat="34.598326" lon="112.520194">
        <ele>182.1</ele>
        <time>2026-08-20T12:11:32Z</time>
      </trkpt>
      <trkpt lat="34.598335" lon="112.52019">
        <ele>182.1</ele>
        <time>2026-08-20T12:11:35Z</time>
      </trkpt>
      <trkpt lat="34.598339" lon="112.52019">
        <ele>182.1</ele>
        <time>2026-08-20T12:11:38Z</time>
      </trkpt>
      <trkpt lat="34.598342" lon="112.520189">
        <ele>182.1</ele>
        <time>2026-08-20T12:11:41Z</time>
      </trkpt>
      <trkpt lat="34.598341" lon="112.520188">
        <ele>182</ele>
        <time>2026-08-20T12:11:44Z</time>
      </trkpt>
      <trkpt lat="34.598339" lon="112.520187">
        <ele>182.1</ele>
        <time>2026-08-20T12:11:47Z</time>
      </trkpt>
      <trkpt lat="34.598337" lon="112.52019">
        <ele>181.8</ele>
        <time>2026-08-20T12:11:50Z</time>
      </trkpt>
      <trkpt lat="34.598332" lon="112.520191">
        <ele>181.8</ele>
        <time>2026-08-20T12:11:53Z</time>
      </trkpt>
      <trkpt lat="34.598328" lon="112.520189">
        <ele>181.9</ele>
        <time>2026-08-20T12:11:56Z</time>
      </trkpt>
      <trkpt lat="34.598326" lon="112.520188">
        <ele>181.9</ele>
        <time>2026-08-20T12:11:58Z</time>
      </trkpt>
      <trkpt lat="34.598323" lon="112.520186">
        <ele>182</ele>
        <time>2026-08-20T12:12:01Z</time>
      </trkpt>
      <trkpt lat="34.59832" lon="112.520181">
        <ele>182</ele>
        <time>2026-08-20T12:12:04Z</time>
      </trkpt>
      <trkpt lat="34.598318" lon="112.520178">
        <ele>182</ele>
        <time>2026-08-20T12:12:07Z</time>
      </trkpt>
      <trkpt lat="34.598317" lon="112.520178">
        <ele>182</ele>
        <time>2026-08-20T12:12:10Z</time>
      </trkpt>
      <trkpt lat="34.598319" lon="112.520184">
        <ele>182</ele>
        <time>2026-08-20T12:12:13Z</time>
      </trkpt>
      <trkpt lat="34.598324" lon="112.520206">
        <ele>181.9</ele>
        <time>2026-08-20T12:12:16Z</time>
      </trkpt>
      <trkpt lat="34.598333" lon="112.520261">
        <ele>181.8</ele>
        <time>2026-08-20T12:12:19Z</time>
      </trkpt>
      <trkpt lat="34.598336" lon="112.520299">
        <ele>181.8</ele>
        <time>2026-08-20T12:12:22Z</time>
      </trkpt>
      <trkpt lat="34.598335" lon="112.520387">
        <ele>181.7</ele>
        <time>2026-08-20T12:12:25Z</time>
      </trkpt>
      <trkpt lat="34.598333" lon="112.520453">
        <ele>181.7</ele>
        <time>2026-08-20T12:12:28Z</time>
      </trkpt>
      <trkpt lat="34.598329" lon="112.520522">
        <ele>181.9</ele>
        <time>2026-08-20T12:12:31Z</time>
      </trkpt>
      <trkpt lat="34.598319" lon="112.520564">
        <ele>181.8</ele>
        <time>2026-08-20T12:12:34Z</time>
      </trkpt>
      <trkpt lat="34.5983" lon="112.52066">
        <ele>181.9</ele>
        <time>2026-08-20T12:12:37Z</time>
      </trkpt>
      <trkpt lat="34.598298" lon="112.520725">
        <ele>181.7</ele>
        <time>2026-08-20T12:12:39Z</time>
      </trkpt>
      <trkpt lat="34.598298" lon="112.520725">
        <ele>181.7</ele>
        <time>2026-08-20T12:12:39Z</time>
      </trkpt>
      <trkpt lat="34.598298" lon="112.520725">
        <ele>181.7</ele>
        <time>2026-08-20T12:12:39Z</time>
      </trkpt>
      <trkpt lat="34.598298" lon="112.520725">
        <ele>181.7</ele>
        <time>2026-08-20T12:12:39Z</time>
      </trkpt>
      <trkpt lat="34.598234" lon="112.521629">
        <ele>180.8</ele>
        <time>2026-08-20T12:13:03Z</time>
      </trkpt>
      <trkpt lat="34.598278" lon="112.521883">
        <ele>180.7</ele>
        <time>2026-08-20T12:13:09Z</time>
      </trkpt>
      <trkpt lat="34.598294" lon="112.521983">
        <ele>180.5</ele>
        <time>2026-08-20T12:13:12Z</time>
      </trkpt>
      <trkpt lat="34.598299" lon="112.52206">
        <ele>180.5</ele>
        <time>2026-08-20T12:13:15Z</time>
      </trkpt>
      <trkpt lat="34.598304" lon="112.52212">
        <ele>180.4</ele>
        <time>2026-08-20T12:13:18Z</time>
      </trkpt>
      <trkpt lat="34.598306" lon="112.52217">
        <ele>180.4</ele>
        <time>2026-08-20T12:13:21Z</time>
      </trkpt>
      <trkpt lat="34.598305" lon="112.522233">
        <ele>180.5</ele>
        <time>2026-08-20T12:13:24Z</time>
      </trkpt>
      <trkpt lat="34.598302" lon="112.522343">
        <ele>180.4</ele>
        <time>2026-08-20T12:13:28Z</time>
      </trkpt>
      <trkpt lat="34.598302" lon="112.522446">
        <ele>180.2</ele>
        <time>2026-08-20T12:13:31Z</time>
      </trkpt>
      <trkpt lat="34.598309" lon="112.522561">
        <ele>180.2</ele>
        <time>2026-08-20T12:13:35Z</time>
      </trkpt>
      <trkpt lat="34.598311" lon="112.522662">
        <ele>180.2</ele>
        <time>2026-08-20T12:13:38Z</time>
      </trkpt>
      <trkpt lat="34.598311" lon="112.52272">
        <ele>180.1</ele>
        <time>2026-08-20T12:13:41Z</time>
      </trkpt>
      <trkpt lat="34.598301" lon="112.522824">
        <ele>180</ele>
        <time>2026-08-20T12:13:44Z</time>
      </trkpt>
      <trkpt lat="34.598293" lon="112.522905">
        <ele>180</ele>
        <time>2026-08-20T12:13:47Z</time>
      </trkpt>
      <trkpt lat="34.598289" lon="112.522987">
        <ele>180</ele>
        <time>2026-08-20T12:13:50Z</time>
      </trkpt>
      <trkpt lat="34.598289" lon="112.523038">
        <ele>180</ele>
        <time>2026-08-20T12:13:53Z</time>
      </trkpt>
      <trkpt lat="34.59829" lon="112.523144">
        <ele>179.9</ele>
        <time>2026-08-20T12:13:56Z</time>
      </trkpt>
      <trkpt lat="34.59829" lon="112.523224">
        <ele>179.7</ele>
        <time>2026-08-20T12:13:59Z</time>
      </trkpt>
      <trkpt lat="34.598287" lon="112.52329">
        <ele>179.6</ele>
        <time>2026-08-20T12:14:02Z</time>
      </trkpt>
      <trkpt lat="34.598282" lon="112.523437">
        <ele>179.5</ele>
        <time>2026-08-20T12:14:05Z</time>
      </trkpt>
      <trkpt lat="34.598274" lon="112.523551">
        <ele>179.4</ele>
        <time>2026-08-20T12:14:08Z</time>
      </trkpt>
      <trkpt lat="34.598268" lon="112.523664">
        <ele>179.4</ele>
        <time>2026-08-20T12:14:11Z</time>
      </trkpt>
      <trkpt lat="34.598265" lon="112.52374">
        <ele>179.4</ele>
        <time>2026-08-20T12:14:14Z</time>
      </trkpt>
      <trkpt lat="34.598268" lon="112.523873">
        <ele>179.4</ele>
        <time>2026-08-20T12:14:17Z</time>
      </trkpt>
      <trkpt lat="34.598266" lon="112.523979">
        <ele>179.2</ele>
        <time>2026-08-20T12:14:20Z</time>
      </trkpt>
      <trkpt lat="34.598254" lon="112.524096">
        <ele>179.2</ele>
        <time>2026-08-20T12:14:23Z</time>
      </trkpt>
      <trkpt lat="34.598249" lon="112.524176">
        <ele>179.1</ele>
        <time>2026-08-20T12:14:26Z</time>
      </trkpt>
      <trkpt lat="34.598254" lon="112.524469">
        <ele>178.9</ele>
        <time>2026-08-20T12:14:32Z</time>
      </trkpt>
      <trkpt lat="34.598264" lon="112.524607">
        <ele>179</ele>
        <time>2026-08-20T12:14:35Z</time>
      </trkpt>
      <trkpt lat="34.598275" lon="112.524685">
        <ele>179</ele>
        <time>2026-08-20T12:14:38Z</time>
      </trkpt>
      <trkpt lat="34.598294" lon="112.524819">
        <ele>179</ele>
        <time>2026-08-20T12:14:41Z</time>
      </trkpt>
      <trkpt lat="34.5983" lon="112.524882">
        <ele>179</ele>
        <time>2026-08-20T12:14:43Z</time>
      </trkpt>
      <trkpt lat="34.598305" lon="112.524978">
        <ele>178.9</ele>
        <time>2026-08-20T12:14:46Z</time>
      </trkpt>
      <trkpt lat="34.598309" lon="112.525071">
        <ele>178.9</ele>
        <time>2026-08-20T12:14:49Z</time>
      </trkpt>
      <trkpt lat="34.598311" lon="112.525166">
        <ele>178.7</ele>
        <time>2026-08-20T12:14:52Z</time>
      </trkpt>
      <trkpt lat="34.598314" lon="112.525273">
        <ele>178.7</ele>
        <time>2026-08-20T12:14:55Z</time>
      </trkpt>
      <trkpt lat="34.598321" lon="112.52535">
        <ele>178.8</ele>
        <time>2026-08-20T12:14:58Z</time>
      </trkpt>
      <trkpt lat="34.598338" lon="112.525511">
        <ele>178.6</ele>
        <time>2026-08-20T12:15:01Z</time>
      </trkpt>
      <trkpt lat="34.59834" lon="112.525625">
        <ele>178.7</ele>
        <time>2026-08-20T12:15:04Z</time>
      </trkpt>
      <trkpt lat="34.598341" lon="112.525734">
        <ele>178.6</ele>
        <time>2026-08-20T12:15:07Z</time>
      </trkpt>
      <trkpt lat="34.598342" lon="112.525802">
        <ele>178.5</ele>
        <time>2026-08-20T12:15:10Z</time>
      </trkpt>
      <trkpt lat="34.598326" lon="112.525946">
        <ele>178.4</ele>
        <time>2026-08-20T12:15:13Z</time>
      </trkpt>
      <trkpt lat="34.598311" lon="112.526068">
        <ele>178.4</ele>
        <time>2026-08-20T12:15:16Z</time>
      </trkpt>
      <trkpt lat="34.598301" lon="112.526192">
        <ele>178.3</ele>
        <time>2026-08-20T12:15:19Z</time>
      </trkpt>
      <trkpt lat="34.598298" lon="112.52631">
        <ele>178.2</ele>
        <time>2026-08-20T12:15:22Z</time>
      </trkpt>
      <trkpt lat="34.598296" lon="112.526417">
        <ele>178</ele>
        <time>2026-08-20T12:15:25Z</time>
      </trkpt>
      <trkpt lat="34.59829" lon="112.526518">
        <ele>178.3</ele>
        <time>2026-08-20T12:15:28Z</time>
      </trkpt>
      <trkpt lat="34.598292" lon="112.526624">
        <ele>178.2</ele>
        <time>2026-08-20T12:15:31Z</time>
      </trkpt>
      <trkpt lat="34.598296" lon="112.526727">
        <ele>178.1</ele>
        <time>2026-08-20T12:15:34Z</time>
      </trkpt>
      <trkpt lat="34.598302" lon="112.526831">
        <ele>178.1</ele>
        <time>2026-08-20T12:15:37Z</time>
      </trkpt>
      <trkpt lat="34.598309" lon="112.526938">
        <ele>178</ele>
        <time>2026-08-20T12:15:40Z</time>
      </trkpt>
      <trkpt lat="34.598311" lon="112.527012">
        <ele>178.2</ele>
        <time>2026-08-20T12:15:43Z</time>
      </trkpt>
      <trkpt lat="34.598311" lon="112.527169">
        <ele>177.9</ele>
        <time>2026-08-20T12:15:46Z</time>
      </trkpt>
      <trkpt lat="34.598303" lon="112.527286">
        <ele>177.7</ele>
        <time>2026-08-20T12:15:49Z</time>
      </trkpt>
      <trkpt lat="34.598298" lon="112.527402">
        <ele>177.8</ele>
        <time>2026-08-20T12:15:52Z</time>
      </trkpt>
      <trkpt lat="34.598293" lon="112.52748">
        <ele>177.8</ele>
        <time>2026-08-20T12:15:55Z</time>
      </trkpt>
      <trkpt lat="34.598285" lon="112.527636">
        <ele>177.6</ele>
        <time>2026-08-20T12:15:58Z</time>
      </trkpt>
      <trkpt lat="34.598274" lon="112.5278">
        <ele>177.5</ele>
        <time>2026-08-20T12:16:02Z</time>
      </trkpt>
      <trkpt lat="34.59827" lon="112.527886">
        <ele>177.6</ele>
        <time>2026-08-20T12:16:05Z</time>
      </trkpt>
      <trkpt lat="34.598277" lon="112.528052">
        <ele>177.6</ele>
        <time>2026-08-20T12:16:08Z</time>
      </trkpt>
      <trkpt lat="34.598282" lon="112.52817">
        <ele>177.5</ele>
        <time>2026-08-20T12:16:11Z</time>
      </trkpt>
      <trkpt lat="34.598291" lon="112.52828">
        <ele>177.4</ele>
        <time>2026-08-20T12:16:14Z</time>
      </trkpt>
      <trkpt lat="34.598298" lon="112.528348">
        <ele>177.2</ele>
        <time>2026-08-20T12:16:17Z</time>
      </trkpt>
      <trkpt lat="34.598313" lon="112.528474">
        <ele>177.2</ele>
        <time>2026-08-20T12:16:20Z</time>
      </trkpt>
      <trkpt lat="34.598321" lon="112.528575">
        <ele>177.2</ele>
        <time>2026-08-20T12:16:23Z</time>
      </trkpt>
      <trkpt lat="34.598326" lon="112.52868">
        <ele>177.2</ele>
        <time>2026-08-20T12:16:26Z</time>
      </trkpt>
      <trkpt lat="34.598331" lon="112.52875">
        <ele>177.3</ele>
        <time>2026-08-20T12:16:29Z</time>
      </trkpt>
      <trkpt lat="34.598337" lon="112.528891">
        <ele>177.2</ele>
        <time>2026-08-20T12:16:32Z</time>
      </trkpt>
      <trkpt lat="34.598335" lon="112.528995">
        <ele>177.3</ele>
        <time>2026-08-20T12:16:35Z</time>
      </trkpt>
      <trkpt lat="34.598325" lon="112.529092">
        <ele>177.2</ele>
        <time>2026-08-20T12:16:38Z</time>
      </trkpt>
      <trkpt lat="34.598316" lon="112.529154">
        <ele>177.2</ele>
        <time>2026-08-20T12:16:41Z</time>
      </trkpt>
      <trkpt lat="34.598304" lon="112.529271">
        <ele>177.3</ele>
        <time>2026-08-20T12:16:44Z</time>
      </trkpt>
      <trkpt lat="34.598303" lon="112.529358">
        <ele>177.1</ele>
        <time>2026-08-20T12:16:47Z</time>
      </trkpt>
      <trkpt lat="34.598297" lon="112.529416">
        <ele>177</ele>
        <time>2026-08-20T12:16:50Z</time>
      </trkpt>
      <trkpt lat="34.598291" lon="112.529501">
        <ele>177.2</ele>
        <time>2026-08-20T12:16:53Z</time>
      </trkpt>
      <trkpt lat="34.598285" lon="112.529621">
        <ele>177.1</ele>
        <time>2026-08-20T12:16:56Z</time>
      </trkpt>
      <trkpt lat="34.598281" lon="112.529713">
        <ele>177</ele>
        <time>2026-08-20T12:16:59Z</time>
      </trkpt>
      <trkpt lat="34.598277" lon="112.529775">
        <ele>176.9</ele>
        <time>2026-08-20T12:17:02Z</time>
      </trkpt>
      <trkpt lat="34.598272" lon="112.529898">
        <ele>176.9</ele>
        <time>2026-08-20T12:17:05Z</time>
      </trkpt>
      <trkpt lat="34.598272" lon="112.529991">
        <ele>176.8</ele>
        <time>2026-08-20T12:17:08Z</time>
      </trkpt>
      <trkpt lat="34.598267" lon="112.530079">
        <ele>176.8</ele>
        <time>2026-08-20T12:17:11Z</time>
      </trkpt>
      <trkpt lat="34.598266" lon="112.530135">
        <ele>176.8</ele>
        <time>2026-08-20T12:17:14Z</time>
      </trkpt>
      <trkpt lat="34.598264" lon="112.530254">
        <ele>176.9</ele>
        <time>2026-08-20T12:17:17Z</time>
      </trkpt>
      <trkpt lat="34.598261" lon="112.53036">
        <ele>176.9</ele>
        <time>2026-08-20T12:17:20Z</time>
      </trkpt>
      <trkpt lat="34.598263" lon="112.530461">
        <ele>176.9</ele>
        <time>2026-08-20T12:17:23Z</time>
      </trkpt>
      <trkpt lat="34.598267" lon="112.530522">
        <ele>176.9</ele>
        <time>2026-08-20T12:17:26Z</time>
      </trkpt>
      <trkpt lat="34.598271" lon="112.530624">
        <ele>176.9</ele>
        <time>2026-08-20T12:17:28Z</time>
      </trkpt>
      <trkpt lat="34.598271" lon="112.530723">
        <ele>177</ele>
        <time>2026-08-20T12:17:31Z</time>
      </trkpt>
      <trkpt lat="34.598271" lon="112.530831">
        <ele>176.8</ele>
        <time>2026-08-20T12:17:34Z</time>
      </trkpt>
      <trkpt lat="34.598263" lon="112.530947">
        <ele>176.7</ele>
        <time>2026-08-20T12:17:37Z</time>
      </trkpt>
      <trkpt lat="34.598255" lon="112.531065">
        <ele>176.8</ele>
        <time>2026-08-20T12:17:40Z</time>
      </trkpt>
      <trkpt lat="34.598249" lon="112.531187">
        <ele>176.8</ele>
        <time>2026-08-20T12:17:43Z</time>
      </trkpt>
      <trkpt lat="34.598248" lon="112.53127">
        <ele>176.7</ele>
        <time>2026-08-20T12:17:46Z</time>
      </trkpt>
      <trkpt lat="34.598245" lon="112.53153">
        <ele>176.7</ele>
        <time>2026-08-20T12:17:52Z</time>
      </trkpt>
      <trkpt lat="34.598238" lon="112.531596">
        <ele>176.7</ele>
        <time>2026-08-20T12:17:55Z</time>
      </trkpt>
      <trkpt lat="34.598244" lon="112.531651">
        <ele>176.8</ele>
        <time>2026-08-20T12:17:58Z</time>
      </trkpt>
      <trkpt lat="34.598254" lon="112.531702">
        <ele>176.7</ele>
        <time>2026-08-20T12:18:01Z</time>
      </trkpt>
      <trkpt lat="34.598271" lon="112.531764">
        <ele>176.7</ele>
        <time>2026-08-20T12:18:04Z</time>
      </trkpt>
      <trkpt lat="34.598284" lon="112.531817">
        <ele>176.6</ele>
        <time>2026-08-20T12:18:07Z</time>
      </trkpt>
      <trkpt lat="34.59829" lon="112.53186">
        <ele>176.6</ele>
        <time>2026-08-20T12:18:10Z</time>
      </trkpt>
      <trkpt lat="34.598303" lon="112.531908">
        <ele>176.7</ele>
        <time>2026-08-20T12:18:13Z</time>
      </trkpt>
      <trkpt lat="34.598305" lon="112.531953">
        <ele>176.7</ele>
        <time>2026-08-20T12:18:16Z</time>
      </trkpt>
      <trkpt lat="34.598305" lon="112.53198">
        <ele>176.7</ele>
        <time>2026-08-20T12:18:19Z</time>
      </trkpt>
      <trkpt lat="34.598302" lon="112.532038">
        <ele>176.6</ele>
        <time>2026-08-20T12:18:22Z</time>
      </trkpt>
      <trkpt lat="34.598292" lon="112.53208">
        <ele>176.6</ele>
        <time>2026-08-20T12:18:25Z</time>
      </trkpt>
      <trkpt lat="34.598277" lon="112.532151">
        <ele>176.4</ele>
        <time>2026-08-20T12:18:28Z</time>
      </trkpt>
      <trkpt lat="34.59827" lon="112.532219">
        <ele>176.4</ele>
        <time>2026-08-20T12:18:31Z</time>
      </trkpt>
      <trkpt lat="34.598265" lon="112.532384">
        <ele>176.4</ele>
        <time>2026-08-20T12:18:34Z</time>
      </trkpt>
      <trkpt lat="34.598264" lon="112.532511">
        <ele>176.5</ele>
        <time>2026-08-20T12:18:37Z</time>
      </trkpt>
      <trkpt lat="34.598267" lon="112.532633">
        <ele>176.5</ele>
        <time>2026-08-20T12:18:40Z</time>
      </trkpt>
      <trkpt lat="34.598275" lon="112.53271">
        <ele>176.5</ele>
        <time>2026-08-20T12:18:43Z</time>
      </trkpt>
      <trkpt lat="34.598296" lon="112.532854">
        <ele>176.3</ele>
        <time>2026-08-20T12:18:46Z</time>
      </trkpt>
      <trkpt lat="34.598303" lon="112.532974">
        <ele>176.3</ele>
        <time>2026-08-20T12:18:50Z</time>
      </trkpt>
      <trkpt lat="34.598302" lon="112.533034">
        <ele>176.2</ele>
        <time>2026-08-20T12:18:53Z</time>
      </trkpt>
      <trkpt lat="34.598291" lon="112.533169">
        <ele>176.2</ele>
        <time>2026-08-20T12:18:56Z</time>
      </trkpt>
      <trkpt lat="34.598285" lon="112.533277">
        <ele>176.1</ele>
        <time>2026-08-20T12:18:59Z</time>
      </trkpt>
      <trkpt lat="34.598283" lon="112.533384">
        <ele>176.1</ele>
        <time>2026-08-20T12:19:02Z</time>
      </trkpt>
      <trkpt lat="34.598284" lon="112.533456">
        <ele>176.1</ele>
        <time>2026-08-20T12:19:05Z</time>
      </trkpt>
      <trkpt lat="34.598285" lon="112.533596">
        <ele>175.8</ele>
        <time>2026-08-20T12:19:08Z</time>
      </trkpt>
      <trkpt lat="34.598282" lon="112.533696">
        <ele>175.9</ele>
        <time>2026-08-20T12:19:11Z</time>
      </trkpt>
      <trkpt lat="34.598279" lon="112.533794">
        <ele>175.9</ele>
        <time>2026-08-20T12:19:14Z</time>
      </trkpt>
      <trkpt lat="34.598277" lon="112.533858">
        <ele>175.9</ele>
        <time>2026-08-20T12:19:17Z</time>
      </trkpt>
      <trkpt lat="34.598273" lon="112.533983">
        <ele>176</ele>
        <time>2026-08-20T12:19:20Z</time>
      </trkpt>
      <trkpt lat="34.598272" lon="112.53408">
        <ele>176.1</ele>
        <time>2026-08-20T12:19:23Z</time>
      </trkpt>
      <trkpt lat="34.598272" lon="112.534146">
        <ele>176.1</ele>
        <time>2026-08-20T12:19:26Z</time>
      </trkpt>
      <trkpt lat="34.598272" lon="112.53424">
        <ele>175.9</ele>
        <time>2026-08-20T12:19:29Z</time>
      </trkpt>
      <trkpt lat="34.598273" lon="112.53436">
        <ele>176</ele>
        <time>2026-08-20T12:19:32Z</time>
      </trkpt>
      <trkpt lat="34.598274" lon="112.534439">
        <ele>175.9</ele>
        <time>2026-08-20T12:19:35Z</time>
      </trkpt>
      <trkpt lat="34.598272" lon="112.534488">
        <ele>176</ele>
        <time>2026-08-20T12:19:38Z</time>
      </trkpt>
      <trkpt lat="34.598273" lon="112.534596">
        <ele>175.8</ele>
        <time>2026-08-20T12:19:41Z</time>
      </trkpt>
      <trkpt lat="34.598287" lon="112.534691">
        <ele>175.8</ele>
        <time>2026-08-20T12:19:44Z</time>
      </trkpt>
      <trkpt lat="34.598293" lon="112.534786">
        <ele>175.8</ele>
        <time>2026-08-20T12:19:47Z</time>
      </trkpt>
      <trkpt lat="34.598291" lon="112.534841">
        <ele>175.7</ele>
        <time>2026-08-20T12:19:50Z</time>
      </trkpt>
      <trkpt lat="34.598278" lon="112.534942">
        <ele>175.6</ele>
        <time>2026-08-20T12:19:53Z</time>
      </trkpt>
      <trkpt lat="34.598267" lon="112.535019">
        <ele>175.7</ele>
        <time>2026-08-20T12:19:56Z</time>
      </trkpt>
      <trkpt lat="34.598256" lon="112.535102">
        <ele>175.6</ele>
        <time>2026-08-20T12:19:59Z</time>
      </trkpt>
      <trkpt lat="34.598249" lon="112.53516">
        <ele>175.6</ele>
        <time>2026-08-20T12:20:02Z</time>
      </trkpt>
      <trkpt lat="34.598243" lon="112.535279">
        <ele>175.5</ele>
        <time>2026-08-20T12:20:05Z</time>
      </trkpt>
      <trkpt lat="34.598243" lon="112.535377">
        <ele>175.5</ele>
        <time>2026-08-20T12:20:08Z</time>
      </trkpt>
      <trkpt lat="34.598246" lon="112.535442">
        <ele>175.5</ele>
        <time>2026-08-20T12:20:11Z</time>
      </trkpt>
      <trkpt lat="34.598251" lon="112.535548">
        <ele>175.5</ele>
        <time>2026-08-20T12:20:13Z</time>
      </trkpt>
      <trkpt lat="34.598261" lon="112.535652">
        <ele>175.5</ele>
        <time>2026-08-20T12:20:16Z</time>
      </trkpt>
      <trkpt lat="34.598268" lon="112.535748">
        <ele>175.3</ele>
        <time>2026-08-20T12:20:19Z</time>
      </trkpt>
      <trkpt lat="34.598273" lon="112.535809">
        <ele>175.3</ele>
        <time>2026-08-20T12:20:22Z</time>
      </trkpt>
      <trkpt lat="34.598273" lon="112.535932">
        <ele>175.4</ele>
        <time>2026-08-20T12:20:25Z</time>
      </trkpt>
      <trkpt lat="34.598261" lon="112.536027">
        <ele>175.4</ele>
        <time>2026-08-20T12:20:28Z</time>
      </trkpt>
      <trkpt lat="34.598239" lon="112.53613">
        <ele>175.2</ele>
        <time>2026-08-20T12:20:31Z</time>
      </trkpt>
      <trkpt lat="34.59822" lon="112.536241">
        <ele>175.2</ele>
        <time>2026-08-20T12:20:34Z</time>
      </trkpt>
      <trkpt lat="34.598211" lon="112.536356">
        <ele>175.2</ele>
        <time>2026-08-20T12:20:37Z</time>
      </trkpt>
      <trkpt lat="34.598216" lon="112.53647">
        <ele>175.3</ele>
        <time>2026-08-20T12:20:40Z</time>
      </trkpt>
      <trkpt lat="34.598234" lon="112.536573">
        <ele>175.4</ele>
        <time>2026-08-20T12:20:43Z</time>
      </trkpt>
      <trkpt lat="34.598255" lon="112.536669">
        <ele>175.4</ele>
        <time>2026-08-20T12:20:46Z</time>
      </trkpt>
      <trkpt lat="34.59827" lon="112.536763">
        <ele>175.3</ele>
        <time>2026-08-20T12:20:49Z</time>
      </trkpt>
      <trkpt lat="34.598279" lon="112.536858">
        <ele>175.2</ele>
        <time>2026-08-20T12:20:52Z</time>
      </trkpt>
      <trkpt lat="34.598284" lon="112.536954">
        <ele>175.2</ele>
        <time>2026-08-20T12:20:55Z</time>
      </trkpt>
      <trkpt lat="34.598288" lon="112.537051">
        <ele>175.1</ele>
        <time>2026-08-20T12:20:58Z</time>
      </trkpt>
      <trkpt lat="34.598296" lon="112.537146">
        <ele>175.2</ele>
        <time>2026-08-20T12:21:01Z</time>
      </trkpt>
      <trkpt lat="34.5983" lon="112.537216">
        <ele>175.1</ele>
        <time>2026-08-20T12:21:04Z</time>
      </trkpt>
      <trkpt lat="34.598307" lon="112.537251">
        <ele>175.1</ele>
        <time>2026-08-20T12:21:07Z</time>
      </trkpt>
      <trkpt lat="34.598311" lon="112.537302">
        <ele>175.2</ele>
        <time>2026-08-20T12:21:10Z</time>
      </trkpt>
      <trkpt lat="34.598309" lon="112.537337">
        <ele>175.2</ele>
        <time>2026-08-20T12:21:13Z</time>
      </trkpt>
      <trkpt lat="34.598307" lon="112.537371">
        <ele>175.1</ele>
        <time>2026-08-20T12:21:16Z</time>
      </trkpt>
      <trkpt lat="34.598304" lon="112.537394">
        <ele>175.1</ele>
        <time>2026-08-20T12:21:19Z</time>
      </trkpt>
      <trkpt lat="34.598299" lon="112.53744">
        <ele>175.1</ele>
        <time>2026-08-20T12:21:22Z</time>
      </trkpt>
      <trkpt lat="34.59829" lon="112.537472">
        <ele>175.1</ele>
        <time>2026-08-20T12:21:25Z</time>
      </trkpt>
      <trkpt lat="34.598285" lon="112.537509">
        <ele>175</ele>
        <time>2026-08-20T12:21:28Z</time>
      </trkpt>
      <trkpt lat="34.598286" lon="112.537565">
        <ele>174.9</ele>
        <time>2026-08-20T12:21:32Z</time>
      </trkpt>
      <trkpt lat="34.598287" lon="112.537617">
        <ele>175</ele>
        <time>2026-08-20T12:21:35Z</time>
      </trkpt>
      <trkpt lat="34.598287" lon="112.53766">
        <ele>175</ele>
        <time>2026-08-20T12:21:37Z</time>
      </trkpt>
      <trkpt lat="34.598288" lon="112.537709">
        <ele>175</ele>
        <time>2026-08-20T12:21:40Z</time>
      </trkpt>
      <trkpt lat="34.598291" lon="112.537796">
        <ele>174.8</ele>
        <time>2026-08-20T12:21:43Z</time>
      </trkpt>
      <trkpt lat="34.598295" lon="112.537958">
        <ele>174.6</ele>
        <time>2026-08-20T12:21:47Z</time>
      </trkpt>
      <trkpt lat="34.598296" lon="112.538056">
        <ele>174.6</ele>
        <time>2026-08-20T12:21:50Z</time>
      </trkpt>
      <trkpt lat="34.598297" lon="112.53815">
        <ele>174.5</ele>
        <time>2026-08-20T12:21:53Z</time>
      </trkpt>
      <trkpt lat="34.598293" lon="112.538239">
        <ele>174.5</ele>
        <time>2026-08-20T12:21:56Z</time>
      </trkpt>
      <trkpt lat="34.59829" lon="112.53833">
        <ele>174.6</ele>
        <time>2026-08-20T12:21:59Z</time>
      </trkpt>
      <trkpt lat="34.598286" lon="112.538419">
        <ele>174.5</ele>
        <time>2026-08-20T12:22:02Z</time>
      </trkpt>
      <trkpt lat="34.598285" lon="112.53851">
        <ele>174.4</ele>
        <time>2026-08-20T12:22:05Z</time>
      </trkpt>
      <trkpt lat="34.598283" lon="112.538609">
        <ele>174.3</ele>
        <time>2026-08-20T12:22:08Z</time>
      </trkpt>
      <trkpt lat="34.598282" lon="112.538718">
        <ele>174.3</ele>
        <time>2026-08-20T12:22:11Z</time>
      </trkpt>
      <trkpt lat="34.598283" lon="112.538792">
        <ele>174.3</ele>
        <time>2026-08-20T12:22:14Z</time>
      </trkpt>
      <trkpt lat="34.598295" lon="112.538945">
        <ele>174.2</ele>
        <time>2026-08-20T12:22:17Z</time>
      </trkpt>
      <trkpt lat="34.598303" lon="112.539053">
        <ele>174.1</ele>
        <time>2026-08-20T12:22:20Z</time>
      </trkpt>
      <trkpt lat="34.598305" lon="112.539156">
        <ele>174.1</ele>
        <time>2026-08-20T12:22:23Z</time>
      </trkpt>
      <trkpt lat="34.598305" lon="112.539231">
        <ele>174.1</ele>
        <time>2026-08-20T12:22:26Z</time>
      </trkpt>
      <trkpt lat="34.598297" lon="112.539382">
        <ele>174.2</ele>
        <time>2026-08-20T12:22:29Z</time>
      </trkpt>
      <trkpt lat="34.598299" lon="112.53949">
        <ele>174.1</ele>
        <time>2026-08-20T12:22:32Z</time>
      </trkpt>
      <trkpt lat="34.598304" lon="112.539604">
        <ele>174.1</ele>
        <time>2026-08-20T12:22:35Z</time>
      </trkpt>
      <trkpt lat="34.598306" lon="112.539678">
        <ele>174</ele>
        <time>2026-08-20T12:22:38Z</time>
      </trkpt>
      <trkpt lat="34.598304" lon="112.539825">
        <ele>174.1</ele>
        <time>2026-08-20T12:22:41Z</time>
      </trkpt>
      <trkpt lat="34.598301" lon="112.539932">
        <ele>174</ele>
        <time>2026-08-20T12:22:44Z</time>
      </trkpt>
      <trkpt lat="34.598297" lon="112.54">
        <ele>173.8</ele>
        <time>2026-08-20T12:22:47Z</time>
      </trkpt>
      <trkpt lat="34.598289" lon="112.540099">
        <ele>173.6</ele>
        <time>2026-08-20T12:22:50Z</time>
      </trkpt>
      <trkpt lat="34.598274" lon="112.540232">
        <ele>173.6</ele>
        <time>2026-08-20T12:22:53Z</time>
      </trkpt>
      <trkpt lat="34.598264" lon="112.540335">
        <ele>173.6</ele>
        <time>2026-08-20T12:22:56Z</time>
      </trkpt>
      <trkpt lat="34.598255" lon="112.540406">
        <ele>173.7</ele>
        <time>2026-08-20T12:22:59Z</time>
      </trkpt>
      <trkpt lat="34.598247" lon="112.540526">
        <ele>173.6</ele>
        <time>2026-08-20T12:23:02Z</time>
      </trkpt>
      <trkpt lat="34.598243" lon="112.540686">
        <ele>173.6</ele>
        <time>2026-08-20T12:23:05Z</time>
      </trkpt>
      <trkpt lat="34.598248" lon="112.540761">
        <ele>173.6</ele>
        <time>2026-08-20T12:23:07Z</time>
      </trkpt>
      <trkpt lat="34.598261" lon="112.540863">
        <ele>173.6</ele>
        <time>2026-08-20T12:23:10Z</time>
      </trkpt>
      <trkpt lat="34.598269" lon="112.54096">
        <ele>173.6</ele>
        <time>2026-08-20T12:23:13Z</time>
      </trkpt>
      <trkpt lat="34.598274" lon="112.541061">
        <ele>173.6</ele>
        <time>2026-08-20T12:23:16Z</time>
      </trkpt>
      <trkpt lat="34.598281" lon="112.541166">
        <ele>173.8</ele>
        <time>2026-08-20T12:23:19Z</time>
      </trkpt>
      <trkpt lat="34.598284" lon="112.54127">
        <ele>173.7</ele>
        <time>2026-08-20T12:23:22Z</time>
      </trkpt>
      <trkpt lat="34.598284" lon="112.541376">
        <ele>173.8</ele>
        <time>2026-08-20T12:23:25Z</time>
      </trkpt>
      <trkpt lat="34.598283" lon="112.54148">
        <ele>173.8</ele>
        <time>2026-08-20T12:23:28Z</time>
      </trkpt>
      <trkpt lat="34.598282" lon="112.541577">
        <ele>173.8</ele>
        <time>2026-08-20T12:23:31Z</time>
      </trkpt>
      <trkpt lat="34.598279" lon="112.541659">
        <ele>173.9</ele>
        <time>2026-08-20T12:23:34Z</time>
      </trkpt>
      <trkpt lat="34.598274" lon="112.541739">
        <ele>173.8</ele>
        <time>2026-08-20T12:23:37Z</time>
      </trkpt>
      <trkpt lat="34.598271" lon="112.541816">
        <ele>173.9</ele>
        <time>2026-08-20T12:23:40Z</time>
      </trkpt>
      <trkpt lat="34.598267" lon="112.541869">
        <ele>173.8</ele>
        <time>2026-08-20T12:23:43Z</time>
      </trkpt>
      <trkpt lat="34.598259" lon="112.541985">
        <ele>173.8</ele>
        <time>2026-08-20T12:23:46Z</time>
      </trkpt>
      <trkpt lat="34.598255" lon="112.542077">
        <ele>173.9</ele>
        <time>2026-08-20T12:23:49Z</time>
      </trkpt>
      <trkpt lat="34.59825" lon="112.542174">
        <ele>174</ele>
        <time>2026-08-20T12:23:52Z</time>
      </trkpt>
      <trkpt lat="34.59825" lon="112.54224">
        <ele>173.9</ele>
        <time>2026-08-20T12:23:55Z</time>
      </trkpt>
      <trkpt lat="34.598256" lon="112.542363">
        <ele>173.9</ele>
        <time>2026-08-20T12:23:58Z</time>
      </trkpt>
      <trkpt lat="34.598257" lon="112.542455">
        <ele>174</ele>
        <time>2026-08-20T12:24:01Z</time>
      </trkpt>
      <trkpt lat="34.598251" lon="112.542543">
        <ele>174</ele>
        <time>2026-08-20T12:24:04Z</time>
      </trkpt>
      <trkpt lat="34.598244" lon="112.542602">
        <ele>174</ele>
        <time>2026-08-20T12:24:07Z</time>
      </trkpt>
      <trkpt lat="34.598241" lon="112.542725">
        <ele>174</ele>
        <time>2026-08-20T12:24:10Z</time>
      </trkpt>
      <trkpt lat="34.59824" lon="112.542824">
        <ele>173.8</ele>
        <time>2026-08-20T12:24:13Z</time>
      </trkpt>
      <trkpt lat="34.598244" lon="112.542931">
        <ele>173.7</ele>
        <time>2026-08-20T12:24:16Z</time>
      </trkpt>
      <trkpt lat="34.598252" lon="112.543041">
        <ele>173.7</ele>
        <time>2026-08-20T12:24:19Z</time>
      </trkpt>
      <trkpt lat="34.598259" lon="112.543152">
        <ele>173.7</ele>
        <time>2026-08-20T12:24:22Z</time>
      </trkpt>
      <trkpt lat="34.598262" lon="112.543256">
        <ele>173.8</ele>
        <time>2026-08-20T12:24:25Z</time>
      </trkpt>
      <trkpt lat="34.598263" lon="112.543326">
        <ele>173.8</ele>
        <time>2026-08-20T12:24:28Z</time>
      </trkpt>
      <trkpt lat="34.598259" lon="112.543464">
        <ele>173.7</ele>
        <time>2026-08-20T12:24:31Z</time>
      </trkpt>
      <trkpt lat="34.598261" lon="112.543566">
        <ele>173.7</ele>
        <time>2026-08-20T12:24:34Z</time>
      </trkpt>
      <trkpt lat="34.598261" lon="112.543663">
        <ele>173.9</ele>
        <time>2026-08-20T12:24:37Z</time>
      </trkpt>
      <trkpt lat="34.598263" lon="112.543728">
        <ele>173.9</ele>
        <time>2026-08-20T12:24:40Z</time>
      </trkpt>
      <trkpt lat="34.598265" lon="112.543873">
        <ele>173.7</ele>
        <time>2026-08-20T12:24:43Z</time>
      </trkpt>
      <trkpt lat="34.598259" lon="112.543996">
        <ele>173.6</ele>
        <time>2026-08-20T12:24:46Z</time>
      </trkpt>
      <trkpt lat="34.598256" lon="112.544127">
        <ele>173.4</ele>
        <time>2026-08-20T12:24:49Z</time>
      </trkpt>
      <trkpt lat="34.598258" lon="112.544216">
        <ele>173.5</ele>
        <time>2026-08-20T12:24:52Z</time>
      </trkpt>
      <trkpt lat="34.598271" lon="112.54443">
        <ele>173.4</ele>
        <time>2026-08-20T12:24:56Z</time>
      </trkpt>
      <trkpt lat="34.59828" lon="112.544546">
        <ele>173.5</ele>
        <time>2026-08-20T12:24:59Z</time>
      </trkpt>
      <trkpt lat="34.598287" lon="112.544617">
        <ele>173.6</ele>
        <time>2026-08-20T12:25:02Z</time>
      </trkpt>
      <trkpt lat="34.598299" lon="112.544752">
        <ele>173.6</ele>
        <time>2026-08-20T12:25:05Z</time>
      </trkpt>
      <trkpt lat="34.598302" lon="112.54485">
        <ele>173.6</ele>
        <time>2026-08-20T12:25:08Z</time>
      </trkpt>
      <trkpt lat="34.598299" lon="112.544941">
        <ele>173.6</ele>
        <time>2026-08-20T12:25:11Z</time>
      </trkpt>
      <trkpt lat="34.598295" lon="112.544999">
        <ele>173.7</ele>
        <time>2026-08-20T12:25:14Z</time>
      </trkpt>
      <trkpt lat="34.598288" lon="112.545114">
        <ele>173.6</ele>
        <time>2026-08-20T12:25:17Z</time>
      </trkpt>
      <trkpt lat="34.598285" lon="112.545206">
        <ele>173.7</ele>
        <time>2026-08-20T12:25:20Z</time>
      </trkpt>
      <trkpt lat="34.598286" lon="112.545296">
        <ele>173.6</ele>
        <time>2026-08-20T12:25:23Z</time>
      </trkpt>
      <trkpt lat="34.598289" lon="112.545352">
        <ele>173.7</ele>
        <time>2026-08-20T12:25:26Z</time>
      </trkpt>
      <trkpt lat="34.598289" lon="112.545461">
        <ele>173.7</ele>
        <time>2026-08-20T12:25:29Z</time>
      </trkpt>
      <trkpt lat="34.598293" lon="112.545547">
        <ele>173.6</ele>
        <time>2026-08-20T12:25:32Z</time>
      </trkpt>
      <trkpt lat="34.598299" lon="112.54561">
        <ele>173.6</ele>
        <time>2026-08-20T12:25:35Z</time>
      </trkpt>
      <trkpt lat="34.598307" lon="112.545745">
        <ele>173.7</ele>
        <time>2026-08-20T12:25:38Z</time>
      </trkpt>
      <trkpt lat="34.598305" lon="112.545836">
        <ele>173.7</ele>
        <time>2026-08-20T12:25:41Z</time>
      </trkpt>
      <trkpt lat="34.598296" lon="112.545918">
        <ele>173.8</ele>
        <time>2026-08-20T12:25:44Z</time>
      </trkpt>
      <trkpt lat="34.59829" lon="112.545973">
        <ele>173.8</ele>
        <time>2026-08-20T12:25:47Z</time>
      </trkpt>
      <trkpt lat="34.598281" lon="112.546095">
        <ele>173.8</ele>
        <time>2026-08-20T12:25:50Z</time>
      </trkpt>
      <trkpt lat="34.598278" lon="112.546191">
        <ele>173.8</ele>
        <time>2026-08-20T12:25:53Z</time>
      </trkpt>
      <trkpt lat="34.598274" lon="112.54628">
        <ele>173.8</ele>
        <time>2026-08-20T12:25:56Z</time>
      </trkpt>
      <trkpt lat="34.598272" lon="112.546333">
        <ele>173.9</ele>
        <time>2026-08-20T12:25:59Z</time>
      </trkpt>
      <trkpt lat="34.598277" lon="112.546436">
        <ele>173.7</ele>
        <time>2026-08-20T12:26:02Z</time>
      </trkpt>
      <trkpt lat="34.598277" lon="112.546505">
        <ele>173.8</ele>
        <time>2026-08-20T12:26:05Z</time>
      </trkpt>
      <trkpt lat="34.598274" lon="112.546544">
        <ele>173.9</ele>
        <time>2026-08-20T12:26:08Z</time>
      </trkpt>
      <trkpt lat="34.598271" lon="112.546587">
        <ele>174</ele>
        <time>2026-08-20T12:26:11Z</time>
      </trkpt>
      <trkpt lat="34.598266" lon="112.546615">
        <ele>174</ele>
        <time>2026-08-20T12:26:13Z</time>
      </trkpt>
      <trkpt lat="34.598264" lon="112.546653">
        <ele>173.9</ele>
        <time>2026-08-20T12:26:16Z</time>
      </trkpt>
      <trkpt lat="34.598264" lon="112.546699">
        <ele>173.9</ele>
        <time>2026-08-20T12:26:19Z</time>
      </trkpt>
      <trkpt lat="34.598266" lon="112.54675">
        <ele>173.9</ele>
        <time>2026-08-20T12:26:22Z</time>
      </trkpt>
      <trkpt lat="34.598269" lon="112.546805">
        <ele>173.9</ele>
        <time>2026-08-20T12:26:25Z</time>
      </trkpt>
      <trkpt lat="34.598268" lon="112.546853">
        <ele>173.9</ele>
        <time>2026-08-20T12:26:28Z</time>
      </trkpt>
      <trkpt lat="34.598265" lon="112.546883">
        <ele>174</ele>
        <time>2026-08-20T12:26:31Z</time>
      </trkpt>
      <trkpt lat="34.598254" lon="112.546944">
        <ele>174</ele>
        <time>2026-08-20T12:26:34Z</time>
      </trkpt>
      <trkpt lat="34.59825" lon="112.546989">
        <ele>173.8</ele>
        <time>2026-08-20T12:26:37Z</time>
      </trkpt>
      <trkpt lat="34.598245" lon="112.547031">
        <ele>173.8</ele>
        <time>2026-08-20T12:26:40Z</time>
      </trkpt>
      <trkpt lat="34.598242" lon="112.547076">
        <ele>173.8</ele>
        <time>2026-08-20T12:26:43Z</time>
      </trkpt>
      <trkpt lat="34.598243" lon="112.547126">
        <ele>173.8</ele>
        <time>2026-08-20T12:26:46Z</time>
      </trkpt>
      <trkpt lat="34.598243" lon="112.547169">
        <ele>173.8</ele>
        <time>2026-08-20T12:26:49Z</time>
      </trkpt>
      <trkpt lat="34.598248" lon="112.547214">
        <ele>173.9</ele>
        <time>2026-08-20T12:26:52Z</time>
      </trkpt>
      <trkpt lat="34.598259" lon="112.547263">
        <ele>174</ele>
        <time>2026-08-20T12:26:55Z</time>
      </trkpt>
      <trkpt lat="34.598268" lon="112.547304">
        <ele>174</ele>
        <time>2026-08-20T12:26:58Z</time>
      </trkpt>
      <trkpt lat="34.59827" lon="112.547343">
        <ele>174.1</ele>
        <time>2026-08-20T12:27:01Z</time>
      </trkpt>
      <trkpt lat="34.598271" lon="112.547371">
        <ele>174.1</ele>
        <time>2026-08-20T12:27:04Z</time>
      </trkpt>
      <trkpt lat="34.598267" lon="112.547428">
        <ele>174.2</ele>
        <time>2026-08-20T12:27:07Z</time>
      </trkpt>
      <trkpt lat="34.598262" lon="112.547475">
        <ele>174.2</ele>
        <time>2026-08-20T12:27:10Z</time>
      </trkpt>
      <trkpt lat="34.598259" lon="112.547521">
        <ele>174.2</ele>
        <time>2026-08-20T12:27:13Z</time>
      </trkpt>
      <trkpt lat="34.598259" lon="112.547553">
        <ele>174.2</ele>
        <time>2026-08-20T12:27:16Z</time>
      </trkpt>
      <trkpt lat="34.598262" lon="112.547611">
        <ele>174</ele>
        <time>2026-08-20T12:27:19Z</time>
      </trkpt>
      <trkpt lat="34.598262" lon="112.547657">
        <ele>174</ele>
        <time>2026-08-20T12:27:22Z</time>
      </trkpt>
      <trkpt lat="34.59827" lon="112.547712">
        <ele>173.9</ele>
        <time>2026-08-20T12:27:25Z</time>
      </trkpt>
      <trkpt lat="34.598278" lon="112.547763">
        <ele>174.1</ele>
        <time>2026-08-20T12:27:28Z</time>
      </trkpt>
      <trkpt lat="34.59829" lon="112.547888">
        <ele>173.9</ele>
        <time>2026-08-20T12:27:31Z</time>
      </trkpt>
      <trkpt lat="34.598293" lon="112.547993">
        <ele>173.9</ele>
        <time>2026-08-20T12:27:34Z</time>
      </trkpt>
      <trkpt lat="34.598294" lon="112.548098">
        <ele>173.8</ele>
        <time>2026-08-20T12:27:37Z</time>
      </trkpt>
      <trkpt lat="34.598291" lon="112.548165">
        <ele>173.9</ele>
        <time>2026-08-20T12:27:40Z</time>
      </trkpt>
      <trkpt lat="34.598287" lon="112.5483">
        <ele>173.9</ele>
        <time>2026-08-20T12:27:43Z</time>
      </trkpt>
      <trkpt lat="34.598288" lon="112.548404">
        <ele>173.9</ele>
        <time>2026-08-20T12:27:46Z</time>
      </trkpt>
      <trkpt lat="34.598288" lon="112.548469">
        <ele>174.1</ele>
        <time>2026-08-20T12:27:49Z</time>
      </trkpt>
      <trkpt lat="34.598286" lon="112.548567">
        <ele>174</ele>
        <time>2026-08-20T12:27:52Z</time>
      </trkpt>
      <trkpt lat="34.598277" lon="112.548722">
        <ele>173.9</ele>
        <time>2026-08-20T12:27:56Z</time>
      </trkpt>
      <trkpt lat="34.598278" lon="112.54881">
        <ele>174</ele>
        <time>2026-08-20T12:27:59Z</time>
      </trkpt>
      <trkpt lat="34.598281" lon="112.548902">
        <ele>174</ele>
        <time>2026-08-20T12:28:02Z</time>
      </trkpt>
      <trkpt lat="34.598284" lon="112.548999">
        <ele>174.1</ele>
        <time>2026-08-20T12:28:05Z</time>
      </trkpt>
      <trkpt lat="34.598287" lon="112.549094">
        <ele>174.2</ele>
        <time>2026-08-20T12:28:08Z</time>
      </trkpt>
      <trkpt lat="34.59829" lon="112.549154">
        <ele>174</ele>
        <time>2026-08-20T12:28:11Z</time>
      </trkpt>
      <trkpt lat="34.59829" lon="112.549281">
        <ele>174.2</ele>
        <time>2026-08-20T12:28:14Z</time>
      </trkpt>
      <trkpt lat="34.598292" lon="112.549367">
        <ele>174.2</ele>
        <time>2026-08-20T12:28:17Z</time>
      </trkpt>
      <trkpt lat="34.598293" lon="112.549423">
        <ele>174.3</ele>
        <time>2026-08-20T12:28:20Z</time>
      </trkpt>
      <trkpt lat="34.59829" lon="112.549442">
        <ele>174</ele>
        <time>2026-08-20T12:28:23Z</time>
      </trkpt>
      <trkpt lat="34.598275" lon="112.549448">
        <ele>174.1</ele>
        <time>2026-08-20T12:28:26Z</time>
      </trkpt>
      <trkpt lat="34.598259" lon="112.549461">
        <ele>174</ele>
        <time>2026-08-20T12:28:29Z</time>
      </trkpt>
      <trkpt lat="34.598247" lon="112.549485">
        <ele>174</ele>
        <time>2026-08-20T12:28:32Z</time>
      </trkpt>
      <trkpt lat="34.598242" lon="112.549501">
        <ele>174</ele>
        <time>2026-08-20T12:28:35Z</time>
      </trkpt>
      <trkpt lat="34.598236" lon="112.549516">
        <ele>174.1</ele>
        <time>2026-08-20T12:28:38Z</time>
      </trkpt>
      <trkpt lat="34.598233" lon="112.549519">
        <ele>174.2</ele>
        <time>2026-08-20T12:28:41Z</time>
      </trkpt>
      <trkpt lat="34.598229" lon="112.549519">
        <ele>174.3</ele>
        <time>2026-08-20T12:28:44Z</time>
      </trkpt>
      <trkpt lat="34.598225" lon="112.549516">
        <ele>174.3</ele>
        <time>2026-08-20T12:28:47Z</time>
      </trkpt>
      <trkpt lat="34.598221" lon="112.549511">
        <ele>174.2</ele>
        <time>2026-08-20T12:28:50Z</time>
      </trkpt>
      <trkpt lat="34.598215" lon="112.549509">
        <ele>174.3</ele>
        <time>2026-08-20T12:28:53Z</time>
      </trkpt>
      <trkpt lat="34.598213" lon="112.54951">
        <ele>174.1</ele>
        <time>2026-08-20T12:28:56Z</time>
      </trkpt>
      <trkpt lat="34.598231" lon="112.549695">
        <ele>174.1</ele>
        <time>2026-08-20T12:29:02Z</time>
      </trkpt>
      <trkpt lat="34.598247" lon="112.549839">
        <ele>174.2</ele>
        <time>2026-08-20T12:29:05Z</time>
      </trkpt>
      <trkpt lat="34.598259" lon="112.549922">
        <ele>174.1</ele>
        <time>2026-08-20T12:29:08Z</time>
      </trkpt>
      <trkpt lat="34.598279" lon="112.550085">
        <ele>174</ele>
        <time>2026-08-20T12:29:11Z</time>
      </trkpt>
      <trkpt lat="34.598286" lon="112.550197">
        <ele>174.1</ele>
        <time>2026-08-20T12:29:14Z</time>
      </trkpt>
      <trkpt lat="34.598287" lon="112.550294">
        <ele>174.1</ele>
        <time>2026-08-20T12:29:17Z</time>
      </trkpt>
      <trkpt lat="34.598287" lon="112.550354">
        <ele>174.1</ele>
        <time>2026-08-20T12:29:20Z</time>
      </trkpt>
      <trkpt lat="34.598289" lon="112.550472">
        <ele>174.2</ele>
        <time>2026-08-20T12:29:23Z</time>
      </trkpt>
      <trkpt lat="34.598293" lon="112.550569">
        <ele>174.1</ele>
        <time>2026-08-20T12:29:26Z</time>
      </trkpt>
      <trkpt lat="34.598294" lon="112.550638">
        <ele>174.1</ele>
        <time>2026-08-20T12:29:29Z</time>
      </trkpt>
      <trkpt lat="34.598291" lon="112.550745">
        <ele>174.2</ele>
        <time>2026-08-20T12:29:32Z</time>
      </trkpt>
      <trkpt lat="34.598293" lon="112.550887">
        <ele>174.3</ele>
        <time>2026-08-20T12:29:35Z</time>
      </trkpt>
      <trkpt lat="34.598293" lon="112.55099">
        <ele>174.2</ele>
        <time>2026-08-20T12:29:38Z</time>
      </trkpt>
      <trkpt lat="34.598293" lon="112.55106">
        <ele>174.2</ele>
        <time>2026-08-20T12:29:41Z</time>
      </trkpt>
      <trkpt lat="34.598295" lon="112.55116">
        <ele>174.4</ele>
        <time>2026-08-20T12:29:44Z</time>
      </trkpt>
      <trkpt lat="34.598294" lon="112.551277">
        <ele>174.3</ele>
        <time>2026-08-20T12:29:47Z</time>
      </trkpt>
      <trkpt lat="34.59829" lon="112.551369">
        <ele>174.3</ele>
        <time>2026-08-20T12:29:50Z</time>
      </trkpt>
      <trkpt lat="34.598288" lon="112.551433">
        <ele>174.2</ele>
        <time>2026-08-20T12:29:53Z</time>
      </trkpt>
      <trkpt lat="34.59828" lon="112.551517">
        <ele>174.3</ele>
        <time>2026-08-20T12:29:56Z</time>
      </trkpt>
      <trkpt lat="34.598274" lon="112.551628">
        <ele>174.4</ele>
        <time>2026-08-20T12:29:59Z</time>
      </trkpt>
      <trkpt lat="34.598274" lon="112.551683">
        <ele>174.4</ele>
        <time>2026-08-20T12:30:01Z</time>
      </trkpt>
      <trkpt lat="34.598276" lon="112.551768">
        <ele>174.4</ele>
        <time>2026-08-20T12:30:04Z</time>
      </trkpt>
      <trkpt lat="34.59828" lon="112.551865">
        <ele>174.5</ele>
        <time>2026-08-20T12:30:07Z</time>
      </trkpt>
      <trkpt lat="34.598282" lon="112.551965">
        <ele>174.5</ele>
        <time>2026-08-20T12:30:10Z</time>
      </trkpt>
      <trkpt lat="34.598279" lon="112.552059">
        <ele>174.6</ele>
        <time>2026-08-20T12:30:13Z</time>
      </trkpt>
      <trkpt lat="34.598277" lon="112.552161">
        <ele>174.5</ele>
        <time>2026-08-20T12:30:16Z</time>
      </trkpt>
      <trkpt lat="34.598279" lon="112.552276">
        <ele>174.5</ele>
        <time>2026-08-20T12:30:19Z</time>
      </trkpt>
      <trkpt lat="34.598277" lon="112.552389">
        <ele>174.4</ele>
        <time>2026-08-20T12:30:22Z</time>
      </trkpt>
      <trkpt lat="34.598276" lon="112.552461">
        <ele>174.4</ele>
        <time>2026-08-20T12:30:25Z</time>
      </trkpt>
      <trkpt lat="34.59827" lon="112.552588">
        <ele>174.4</ele>
        <time>2026-08-20T12:30:28Z</time>
      </trkpt>
      <trkpt lat="34.598267" lon="112.552682">
        <ele>174.5</ele>
        <time>2026-08-20T12:30:31Z</time>
      </trkpt>
      <trkpt lat="34.598265" lon="112.552781">
        <ele>174.4</ele>
        <time>2026-08-20T12:30:34Z</time>
      </trkpt>
      <trkpt lat="34.598263" lon="112.552843">
        <ele>174.3</ele>
        <time>2026-08-20T12:30:37Z</time>
      </trkpt>
      <trkpt lat="34.598268" lon="112.552961">
        <ele>174.4</ele>
        <time>2026-08-20T12:30:40Z</time>
      </trkpt>
      <trkpt lat="34.598274" lon="112.553053">
        <ele>174.3</ele>
        <time>2026-08-20T12:30:43Z</time>
      </trkpt>
      <trkpt lat="34.598284" lon="112.553139">
        <ele>174.3</ele>
        <time>2026-08-20T12:30:46Z</time>
      </trkpt>
      <trkpt lat="34.598291" lon="112.553197">
        <ele>174.5</ele>
        <time>2026-08-20T12:30:49Z</time>
      </trkpt>
      <trkpt lat="34.59829" lon="112.553308">
        <ele>174.7</ele>
        <time>2026-08-20T12:30:52Z</time>
      </trkpt>
      <trkpt lat="34.598278" lon="112.553399">
        <ele>174.5</ele>
        <time>2026-08-20T12:30:55Z</time>
      </trkpt>
      <trkpt lat="34.598269" lon="112.553497">
        <ele>174.8</ele>
        <time>2026-08-20T12:30:58Z</time>
      </trkpt>
      <trkpt lat="34.598262" lon="112.553591">
        <ele>174.7</ele>
        <time>2026-08-20T12:31:01Z</time>
      </trkpt>
      <trkpt lat="34.598263" lon="112.55368">
        <ele>174.8</ele>
        <time>2026-08-20T12:31:04Z</time>
      </trkpt>
      <trkpt lat="34.598266" lon="112.553754">
        <ele>174.8</ele>
        <time>2026-08-20T12:31:07Z</time>
      </trkpt>
      <trkpt lat="34.598264" lon="112.553801">
        <ele>174.8</ele>
        <time>2026-08-20T12:31:10Z</time>
      </trkpt>
      <trkpt lat="34.598261" lon="112.553908">
        <ele>175.1</ele>
        <time>2026-08-20T12:31:13Z</time>
      </trkpt>
      <trkpt lat="34.59826" lon="112.554003">
        <ele>175.1</ele>
        <time>2026-08-20T12:31:16Z</time>
      </trkpt>
      <trkpt lat="34.598257" lon="112.554099">
        <ele>175.1</ele>
        <time>2026-08-20T12:31:19Z</time>
      </trkpt>
      <trkpt lat="34.598253" lon="112.554161">
        <ele>175.1</ele>
        <time>2026-08-20T12:31:22Z</time>
      </trkpt>
      <trkpt lat="34.598248" lon="112.554282">
        <ele>175.1</ele>
        <time>2026-08-20T12:31:25Z</time>
      </trkpt>
      <trkpt lat="34.598241" lon="112.554368">
        <ele>175.2</ele>
        <time>2026-08-20T12:31:28Z</time>
      </trkpt>
      <trkpt lat="34.598225" lon="112.554453">
        <ele>175.1</ele>
        <time>2026-08-20T12:31:31Z</time>
      </trkpt>
      <trkpt lat="34.598212" lon="112.554503">
        <ele>175.2</ele>
        <time>2026-08-20T12:31:34Z</time>
      </trkpt>
      <trkpt lat="34.598192" lon="112.554567">
        <ele>175.6</ele>
        <time>2026-08-20T12:31:37Z</time>
      </trkpt>
      <trkpt lat="34.59818" lon="112.554594">
        <ele>175.5</ele>
        <time>2026-08-20T12:31:40Z</time>
      </trkpt>
      <trkpt lat="34.598166" lon="112.554623">
        <ele>175.5</ele>
        <time>2026-08-20T12:31:43Z</time>
      </trkpt>
      <trkpt lat="34.598131" lon="112.554692">
        <ele>175.3</ele>
        <time>2026-08-20T12:31:46Z</time>
      </trkpt>
      <trkpt lat="34.598067" lon="112.554793">
        <ele>175.2</ele>
        <time>2026-08-20T12:31:49Z</time>
      </trkpt>
      <trkpt lat="34.598008" lon="112.554854">
        <ele>175.3</ele>
        <time>2026-08-20T12:31:52Z</time>
      </trkpt>
      <trkpt lat="34.597922" lon="112.554899">
        <ele>175.6</ele>
        <time>2026-08-20T12:31:56Z</time>
      </trkpt>
      <trkpt lat="34.597856" lon="112.554921">
        <ele>175.7</ele>
        <time>2026-08-20T12:31:59Z</time>
      </trkpt>
      <trkpt lat="34.59779" lon="112.55494">
        <ele>175.9</ele>
        <time>2026-08-20T12:32:02Z</time>
      </trkpt>
      <trkpt lat="34.597729" lon="112.554943">
        <ele>175.8</ele>
        <time>2026-08-20T12:32:05Z</time>
      </trkpt>
      <trkpt lat="34.597665" lon="112.554941">
        <ele>175.8</ele>
        <time>2026-08-20T12:32:08Z</time>
      </trkpt>
      <trkpt lat="34.5976" lon="112.554934">
        <ele>175.9</ele>
        <time>2026-08-20T12:32:11Z</time>
      </trkpt>
      <trkpt lat="34.597522" lon="112.554937">
        <ele>175.8</ele>
        <time>2026-08-20T12:32:14Z</time>
      </trkpt>
      <trkpt lat="34.597468" lon="112.554939">
        <ele>176.1</ele>
        <time>2026-08-20T12:32:17Z</time>
      </trkpt>
      <trkpt lat="34.597363" lon="112.55494">
        <ele>176.1</ele>
        <time>2026-08-20T12:32:20Z</time>
      </trkpt>
      <trkpt lat="34.597279" lon="112.554942">
        <ele>176</ele>
        <time>2026-08-20T12:32:23Z</time>
      </trkpt>
      <trkpt lat="34.597198" lon="112.554945">
        <ele>175.9</ele>
        <time>2026-08-20T12:32:26Z</time>
      </trkpt>
      <trkpt lat="34.597147" lon="112.554949">
        <ele>176</ele>
        <time>2026-08-20T12:32:29Z</time>
      </trkpt>
      <trkpt lat="34.597041" lon="112.554953">
        <ele>176</ele>
        <time>2026-08-20T12:32:32Z</time>
      </trkpt>
      <trkpt lat="34.596959" lon="112.554956">
        <ele>176</ele>
        <time>2026-08-20T12:32:35Z</time>
      </trkpt>
      <trkpt lat="34.596884" lon="112.55496">
        <ele>176</ele>
        <time>2026-08-20T12:32:38Z</time>
      </trkpt>
      <trkpt lat="34.596834" lon="112.554961">
        <ele>176</ele>
        <time>2026-08-20T12:32:41Z</time>
      </trkpt>
      <trkpt lat="34.596737" lon="112.55497">
        <ele>176</ele>
        <time>2026-08-20T12:32:44Z</time>
      </trkpt>
      <trkpt lat="34.596678" lon="112.554979">
        <ele>175.9</ele>
        <time>2026-08-20T12:32:50Z</time>
      </trkpt>
      <trkpt lat="34.596708" lon="112.554976">
        <ele>175.8</ele>
        <time>2026-08-20T12:32:59Z</time>
      </trkpt>
      <trkpt lat="34.596714" lon="112.554977">
        <ele>175.8</ele>
        <time>2026-08-20T12:33:02Z</time>
      </trkpt>
      <trkpt lat="34.596719" lon="112.554979">
        <ele>175.8</ele>
        <time>2026-08-20T12:33:05Z</time>
      </trkpt>
      <trkpt lat="34.596719" lon="112.554974">
        <ele>175.8</ele>
        <time>2026-08-20T12:33:08Z</time>
      </trkpt>
      <trkpt lat="34.596717" lon="112.554972">
        <ele>176</ele>
        <time>2026-08-20T12:33:11Z</time>
      </trkpt>
      <trkpt lat="34.596712" lon="112.554967">
        <ele>176</ele>
        <time>2026-08-20T12:33:14Z</time>
      </trkpt>
      <trkpt lat="34.596696" lon="112.554956">
        <ele>176.1</ele>
        <time>2026-08-20T12:33:17Z</time>
      </trkpt>
      <trkpt lat="34.596674" lon="112.554951">
        <ele>176.2</ele>
        <time>2026-08-20T12:33:20Z</time>
      </trkpt>
      <trkpt lat="34.596623" lon="112.554948">
        <ele>176.2</ele>
        <time>2026-08-20T12:33:23Z</time>
      </trkpt>
      <trkpt lat="34.596615" lon="112.554943">
        <ele>176.2</ele>
        <time>2026-08-20T12:33:25Z</time>
      </trkpt>
      <trkpt lat="34.596577" lon="112.554939">
        <ele>176.3</ele>
        <time>2026-08-20T12:33:28Z</time>
      </trkpt>
      <trkpt lat="34.596544" lon="112.554939">
        <ele>176.4</ele>
        <time>2026-08-20T12:33:31Z</time>
      </trkpt>
      <trkpt lat="34.596511" lon="112.55494">
        <ele>176.5</ele>
        <time>2026-08-20T12:33:34Z</time>
      </trkpt>
      <trkpt lat="34.596479" lon="112.554938">
        <ele>176.5</ele>
        <time>2026-08-20T12:33:37Z</time>
      </trkpt>
      <trkpt lat="34.596449" lon="112.554938">
        <ele>176.5</ele>
        <time>2026-08-20T12:33:40Z</time>
      </trkpt>
      <trkpt lat="34.596419" lon="112.554942">
        <ele>176.5</ele>
        <time>2026-08-20T12:33:43Z</time>
      </trkpt>
      <trkpt lat="34.596402" lon="112.554946">
        <ele>176.6</ele>
        <time>2026-08-20T12:33:46Z</time>
      </trkpt>
      <trkpt lat="34.596375" lon="112.554953">
        <ele>176.5</ele>
        <time>2026-08-20T12:33:49Z</time>
      </trkpt>
      <trkpt lat="34.596354" lon="112.554961">
        <ele>176.4</ele>
        <time>2026-08-20T12:33:52Z</time>
      </trkpt>
      <trkpt lat="34.596321" lon="112.554972">
        <ele>176.3</ele>
        <time>2026-08-20T12:33:55Z</time>
      </trkpt>
      <trkpt lat="34.596274" lon="112.554982">
        <ele>176.3</ele>
        <time>2026-08-20T12:33:58Z</time>
      </trkpt>
      <trkpt lat="34.596242" lon="112.554978">
        <ele>176.4</ele>
        <time>2026-08-20T12:34:01Z</time>
      </trkpt>
      <trkpt lat="34.596214" lon="112.554977">
        <ele>176.5</ele>
        <time>2026-08-20T12:34:04Z</time>
      </trkpt>
      <trkpt lat="34.596183" lon="112.554976">
        <ele>176.3</ele>
        <time>2026-08-20T12:34:07Z</time>
      </trkpt>
      <trkpt lat="34.596154" lon="112.554975">
        <ele>176.3</ele>
        <time>2026-08-20T12:34:10Z</time>
      </trkpt>
      <trkpt lat="34.59611" lon="112.554981">
        <ele>176.4</ele>
        <time>2026-08-20T12:34:13Z</time>
      </trkpt>
      <trkpt lat="34.59605" lon="112.554985">
        <ele>176.5</ele>
        <time>2026-08-20T12:34:16Z</time>
      </trkpt>
      <trkpt lat="34.595973" lon="112.554978">
        <ele>176.6</ele>
        <time>2026-08-20T12:34:19Z</time>
      </trkpt>
      <trkpt lat="34.595889" lon="112.554974">
        <ele>176.6</ele>
        <time>2026-08-20T12:34:22Z</time>
      </trkpt>
      <trkpt lat="34.595803" lon="112.554977">
        <ele>176.7</ele>
        <time>2026-08-20T12:34:25Z</time>
      </trkpt>
      <trkpt lat="34.595717" lon="112.554978">
        <ele>176.7</ele>
        <time>2026-08-20T12:34:28Z</time>
      </trkpt>
      <trkpt lat="34.595667" lon="112.554978">
        <ele>176.6</ele>
        <time>2026-08-20T12:34:31Z</time>
      </trkpt>
      <trkpt lat="34.595575" lon="112.554973">
        <ele>176.7</ele>
        <time>2026-08-20T12:34:34Z</time>
      </trkpt>
      <trkpt lat="34.595513" lon="112.55496">
        <ele>176.8</ele>
        <time>2026-08-20T12:34:37Z</time>
      </trkpt>
      <trkpt lat="34.59545" lon="112.554956">
        <ele>176.8</ele>
        <time>2026-08-20T12:34:40Z</time>
      </trkpt>
      <trkpt lat="34.595401" lon="112.554957">
        <ele>176.8</ele>
        <time>2026-08-20T12:34:43Z</time>
      </trkpt>
      <trkpt lat="34.595303" lon="112.554959">
        <ele>176.8</ele>
        <time>2026-08-20T12:34:46Z</time>
      </trkpt>
      <trkpt lat="34.595231" lon="112.554955">
        <ele>176.6</ele>
        <time>2026-08-20T12:34:49Z</time>
      </trkpt>
      <trkpt lat="34.595164" lon="112.554952">
        <ele>176.6</ele>
        <time>2026-08-20T12:34:52Z</time>
      </trkpt>
      <trkpt lat="34.59512" lon="112.554955">
        <ele>176.7</ele>
        <time>2026-08-20T12:34:55Z</time>
      </trkpt>
      <trkpt lat="34.595021" lon="112.554964">
        <ele>176.7</ele>
        <time>2026-08-20T12:34:58Z</time>
      </trkpt>
      <trkpt lat="34.594943" lon="112.554967">
        <ele>176.8</ele>
        <time>2026-08-20T12:35:01Z</time>
      </trkpt>
      <trkpt lat="34.594887" lon="112.554969">
        <ele>177</ele>
        <time>2026-08-20T12:35:04Z</time>
      </trkpt>
      <trkpt lat="34.5948" lon="112.554972">
        <ele>177</ele>
        <time>2026-08-20T12:35:07Z</time>
      </trkpt>
      <trkpt lat="34.594696" lon="112.554971">
        <ele>176.9</ele>
        <time>2026-08-20T12:35:10Z</time>
      </trkpt>
      <trkpt lat="34.594621" lon="112.554972">
        <ele>176.9</ele>
        <time>2026-08-20T12:35:13Z</time>
      </trkpt>
      <trkpt lat="34.594573" lon="112.554972">
        <ele>177</ele>
        <time>2026-08-20T12:35:16Z</time>
      </trkpt>
      <trkpt lat="34.594468" lon="112.554955">
        <ele>177.2</ele>
        <time>2026-08-20T12:35:20Z</time>
      </trkpt>
      <trkpt lat="34.594406" lon="112.554949">
        <ele>177.3</ele>
        <time>2026-08-20T12:35:23Z</time>
      </trkpt>
      <trkpt lat="34.594345" lon="112.554948">
        <ele>177.4</ele>
        <time>2026-08-20T12:35:26Z</time>
      </trkpt>
      <trkpt lat="34.594288" lon="112.554944">
        <ele>177.6</ele>
        <time>2026-08-20T12:35:29Z</time>
      </trkpt>
      <trkpt lat="34.594216" lon="112.554951">
        <ele>177.6</ele>
        <time>2026-08-20T12:35:32Z</time>
      </trkpt>
      <trkpt lat="34.594137" lon="112.554954">
        <ele>177.6</ele>
        <time>2026-08-20T12:35:35Z</time>
      </trkpt>
      <trkpt lat="34.594085" lon="112.554959">
        <ele>177.8</ele>
        <time>2026-08-20T12:35:38Z</time>
      </trkpt>
      <trkpt lat="34.593983" lon="112.554965">
        <ele>177.8</ele>
        <time>2026-08-20T12:35:41Z</time>
      </trkpt>
      <trkpt lat="34.593912" lon="112.554968">
        <ele>177.7</ele>
        <time>2026-08-20T12:35:44Z</time>
      </trkpt>
      <trkpt lat="34.593839" lon="112.554969">
        <ele>177.7</ele>
        <time>2026-08-20T12:35:47Z</time>
      </trkpt>
      <trkpt lat="34.593788" lon="112.554974">
        <ele>177.7</ele>
        <time>2026-08-20T12:35:50Z</time>
      </trkpt>
      <trkpt lat="34.593685" lon="112.55498">
        <ele>177.7</ele>
        <time>2026-08-20T12:35:53Z</time>
      </trkpt>
      <trkpt lat="34.593601" lon="112.554982">
        <ele>177.8</ele>
        <time>2026-08-20T12:35:56Z</time>
      </trkpt>
      <trkpt lat="34.593522" lon="112.554977">
        <ele>177.8</ele>
        <time>2026-08-20T12:35:59Z</time>
      </trkpt>
      <trkpt lat="34.593473" lon="112.554976">
        <ele>177.9</ele>
        <time>2026-08-20T12:36:02Z</time>
      </trkpt>
      <trkpt lat="34.593383" lon="112.554976">
        <ele>178</ele>
        <time>2026-08-20T12:36:05Z</time>
      </trkpt>
      <trkpt lat="34.593314" lon="112.554975">
        <ele>178</ele>
        <time>2026-08-20T12:36:08Z</time>
      </trkpt>
      <trkpt lat="34.593238" lon="112.554968">
        <ele>178.1</ele>
        <time>2026-08-20T12:36:11Z</time>
      </trkpt>
      <trkpt lat="34.593189" lon="112.554959">
        <ele>178.1</ele>
        <time>2026-08-20T12:36:14Z</time>
      </trkpt>
      <trkpt lat="34.593097" lon="112.554954">
        <ele>178.1</ele>
        <time>2026-08-20T12:36:17Z</time>
      </trkpt>
      <trkpt lat="34.593029" lon="112.554957">
        <ele>178.1</ele>
        <time>2026-08-20T12:36:20Z</time>
      </trkpt>
      <trkpt lat="34.59298" lon="112.554961">
        <ele>178.1</ele>
        <time>2026-08-20T12:36:23Z</time>
      </trkpt>
      <trkpt lat="34.592908" lon="112.554959">
        <ele>178.1</ele>
        <time>2026-08-20T12:36:26Z</time>
      </trkpt>
      <trkpt lat="34.59282" lon="112.554958">
        <ele>178.3</ele>
        <time>2026-08-20T12:36:29Z</time>
      </trkpt>
      <trkpt lat="34.592762" lon="112.554954">
        <ele>178.4</ele>
        <time>2026-08-20T12:36:32Z</time>
      </trkpt>
      <trkpt lat="34.592729" lon="112.554949">
        <ele>178.4</ele>
        <time>2026-08-20T12:36:34Z</time>
      </trkpt>
      <trkpt lat="34.592675" lon="112.554941">
        <ele>178.6</ele>
        <time>2026-08-20T12:36:38Z</time>
      </trkpt>
      <trkpt lat="34.592587" lon="112.554951">
        <ele>178.5</ele>
        <time>2026-08-20T12:36:41Z</time>
      </trkpt>
      <trkpt lat="34.592513" lon="112.554956">
        <ele>178.7</ele>
        <time>2026-08-20T12:36:44Z</time>
      </trkpt>
      <trkpt lat="34.592464" lon="112.554959">
        <ele>178.8</ele>
        <time>2026-08-20T12:36:47Z</time>
      </trkpt>
      <trkpt lat="34.592372" lon="112.554952">
        <ele>178.9</ele>
        <time>2026-08-20T12:36:50Z</time>
      </trkpt>
      <trkpt lat="34.592324" lon="112.554947">
        <ele>178.9</ele>
        <time>2026-08-20T12:36:52Z</time>
      </trkpt>
      <trkpt lat="34.592251" lon="112.554939">
        <ele>178.9</ele>
        <time>2026-08-20T12:36:55Z</time>
      </trkpt>
      <trkpt lat="34.59218" lon="112.554938">
        <ele>178.9</ele>
        <time>2026-08-20T12:36:58Z</time>
      </trkpt>
      <trkpt lat="34.592114" lon="112.554943">
        <ele>179</ele>
        <time>2026-08-20T12:37:01Z</time>
      </trkpt>
      <trkpt lat="34.592065" lon="112.55495">
        <ele>179</ele>
        <time>2026-08-20T12:37:04Z</time>
      </trkpt>
      <trkpt lat="34.592033" lon="112.554957">
        <ele>179</ele>
        <time>2026-08-20T12:37:07Z</time>
      </trkpt>
      <trkpt lat="34.591983" lon="112.554965">
        <ele>179.1</ele>
        <time>2026-08-20T12:37:10Z</time>
      </trkpt>
      <trkpt lat="34.591968" lon="112.554959">
        <ele>179.1</ele>
        <time>2026-08-20T12:37:13Z</time>
      </trkpt>
      <trkpt lat="34.591954" lon="112.554949">
        <ele>179.2</ele>
        <time>2026-08-20T12:37:16Z</time>
      </trkpt>
      <trkpt lat="34.591942" lon="112.554943">
        <ele>179.2</ele>
        <time>2026-08-20T12:37:19Z</time>
      </trkpt>
      <trkpt lat="34.591913" lon="112.554924">
        <ele>179.4</ele>
        <time>2026-08-20T12:37:22Z</time>
      </trkpt>
      <trkpt lat="34.591885" lon="112.554915">
        <ele>179.3</ele>
        <time>2026-08-20T12:37:25Z</time>
      </trkpt>
      <trkpt lat="34.591857" lon="112.554911">
        <ele>179.4</ele>
        <time>2026-08-20T12:37:28Z</time>
      </trkpt>
      <trkpt lat="34.591837" lon="112.554908">
        <ele>179.3</ele>
        <time>2026-08-20T12:37:31Z</time>
      </trkpt>
      <trkpt lat="34.591716" lon="112.554911">
        <ele>179.3</ele>
        <time>2026-08-20T12:37:37Z</time>
      </trkpt>
      <trkpt lat="34.591613" lon="112.554921">
        <ele>179.2</ele>
        <time>2026-08-20T12:37:40Z</time>
      </trkpt>
      <trkpt lat="34.591542" lon="112.55493">
        <ele>179.2</ele>
        <time>2026-08-20T12:37:43Z</time>
      </trkpt>
      <trkpt lat="34.591398" lon="112.554947">
        <ele>179.3</ele>
        <time>2026-08-20T12:37:46Z</time>
      </trkpt>
      <trkpt lat="34.591294" lon="112.554955">
        <ele>179.3</ele>
        <time>2026-08-20T12:37:49Z</time>
      </trkpt>
      <trkpt lat="34.591232" lon="112.554957">
        <ele>179.3</ele>
        <time>2026-08-20T12:37:52Z</time>
      </trkpt>
      <trkpt lat="34.591135" lon="112.554946">
        <ele>179.3</ele>
        <time>2026-08-20T12:37:55Z</time>
      </trkpt>
      <trkpt lat="34.591073" lon="112.554935">
        <ele>179.4</ele>
        <time>2026-08-20T12:37:58Z</time>
      </trkpt>
      <trkpt lat="34.591014" lon="112.554929">
        <ele>179.6</ele>
        <time>2026-08-20T12:38:01Z</time>
      </trkpt>
      <trkpt lat="34.590971" lon="112.554924">
        <ele>179.8</ele>
        <time>2026-08-20T12:38:04Z</time>
      </trkpt>
      <trkpt lat="34.590874" lon="112.554915">
        <ele>180</ele>
        <time>2026-08-20T12:38:07Z</time>
      </trkpt>
      <trkpt lat="34.590791" lon="112.55492">
        <ele>180</ele>
        <time>2026-08-20T12:38:10Z</time>
      </trkpt>
      <trkpt lat="34.590707" lon="112.554924">
        <ele>180</ele>
        <time>2026-08-20T12:38:13Z</time>
      </trkpt>
      <trkpt lat="34.590654" lon="112.554926">
        <ele>180</ele>
        <time>2026-08-20T12:38:16Z</time>
      </trkpt>
      <trkpt lat="34.590556" lon="112.554938">
        <ele>180.1</ele>
        <time>2026-08-20T12:38:19Z</time>
      </trkpt>
      <trkpt lat="34.590488" lon="112.554948">
        <ele>180.3</ele>
        <time>2026-08-20T12:38:22Z</time>
      </trkpt>
      <trkpt lat="34.590426" lon="112.554957">
        <ele>180.3</ele>
        <time>2026-08-20T12:38:25Z</time>
      </trkpt>
      <trkpt lat="34.590342" lon="112.554959">
        <ele>180.5</ele>
        <time>2026-08-20T12:38:29Z</time>
      </trkpt>
      <trkpt lat="34.59028" lon="112.554966">
        <ele>180.5</ele>
        <time>2026-08-20T12:38:32Z</time>
      </trkpt>
      <trkpt lat="34.590211" lon="112.554965">
        <ele>180.5</ele>
        <time>2026-08-20T12:38:35Z</time>
      </trkpt>
      <trkpt lat="34.590187" lon="112.554962">
        <ele>180.5</ele>
        <time>2026-08-20T12:38:37Z</time>
      </trkpt>
      <trkpt lat="34.590089" lon="112.554948">
        <ele>180.8</ele>
        <time>2026-08-20T12:38:40Z</time>
      </trkpt>
      <trkpt lat="34.590008" lon="112.554953">
        <ele>180.8</ele>
        <time>2026-08-20T12:38:43Z</time>
      </trkpt>
      <trkpt lat="34.58993" lon="112.55496">
        <ele>180.9</ele>
        <time>2026-08-20T12:38:46Z</time>
      </trkpt>
      <trkpt lat="34.589836" lon="112.554961">
        <ele>180.8</ele>
        <time>2026-08-20T12:38:50Z</time>
      </trkpt>
      <trkpt lat="34.589792" lon="112.554961">
        <ele>180.8</ele>
        <time>2026-08-20T12:38:52Z</time>
      </trkpt>
      <trkpt lat="34.589707" lon="112.554954">
        <ele>181</ele>
        <time>2026-08-20T12:38:56Z</time>
      </trkpt>
      <trkpt lat="34.589662" lon="112.554952">
        <ele>181.1</ele>
        <time>2026-08-20T12:38:59Z</time>
      </trkpt>
      <trkpt lat="34.589573" lon="112.554946">
        <ele>181.1</ele>
        <time>2026-08-20T12:39:02Z</time>
      </trkpt>
      <trkpt lat="34.589511" lon="112.554941">
        <ele>181.1</ele>
        <time>2026-08-20T12:39:05Z</time>
      </trkpt>
      <trkpt lat="34.589449" lon="112.554934">
        <ele>181.1</ele>
        <time>2026-08-20T12:39:08Z</time>
      </trkpt>
      <trkpt lat="34.589403" lon="112.554935">
        <ele>181.3</ele>
        <time>2026-08-20T12:39:11Z</time>
      </trkpt>
      <trkpt lat="34.589313" lon="112.554946">
        <ele>181.3</ele>
        <time>2026-08-20T12:39:14Z</time>
      </trkpt>
      <trkpt lat="34.589243" lon="112.554956">
        <ele>181.3</ele>
        <time>2026-08-20T12:39:17Z</time>
      </trkpt>
      <trkpt lat="34.589169" lon="112.554967">
        <ele>181.4</ele>
        <time>2026-08-20T12:39:20Z</time>
      </trkpt>
      <trkpt lat="34.589122" lon="112.554968">
        <ele>181.6</ele>
        <time>2026-08-20T12:39:23Z</time>
      </trkpt>
      <trkpt lat="34.589032" lon="112.554969">
        <ele>181.7</ele>
        <time>2026-08-20T12:39:26Z</time>
      </trkpt>
      <trkpt lat="34.588965" lon="112.554966">
        <ele>181.7</ele>
        <time>2026-08-20T12:39:29Z</time>
      </trkpt>
      <trkpt lat="34.588893" lon="112.55496">
        <ele>181.8</ele>
        <time>2026-08-20T12:39:32Z</time>
      </trkpt>
      <trkpt lat="34.588847" lon="112.554956">
        <ele>181.8</ele>
        <time>2026-08-20T12:39:35Z</time>
      </trkpt>
      <trkpt lat="34.588755" lon="112.554952">
        <ele>181.9</ele>
        <time>2026-08-20T12:39:38Z</time>
      </trkpt>
      <trkpt lat="34.588688" lon="112.554951">
        <ele>182</ele>
        <time>2026-08-20T12:39:41Z</time>
      </trkpt>
      <trkpt lat="34.588646" lon="112.554953">
        <ele>182</ele>
        <time>2026-08-20T12:39:44Z</time>
      </trkpt>
      <trkpt lat="34.588586" lon="112.554956">
        <ele>182</ele>
        <time>2026-08-20T12:39:47Z</time>
      </trkpt>
      <trkpt lat="34.588513" lon="112.554954">
        <ele>182.1</ele>
        <time>2026-08-20T12:39:50Z</time>
      </trkpt>
      <trkpt lat="34.588444" lon="112.554958">
        <ele>182.2</ele>
        <time>2026-08-20T12:39:53Z</time>
      </trkpt>
      <trkpt lat="34.588392" lon="112.55496">
        <ele>182.3</ele>
        <time>2026-08-20T12:39:56Z</time>
      </trkpt>
      <trkpt lat="34.588314" lon="112.554961">
        <ele>182.4</ele>
        <time>2026-08-20T12:39:59Z</time>
      </trkpt>
      <trkpt lat="34.588203" lon="112.554968">
        <ele>182.3</ele>
        <time>2026-08-20T12:40:02Z</time>
      </trkpt>
      <trkpt lat="34.588128" lon="112.554993">
        <ele>182.3</ele>
        <time>2026-08-20T12:40:05Z</time>
      </trkpt>
      <trkpt lat="34.588089" lon="112.55503">
        <ele>182.2</ele>
        <time>2026-08-20T12:40:08Z</time>
      </trkpt>
      <trkpt lat="34.588045" lon="112.555155">
        <ele>182.3</ele>
        <time>2026-08-20T12:40:11Z</time>
      </trkpt>
      <trkpt lat="34.588035" lon="112.555236">
        <ele>182.3</ele>
        <time>2026-08-20T12:40:13Z</time>
      </trkpt>
      <trkpt lat="34.588023" lon="112.555353">
        <ele>182.4</ele>
        <time>2026-08-20T12:40:16Z</time>
      </trkpt>
      <trkpt lat="34.588011" lon="112.555467">
        <ele>182.3</ele>
        <time>2026-08-20T12:40:19Z</time>
      </trkpt>
      <trkpt lat="34.587993" lon="112.555568">
        <ele>182.2</ele>
        <time>2026-08-20T12:40:22Z</time>
      </trkpt>
      <trkpt lat="34.587946" lon="112.555629">
        <ele>182.3</ele>
        <time>2026-08-20T12:40:25Z</time>
      </trkpt>
      <trkpt lat="34.587877" lon="112.555648">
        <ele>182.2</ele>
        <time>2026-08-20T12:40:28Z</time>
      </trkpt>
      <trkpt lat="34.587793" lon="112.555635">
        <ele>182.2</ele>
        <time>2026-08-20T12:40:31Z</time>
      </trkpt>
      <trkpt lat="34.587715" lon="112.555625">
        <ele>182.1</ele>
        <time>2026-08-20T12:40:34Z</time>
      </trkpt>
      <trkpt lat="34.587637" lon="112.555623">
        <ele>182.1</ele>
        <time>2026-08-20T12:40:37Z</time>
      </trkpt>
      <trkpt lat="34.587585" lon="112.555621">
        <ele>182.3</ele>
        <time>2026-08-20T12:40:40Z</time>
      </trkpt>
      <trkpt lat="34.587491" lon="112.555613">
        <ele>182.4</ele>
        <time>2026-08-20T12:40:43Z</time>
      </trkpt>
      <trkpt lat="34.58743" lon="112.555608">
        <ele>182.7</ele>
        <time>2026-08-20T12:40:46Z</time>
      </trkpt>
      <trkpt lat="34.58737" lon="112.555598">
        <ele>182.9</ele>
        <time>2026-08-20T12:40:49Z</time>
      </trkpt>
      <trkpt lat="34.587333" lon="112.555588">
        <ele>183.3</ele>
        <time>2026-08-20T12:40:52Z</time>
      </trkpt>
      <trkpt lat="34.587272" lon="112.555581">
        <ele>183.4</ele>
        <time>2026-08-20T12:40:55Z</time>
      </trkpt>
      <trkpt lat="34.587251" lon="112.555625">
        <ele>183.4</ele>
        <time>2026-08-20T12:40:58Z</time>
      </trkpt>
      <trkpt lat="34.587208" lon="112.55567">
        <ele>183.4</ele>
        <time>2026-08-20T12:41:04Z</time>
      </trkpt>
      <trkpt lat="34.587175" lon="112.555662">
        <ele>183.7</ele>
        <time>2026-08-20T12:41:07Z</time>
      </trkpt>
      <trkpt lat="34.58712" lon="112.555645">
        <ele>183.9</ele>
        <time>2026-08-20T12:41:10Z</time>
      </trkpt>
      <trkpt lat="34.587075" lon="112.555634">
        <ele>184</ele>
        <time>2026-08-20T12:41:13Z</time>
      </trkpt>
      <trkpt lat="34.586986" lon="112.55561">
        <ele>184.1</ele>
        <time>2026-08-20T12:41:16Z</time>
      </trkpt>
      <trkpt lat="34.586919" lon="112.555596">
        <ele>184.2</ele>
        <time>2026-08-20T12:41:19Z</time>
      </trkpt>
      <trkpt lat="34.58685" lon="112.555588">
        <ele>184.3</ele>
        <time>2026-08-20T12:41:22Z</time>
      </trkpt>
      <trkpt lat="34.586803" lon="112.55558">
        <ele>184.7</ele>
        <time>2026-08-20T12:41:25Z</time>
      </trkpt>
      <trkpt lat="34.586715" lon="112.555559">
        <ele>184.8</ele>
        <time>2026-08-20T12:41:28Z</time>
      </trkpt>
      <trkpt lat="34.586641" lon="112.555552">
        <ele>184.9</ele>
        <time>2026-08-20T12:41:31Z</time>
      </trkpt>
      <trkpt lat="34.586568" lon="112.555548">
        <ele>185.1</ele>
        <time>2026-08-20T12:41:34Z</time>
      </trkpt>
      <trkpt lat="34.586532" lon="112.555546">
        <ele>185.3</ele>
        <time>2026-08-20T12:41:37Z</time>
      </trkpt>
      <trkpt lat="34.58649" lon="112.555552">
        <ele>185.3</ele>
        <time>2026-08-20T12:41:40Z</time>
      </trkpt>
      <trkpt lat="34.586471" lon="112.555565">
        <ele>185.5</ele>
        <time>2026-08-20T12:41:43Z</time>
      </trkpt>
      <trkpt lat="34.586454" lon="112.555575">
        <ele>185.3</ele>
        <time>2026-08-20T12:41:46Z</time>
      </trkpt>
      <trkpt lat="34.586441" lon="112.555583">
        <ele>185.4</ele>
        <time>2026-08-20T12:41:49Z</time>
      </trkpt>
      <trkpt lat="34.586387" lon="112.555602">
        <ele>185.5</ele>
        <time>2026-08-20T12:41:53Z</time>
      </trkpt>
      <trkpt lat="34.586338" lon="112.555595">
        <ele>185.5</ele>
        <time>2026-08-20T12:41:56Z</time>
      </trkpt>
      <trkpt lat="34.586291" lon="112.555585">
        <ele>185.7</ele>
        <time>2026-08-20T12:41:59Z</time>
      </trkpt>
      <trkpt lat="34.586184" lon="112.555568">
        <ele>185.7</ele>
        <time>2026-08-20T12:42:02Z</time>
      </trkpt>
      <trkpt lat="34.586101" lon="112.555564">
        <ele>185.7</ele>
        <time>2026-08-20T12:42:05Z</time>
      </trkpt>
      <trkpt lat="34.586021" lon="112.555566">
        <ele>185.9</ele>
        <time>2026-08-20T12:42:08Z</time>
      </trkpt>
      <trkpt lat="34.585972" lon="112.555568">
        <ele>186.2</ele>
        <time>2026-08-20T12:42:11Z</time>
      </trkpt>
      <trkpt lat="34.585884" lon="112.555565">
        <ele>186.3</ele>
        <time>2026-08-20T12:42:14Z</time>
      </trkpt>
      <trkpt lat="34.585819" lon="112.555556">
        <ele>186.4</ele>
        <time>2026-08-20T12:42:17Z</time>
      </trkpt>
      <trkpt lat="34.585776" lon="112.555554">
        <ele>186.6</ele>
        <time>2026-08-20T12:42:20Z</time>
      </trkpt>
      <trkpt lat="34.585697" lon="112.555534">
        <ele>186.7</ele>
        <time>2026-08-20T12:42:23Z</time>
      </trkpt>
      <trkpt lat="34.585628" lon="112.555521">
        <ele>186.9</ele>
        <time>2026-08-20T12:42:26Z</time>
      </trkpt>
      <trkpt lat="34.585559" lon="112.555523">
        <ele>187.2</ele>
        <time>2026-08-20T12:42:29Z</time>
      </trkpt>
      <trkpt lat="34.585511" lon="112.555528">
        <ele>187.2</ele>
        <time>2026-08-20T12:42:32Z</time>
      </trkpt>
      <trkpt lat="34.585417" lon="112.555537">
        <ele>187.3</ele>
        <time>2026-08-20T12:42:35Z</time>
      </trkpt>
      <trkpt lat="34.585352" lon="112.555542">
        <ele>187.3</ele>
        <time>2026-08-20T12:42:38Z</time>
      </trkpt>
      <trkpt lat="34.585289" lon="112.555545">
        <ele>187.6</ele>
        <time>2026-08-20T12:42:41Z</time>
      </trkpt>
      <trkpt lat="34.585244" lon="112.555543">
        <ele>187.8</ele>
        <time>2026-08-20T12:42:44Z</time>
      </trkpt>
      <trkpt lat="34.585145" lon="112.55554">
        <ele>187.8</ele>
        <time>2026-08-20T12:42:47Z</time>
      </trkpt>
      <trkpt lat="34.585069" lon="112.55554">
        <ele>187.9</ele>
        <time>2026-08-20T12:42:50Z</time>
      </trkpt>
      <trkpt lat="34.584994" lon="112.555546">
        <ele>188.1</ele>
        <time>2026-08-20T12:42:53Z</time>
      </trkpt>
      <trkpt lat="34.584944" lon="112.555556">
        <ele>188.4</ele>
        <time>2026-08-20T12:42:56Z</time>
      </trkpt>
      <trkpt lat="34.58487" lon="112.55559">
        <ele>188.7</ele>
        <time>2026-08-20T12:42:59Z</time>
      </trkpt>
      <trkpt lat="34.584846" lon="112.555642">
        <ele>188.6</ele>
        <time>2026-08-20T12:43:02Z</time>
      </trkpt>
      <trkpt lat="34.584838" lon="112.55569">
        <ele>188.6</ele>
        <time>2026-08-20T12:43:05Z</time>
      </trkpt>
      <trkpt lat="34.584842" lon="112.555775">
        <ele>188.5</ele>
        <time>2026-08-20T12:43:08Z</time>
      </trkpt>
      <trkpt lat="34.584854" lon="112.5559">
        <ele>188.5</ele>
        <time>2026-08-20T12:43:11Z</time>
      </trkpt>
      <trkpt lat="34.584865" lon="112.556001">
        <ele>188.5</ele>
        <time>2026-08-20T12:43:14Z</time>
      </trkpt>
      <trkpt lat="34.584875" lon="112.556065">
        <ele>188.4</ele>
        <time>2026-08-20T12:43:17Z</time>
      </trkpt>
      <trkpt lat="34.584891" lon="112.556155">
        <ele>188.3</ele>
        <time>2026-08-20T12:43:20Z</time>
      </trkpt>
      <trkpt lat="34.584902" lon="112.556246">
        <ele>188.3</ele>
        <time>2026-08-20T12:43:22Z</time>
      </trkpt>
      <trkpt lat="34.584906" lon="112.556342">
        <ele>188.4</ele>
        <time>2026-08-20T12:43:25Z</time>
      </trkpt>
      <trkpt lat="34.584913" lon="112.556438">
        <ele>188.4</ele>
        <time>2026-08-20T12:43:28Z</time>
      </trkpt>
      <trkpt lat="34.584913" lon="112.556527">
        <ele>188.5</ele>
        <time>2026-08-20T12:43:31Z</time>
      </trkpt>
      <trkpt lat="34.584914" lon="112.556595">
        <ele>188.6</ele>
        <time>2026-08-20T12:43:34Z</time>
      </trkpt>
      <trkpt lat="34.584906" lon="112.556639">
        <ele>188.5</ele>
        <time>2026-08-20T12:43:37Z</time>
      </trkpt>
      <trkpt lat="34.584901" lon="112.556671">
        <ele>188.7</ele>
        <time>2026-08-20T12:43:40Z</time>
      </trkpt>
      <trkpt lat="34.584906" lon="112.556705">
        <ele>188.7</ele>
        <time>2026-08-20T12:43:43Z</time>
      </trkpt>
      <trkpt lat="34.584912" lon="112.556743">
        <ele>188.7</ele>
        <time>2026-08-20T12:43:46Z</time>
      </trkpt>
      <trkpt lat="34.584916" lon="112.556783">
        <ele>188.8</ele>
        <time>2026-08-20T12:43:49Z</time>
      </trkpt>
      <trkpt lat="34.584928" lon="112.556823">
        <ele>188.6</ele>
        <time>2026-08-20T12:43:52Z</time>
      </trkpt>
    </trkseg>
  </trk>
</gpx>