<?xml version="1.0" encoding="UTF-8"?>
<gpx xmlns="http://www.topografix.com/GPX/1/1" xmlns:gpxtpx="http://www.garmin.com/xmlschemas/TrackPointExtension/v1" xmlns:xsi="http://www.w3.org/2001/XMLSchema-instance" xsi:schemaLocation="http://www.topografix.com/GPX/1/1 http://www.topografix.com/GPX/1/1/gpx.xsd" version="1.1" creator="gpx.py -- https://github.com/tkrajina/gpxpy">
  <trk>
    <name>晚上跑步</name>
    <type>running</type>
    <trkseg>
      <trkpt lat="34.586173" lon="112.559025">
        <ele>140.8</ele>
        <time>2026-09-02T12:30:06Z</time>
      </trkpt>
      <trkpt lat="34.586133" lon="112.558765">
        <ele>140.7</ele>
        <time>2026-09-02T12:30:09Z</time>
      </trkpt>
      <trkpt lat="34.586202" lon="112.558785">
        <ele>140.7</ele>
        <time>2026-09-02T12:30:12Z</time>
      </trkpt>
      <trkpt lat="34.586288" lon="112.558773">
        <ele>140.6</ele>
        <time>2026-09-02T12:30:15Z</time>
      </trkpt>
      <trkpt lat="34.586364" lon="112.558767">
        <ele>140.5</ele>
        <time>2026-09-02T12:30:18Z</time>
      </trkpt>
      <trkpt lat="34.586439" lon="112.558766">
        <ele>140.6</ele>
        <time>2026-09-02T12:30:21Z</time>
      </trkpt>
      <trkpt lat="34.586507" lon="112.558742">
        <ele>140.5</ele>
        <time>2026-09-02T12:30:24Z</time>
      </trkpt>
      <trkpt lat="34.586607" lon="112.558742">
        <ele>140.7</ele>
        <time>2026-09-02T12:30:29Z</time>
      </trkpt>
      <trkpt lat="34.586672" lon="112.558737">
        <ele>140.7</ele>
        <time>2026-09-02T12:30:32Z</time>
      </trkpt>
      <trkpt lat="34.586742" lon="112.558724">
        <ele>140.7</ele>
        <time>2026-09-02T12:30:35Z</time>
      </trkpt>
      <trkpt lat="34.586815" lon="112.558696">
        <ele>140.7</ele>
        <time>2026-09-02T12:30:38Z</time>
      </trkpt>
      <trkpt lat="34.586876" lon="112.558654">
        <ele>140.6</ele>
        <time>2026-09-02T12:30:41Z</time>
      </trkpt>
      <trkpt lat="34.586935" lon="112.558596">
        <ele>140.6</ele>
        <time>2026-09-02T12:30:43Z</time>
      </trkpt>
      <trkpt lat="34.586983" lon="112.558526">
        <ele>140.6</ele>
        <time>2026-09-02T12:30:46Z</time>
      </trkpt>
      <trkpt lat="34.587021" lon="112.558428">
        <ele>140.4</ele>
        <time>2026-09-02T12:30:49Z</time>
      </trkpt>
      <trkpt lat="34.587036" lon="112.558337">
        <ele>140.4</ele>
        <time>2026-09-02T12:30:52Z</time>
      </trkpt>
      <trkpt lat="34.587038" lon="112.55824">
        <ele>140.4</ele>
        <time>2026-09-02T12:30:55Z</time>
      </trkpt>
      <trkpt lat="34.587022" lon="112.558131">
        <ele>140.5</ele>
        <time>2026-09-02T12:30:58Z</time>
      </trkpt>
      <trkpt lat="34.586983" lon="112.558031">
        <ele>140.4</ele>
        <time>2026-09-02T12:31:01Z</time>
      </trkpt>
      <trkpt lat="34.586936" lon="112.557957">
        <ele>140.4</ele>
        <time>2026-09-02T12:31:04Z</time>
      </trkpt>
      <trkpt lat="34.586891" lon="112.5579">
        <ele>140.4</ele>
        <time>2026-09-02T12:31:07Z</time>
      </trkpt>
      <trkpt lat="34.58683" lon="112.557848">
        <ele>140.4</ele>
        <time>2026-09-02T12:31:10Z</time>
      </trkpt>
      <trkpt lat="34.586756" lon="112.557804">
        <ele>140.3</ele>
        <time>2026-09-02T12:31:13Z</time>
      </trkpt>
      <trkpt lat="34.586709" lon="112.557788">
        <ele>140.4</ele>
        <time>2026-09-02T12:31:16Z</time>
      </trkpt>
      <trkpt lat="34.586586" lon="112.557784">
        <ele>140.3</ele>
        <time>2026-09-02T12:31:19Z</time>
      </trkpt>
      <trkpt lat="34.586513" lon="112.557792">
        <ele>140.4</ele>
        <time>2026-09-02T12:31:22Z</time>
      </trkpt>
      <trkpt lat="34.586431" lon="112.557802">
        <ele>140.6</ele>
        <time>2026-09-02T12:31:25Z</time>
      </trkpt>
      <trkpt lat="34.586343" lon="112.557812">
        <ele>140.5</ele>
        <time>2026-09-02T12:31:28Z</time>
      </trkpt>
      <trkpt lat="34.586254" lon="112.557816">
        <ele>140.5</ele>
        <time>2026-09-02T12:31:31Z</time>
      </trkpt>
      <trkpt lat="34.586163" lon="112.557818">
        <ele>140.5</ele>
        <time>2026-09-02T12:31:34Z</time>
      </trkpt>
      <trkpt lat="34.586081" lon="112.557817">
        <ele>140.5</ele>
        <time>2026-09-02T12:31:37Z</time>
      </trkpt>
      <trkpt lat="34.586008" lon="112.557819">
        <ele>140.5</ele>
        <time>2026-09-02T12:31:40Z</time>
      </trkpt>
      <trkpt lat="34.585929" lon="112.557818">
        <ele>140.4</ele>
        <time>2026-09-02T12:31:43Z</time>
      </trkpt>
      <trkpt lat="34.585853" lon="112.557822">
        <ele>140.4</ele>
        <time>2026-09-02T12:31:46Z</time>
      </trkpt>
      <trkpt lat="34.585785" lon="112.557827">
        <ele>140.3</ele>
        <time>2026-09-02T12:31:49Z</time>
      </trkpt>
      <trkpt lat="34.585716" lon="112.557849">
        <ele>140.4</ele>
        <time>2026-09-02T12:31:52Z</time>
      </trkpt>
      <trkpt lat="34.585665" lon="112.557877">
        <ele>140.5</ele>
        <time>2026-09-02T12:31:55Z</time>
      </trkpt>
      <trkpt lat="34.585606" lon="112.557921">
        <ele>140.5</ele>
        <time>2026-09-02T12:31:58Z</time>
      </trkpt>
      <trkpt lat="34.585566" lon="112.557968">
        <ele>140.5</ele>
        <time>2026-09-02T12:32:01Z</time>
      </trkpt>
      <trkpt lat="34.585506" lon="112.558069">
        <ele>140.5</ele>
        <time>2026-09-02T12:32:04Z</time>
      </trkpt>
      <trkpt lat="34.585477" lon="112.558155">
        <ele>140.5</ele>
        <time>2026-09-02T12:32:07Z</time>
      </trkpt>
      <trkpt lat="34.585462" lon="112.558254">
        <ele>140.5</ele>
        <time>2026-09-02T12:32:10Z</time>
      </trkpt>
      <trkpt lat="34.585462" lon="112.55831">
        <ele>140.5</ele>
        <time>2026-09-02T12:32:13Z</time>
      </trkpt>
      <trkpt lat="34.585476" lon="112.558414">
        <ele>140.4</ele>
        <time>2026-09-02T12:32:16Z</time>
      </trkpt>
      <trkpt lat="34.585494" lon="112.558487">
        <ele>140.5</ele>
        <time>2026-09-02T12:32:19Z</time>
      </trkpt>
      <trkpt lat="34.58555" lon="112.55859">
        <ele>140.5</ele>
        <time>2026-09-02T12:32:22Z</time>
      </trkpt>
      <trkpt lat="34.585602" lon="112.558655">
        <ele>140.4</ele>
        <time>2026-09-02T12:32:25Z</time>
      </trkpt>
      <trkpt lat="34.585688" lon="112.558716">
        <ele>140.4</ele>
        <time>2026-09-02T12:32:27Z</time>
      </trkpt>
      <trkpt lat="34.585761" lon="112.558746">
        <ele>140.4</ele>
        <time>2026-09-02T12:32:30Z</time>
      </trkpt>
      <trkpt lat="34.585849" lon="112.558763">
        <ele>140.4</ele>
        <time>2026-09-02T12:32:33Z</time>
      </trkpt>
      <trkpt lat="34.585928" lon="112.55876">
        <ele>140.4</ele>
        <time>2026-09-02T12:32:36Z</time>
      </trkpt>
      <trkpt lat="34.585993" lon="112.558753">
        <ele>140.3</ele>
        <time>2026-09-02T12:32:39Z</time>
      </trkpt>
      <trkpt lat="34.586057" lon="112.558749">
        <ele>140.4</ele>
        <time>2026-09-02T12:32:42Z</time>
      </trkpt>
      <trkpt lat="34.586124" lon="112.558746">
        <ele>140.3</ele>
        <time>2026-09-02T12:32:45Z</time>
      </trkpt>
      <trkpt lat="34.586201" lon="112.558744">
        <ele>140.3</ele>
        <time>2026-09-02T12:32:48Z</time>
      </trkpt>
      <trkpt lat="34.586289" lon="112.558742">
        <ele>140.3</ele>
        <time>2026-09-02T12:32:51Z</time>
      </trkpt>
      <trkpt lat="34.586374" lon="112.558743">
        <ele>140.2</ele>
        <time>2026-09-02T12:32:54Z</time>
      </trkpt>
      <trkpt lat="34.586469" lon="112.558743">
        <ele>140.3</ele>
        <time>2026-09-02T12:32:57Z</time>
      </trkpt>
      <trkpt lat="34.586573" lon="112.55874">
        <ele>140.5</ele>
        <time>2026-09-02T12:33:02Z</time>
      </trkpt>
      <trkpt lat="34.586642" lon="112.558741">
        <ele>140.4</ele>
        <time>2026-09-02T12:33:05Z</time>
      </trkpt>
      <trkpt lat="34.586731" lon="112.558726">
        <ele>140.3</ele>
        <time>2026-09-02T12:33:08Z</time>
      </trkpt>
      <trkpt lat="34.586808" lon="112.558699">
        <ele>140.3</ele>
        <time>2026-09-02T12:33:11Z</time>
      </trkpt>
      <trkpt lat="34.58687" lon="112.558659">
        <ele>140.2</ele>
        <time>2026-09-02T12:33:14Z</time>
      </trkpt>
      <trkpt lat="34.586921" lon="112.558612">
        <ele>140.2</ele>
        <time>2026-09-02T12:33:16Z</time>
      </trkpt>
      <trkpt lat="34.586966" lon="112.558552">
        <ele>140.3</ele>
        <time>2026-09-02T12:33:19Z</time>
      </trkpt>
      <trkpt lat="34.587006" lon="112.558471">
        <ele>140.4</ele>
        <time>2026-09-02T12:33:22Z</time>
      </trkpt>
      <trkpt lat="34.587029" lon="112.55839">
        <ele>140.3</ele>
        <time>2026-09-02T12:33:25Z</time>
      </trkpt>
      <trkpt lat="34.587039" lon="112.558292">
        <ele>140.3</ele>
        <time>2026-09-02T12:33:28Z</time>
      </trkpt>
      <trkpt lat="34.587035" lon="112.558204">
        <ele>140.3</ele>
        <time>2026-09-02T12:33:31Z</time>
      </trkpt>
      <trkpt lat="34.587019" lon="112.558118">
        <ele>140.2</ele>
        <time>2026-09-02T12:33:34Z</time>
      </trkpt>
      <trkpt lat="34.586977" lon="112.558019">
        <ele>140.1</ele>
        <time>2026-09-02T12:33:37Z</time>
      </trkpt>
      <trkpt lat="34.586923" lon="112.55794">
        <ele>140.1</ele>
        <time>2026-09-02T12:33:40Z</time>
      </trkpt>
      <trkpt lat="34.586856" lon="112.557871">
        <ele>140.1</ele>
        <time>2026-09-02T12:33:43Z</time>
      </trkpt>
      <trkpt lat="34.586786" lon="112.55782">
        <ele>140</ele>
        <time>2026-09-02T12:33:46Z</time>
      </trkpt>
      <trkpt lat="34.586705" lon="112.557787">
        <ele>140.1</ele>
        <time>2026-09-02T12:33:49Z</time>
      </trkpt>
      <trkpt lat="34.586656" lon="112.557781">
        <ele>140.1</ele>
        <time>2026-09-02T12:33:52Z</time>
      </trkpt>
      <trkpt lat="34.586537" lon="112.557788">
        <ele>140.1</ele>
        <time>2026-09-02T12:33:55Z</time>
      </trkpt>
      <trkpt lat="34.586448" lon="112.5578">
        <ele>140</ele>
        <time>2026-09-02T12:33:58Z</time>
      </trkpt>
      <trkpt lat="34.586357" lon="112.55781">
        <ele>140.1</ele>
        <time>2026-09-02T12:34:01Z</time>
      </trkpt>
      <trkpt lat="34.586304" lon="112.557816">
        <ele>140.1</ele>
        <time>2026-09-02T12:34:04Z</time>
      </trkpt>
      <trkpt lat="34.586191" lon="112.557816">
        <ele>140.2</ele>
        <time>2026-09-02T12:34:07Z</time>
      </trkpt>
      <trkpt lat="34.586099" lon="112.557816">
        <ele>140</ele>
        <time>2026-09-02T12:34:10Z</time>
      </trkpt>
      <trkpt lat="34.586017" lon="112.557818">
        <ele>140.2</ele>
        <time>2026-09-02T12:34:13Z</time>
      </trkpt>
      <trkpt lat="34.585982" lon="112.557822">
        <ele>140.2</ele>
        <time>2026-09-02T12:34:16Z</time>
      </trkpt>
      <trkpt lat="34.585875" lon="112.557819">
        <ele>140.2</ele>
        <time>2026-09-02T12:34:19Z</time>
      </trkpt>
      <trkpt lat="34.585796" lon="112.557825">
        <ele>140.1</ele>
        <time>2026-09-02T12:34:22Z</time>
      </trkpt>
      <trkpt lat="34.585711" lon="112.55785">
        <ele>140</ele>
        <time>2026-09-02T12:34:25Z</time>
      </trkpt>
      <trkpt lat="34.585638" lon="112.557895">
        <ele>140.1</ele>
        <time>2026-09-02T12:34:28Z</time>
      </trkpt>
      <trkpt lat="34.585574" lon="112.557959">
        <ele>140.1</ele>
        <time>2026-09-02T12:34:31Z</time>
      </trkpt>
      <trkpt lat="34.585522" lon="112.558039">
        <ele>140.2</ele>
        <time>2026-09-02T12:34:34Z</time>
      </trkpt>
      <trkpt lat="34.585495" lon="112.558102">
        <ele>140.1</ele>
        <time>2026-09-02T12:34:37Z</time>
      </trkpt>
      <trkpt lat="34.585464" lon="112.558228">
        <ele>140.2</ele>
        <time>2026-09-02T12:34:40Z</time>
      </trkpt>
      <trkpt lat="34.585462" lon="112.558325">
        <ele>140.2</ele>
        <time>2026-09-02T12:34:43Z</time>
      </trkpt>
      <trkpt lat="34.58547" lon="112.558378">
        <ele>140.3</ele>
        <time>2026-09-02T12:34:46Z</time>
      </trkpt>
      <trkpt lat="34.585488" lon="112.558469">
        <ele>140.3</ele>
        <time>2026-09-02T12:34:49Z</time>
      </trkpt>
      <trkpt lat="34.585536" lon="112.558568">
        <ele>140.1</ele>
        <time>2026-09-02T12:34:52Z</time>
      </trkpt>
      <trkpt lat="34.585617" lon="112.558667">
        <ele>140.3</ele>
        <time>2026-09-02T12:34:55Z</time>
      </trkpt>
      <trkpt lat="34.585675" lon="112.558708">
        <ele>140.1</ele>
        <time>2026-09-02T12:34:58Z</time>
      </trkpt>
      <trkpt lat="34.585753" lon="112.558744">
        <ele>140.1</ele>
        <time>2026-09-02T12:35:01Z</time>
      </trkpt>
      <trkpt lat="34.58584" lon="112.558762">
        <ele>140.1</ele>
        <time>2026-09-02T12:35:04Z</time>
      </trkpt>
      <trkpt lat="34.5859" lon="112.558764">
        <ele>140</ele>
        <time>2026-09-02T12:35:07Z</time>
      </trkpt>
      <trkpt lat="34.585971" lon="112.558758">
        <ele>140</ele>
        <time>2026-09-02T12:35:09Z</time>
      </trkpt>
      <trkpt lat="34.586028" lon="112.558752">
        <ele>140.1</ele>
        <time>2026-09-02T12:35:12Z</time>
      </trkpt>
      <trkpt lat="34.586095" lon="112.558747">
        <ele>140.3</ele>
        <time>2026-09-02T12:35:15Z</time>
      </trkpt>
      <trkpt lat="34.586174" lon="112.558746">
        <ele>140.1</ele>
        <time>2026-09-02T12:35:18Z</time>
      </trkpt>
      <trkpt lat="34.586253" lon="112.558744">
        <ele>140.1</ele>
        <time>2026-09-02T12:35:21Z</time>
      </trkpt>
      <trkpt lat="34.586344" lon="112.558742">
        <ele>140.2</ele>
        <time>2026-09-02T12:35:24Z</time>
      </trkpt>
      <trkpt lat="34.586423" lon="112.558744">
        <ele>140.2</ele>
        <time>2026-09-02T12:35:27Z</time>
      </trkpt>
      <trkpt lat="34.586512" lon="112.558741">
        <ele>140.1</ele>
        <time>2026-09-02T12:35:30Z</time>
      </trkpt>
      <trkpt lat="34.586607" lon="112.558741">
        <ele>140.2</ele>
        <time>2026-09-02T12:35:33Z</time>
      </trkpt>
      <trkpt lat="34.586681" lon="112.558736">
        <ele>140.1</ele>
        <time>2026-09-02T12:35:36Z</time>
      </trkpt>
      <trkpt lat="34.586754" lon="112.55872">
        <ele>140.1</ele>
        <time>2026-09-02T12:35:39Z</time>
      </trkpt>
      <trkpt lat="34.586828" lon="112.55869">
        <ele>140.2</ele>
        <time>2026-09-02T12:35:42Z</time>
      </trkpt>
      <trkpt lat="34.586909" lon="112.558624">
        <ele>140.1</ele>
        <time>2026-09-02T12:35:47Z</time>
      </trkpt>
      <trkpt lat="34.586963" lon="112.558557">
        <ele>140.1</ele>
        <time>2026-09-02T12:35:50Z</time>
      </trkpt>
      <trkpt lat="34.587003" lon="112.558478">
        <ele>140.1</ele>
        <time>2026-09-02T12:35:53Z</time>
      </trkpt>
      <trkpt lat="34.587027" lon="112.558399">
        <ele>140</ele>
        <time>2026-09-02T12:35:56Z</time>
      </trkpt>
      <trkpt lat="34.587038" lon="112.5583">
        <ele>139.9</ele>
        <time>2026-09-02T12:35:59Z</time>
      </trkpt>
      <trkpt lat="34.587038" lon="112.558219">
        <ele>140</ele>
        <time>2026-09-02T12:36:01Z</time>
      </trkpt>
      <trkpt lat="34.587025" lon="112.558143">
        <ele>139.9</ele>
        <time>2026-09-02T12:36:04Z</time>
      </trkpt>
      <trkpt lat="34.586993" lon="112.55805">
        <ele>139.9</ele>
        <time>2026-09-02T12:36:07Z</time>
      </trkpt>
      <trkpt lat="34.586945" lon="112.557967">
        <ele>139.9</ele>
        <time>2026-09-02T12:36:10Z</time>
      </trkpt>
      <trkpt lat="34.586871" lon="112.557881">
        <ele>139.9</ele>
        <time>2026-09-02T12:36:13Z</time>
      </trkpt>
      <trkpt lat="34.586785" lon="112.557818">
        <ele>139.8</ele>
        <time>2026-09-02T12:36:16Z</time>
      </trkpt>
      <trkpt lat="34.586699" lon="112.557783">
        <ele>139.8</ele>
        <time>2026-09-02T12:36:19Z</time>
      </trkpt>
      <trkpt lat="34.586614" lon="112.557779">
        <ele>139.9</ele>
        <time>2026-09-02T12:36:22Z</time>
      </trkpt>
      <trkpt lat="34.586529" lon="112.557785">
        <ele>139.8</ele>
        <time>2026-09-02T12:36:25Z</time>
      </trkpt>
      <trkpt lat="34.586447" lon="112.557797">
        <ele>139.8</ele>
        <time>2026-09-02T12:36:28Z</time>
      </trkpt>
      <trkpt lat="34.586373" lon="112.557808">
        <ele>139.8</ele>
        <time>2026-09-02T12:36:31Z</time>
      </trkpt>
      <trkpt lat="34.58629" lon="112.557814">
        <ele>139.9</ele>
        <time>2026-09-02T12:36:34Z</time>
      </trkpt>
      <trkpt lat="34.586222" lon="112.557816">
        <ele>139.8</ele>
        <time>2026-09-02T12:36:37Z</time>
      </trkpt>
      <trkpt lat="34.586168" lon="112.557814">
        <ele>139.8</ele>
        <time>2026-09-02T12:36:40Z</time>
      </trkpt>
      <trkpt lat="34.586067" lon="112.557819">
        <ele>139.6</ele>
        <time>2026-09-02T12:36:43Z</time>
      </trkpt>
      <trkpt lat="34.585993" lon="112.55782">
        <ele>139.6</ele>
        <time>2026-09-02T12:36:46Z</time>
      </trkpt>
      <trkpt lat="34.585911" lon="112.557815">
        <ele>139.6</ele>
        <time>2026-09-02T12:36:49Z</time>
      </trkpt>
      <trkpt lat="34.585859" lon="112.557816">
        <ele>139.7</ele>
        <time>2026-09-02T12:36:52Z</time>
      </trkpt>
      <trkpt lat="34.585753" lon="112.557835">
        <ele>139.7</ele>
        <time>2026-09-02T12:36:55Z</time>
      </trkpt>
      <trkpt lat="34.58567" lon="112.557873">
        <ele>139.8</ele>
        <time>2026-09-02T12:36:58Z</time>
      </trkpt>
      <trkpt lat="34.585592" lon="112.557939">
        <ele>139.8</ele>
        <time>2026-09-02T12:37:01Z</time>
      </trkpt>
      <trkpt lat="34.585535" lon="112.558016">
        <ele>140</ele>
        <time>2026-09-02T12:37:04Z</time>
      </trkpt>
      <trkpt lat="34.585491" lon="112.558108">
        <ele>139.9</ele>
        <time>2026-09-02T12:37:07Z</time>
      </trkpt>
      <trkpt lat="34.585466" lon="112.558205">
        <ele>139.9</ele>
        <time>2026-09-02T12:37:10Z</time>
      </trkpt>
      <trkpt lat="34.585462" lon="112.558276">
        <ele>139.8</ele>
        <time>2026-09-02T12:37:13Z</time>
      </trkpt>
      <trkpt lat="34.585473" lon="112.558399">
        <ele>139.8</ele>
        <time>2026-09-02T12:37:16Z</time>
      </trkpt>
      <trkpt lat="34.58549" lon="112.558475">
        <ele>139.8</ele>
        <time>2026-09-02T12:37:19Z</time>
      </trkpt>
      <trkpt lat="34.585531" lon="112.558563">
        <ele>139.7</ele>
        <time>2026-09-02T12:37:22Z</time>
      </trkpt>
      <trkpt lat="34.585561" lon="112.558609">
        <ele>139.8</ele>
        <time>2026-09-02T12:37:25Z</time>
      </trkpt>
      <trkpt lat="34.585648" lon="112.558693">
        <ele>139.7</ele>
        <time>2026-09-02T12:37:28Z</time>
      </trkpt>
      <trkpt lat="34.58572" lon="112.558733">
        <ele>139.8</ele>
        <time>2026-09-02T12:37:31Z</time>
      </trkpt>
      <trkpt lat="34.585772" lon="112.558753">
        <ele>139.8</ele>
        <time>2026-09-02T12:37:34Z</time>
      </trkpt>
      <trkpt lat="34.585863" lon="112.558763">
        <ele>139.8</ele>
        <time>2026-09-02T12:37:37Z</time>
      </trkpt>
      <trkpt lat="34.585928" lon="112.558759">
        <ele>139.8</ele>
        <time>2026-09-02T12:37:40Z</time>
      </trkpt>
      <trkpt lat="34.586006" lon="112.558752">
        <ele>139.7</ele>
        <time>2026-09-02T12:37:43Z</time>
      </trkpt>
      <trkpt lat="34.586078" lon="112.558746">
        <ele>139.7</ele>
        <time>2026-09-02T12:37:45Z</time>
      </trkpt>
      <trkpt lat="34.586148" lon="112.558743">
        <ele>139.9</ele>
        <time>2026-09-02T12:37:48Z</time>
      </trkpt>
      <trkpt lat="34.586229" lon="112.558742">
        <ele>139.8</ele>
        <time>2026-09-02T12:37:51Z</time>
      </trkpt>
      <trkpt lat="34.586302" lon="112.558741">
        <ele>139.8</ele>
        <time>2026-09-02T12:37:54Z</time>
      </trkpt>
      <trkpt lat="34.586385" lon="112.558742">
        <ele>139.8</ele>
        <time>2026-09-02T12:37:57Z</time>
      </trkpt>
      <trkpt lat="34.586457" lon="112.558743">
        <ele>139.7</ele>
        <time>2026-09-02T12:38:00Z</time>
      </trkpt>
      <trkpt lat="34.586538" lon="112.558741">
        <ele>139.6</ele>
        <time>2026-09-02T12:38:03Z</time>
      </trkpt>
      <trkpt lat="34.586618" lon="112.558742">
        <ele>139.7</ele>
        <time>2026-09-02T12:38:06Z</time>
      </trkpt>
      <trkpt lat="34.586674" lon="112.558737">
        <ele>139.5</ele>
        <time>2026-09-02T12:38:09Z</time>
      </trkpt>
      <trkpt lat="34.586763" lon="112.558717">
        <ele>139.7</ele>
        <time>2026-09-02T12:38:12Z</time>
      </trkpt>
      <trkpt lat="34.586836" lon="112.558685">
        <ele>139.7</ele>
        <time>2026-09-02T12:38:15Z</time>
      </trkpt>
      <trkpt lat="34.586899" lon="112.558632">
        <ele>139.7</ele>
        <time>2026-09-02T12:38:18Z</time>
      </trkpt>
      <trkpt lat="34.586978" lon="112.558533">
        <ele>139.6</ele>
        <time>2026-09-02T12:38:23Z</time>
      </trkpt>
      <trkpt lat="34.587017" lon="112.558436">
        <ele>139.5</ele>
        <time>2026-09-02T12:38:26Z</time>
      </trkpt>
      <trkpt lat="34.587036" lon="112.558331">
        <ele>139.6</ele>
        <time>2026-09-02T12:38:29Z</time>
      </trkpt>
      <trkpt lat="34.587035" lon="112.558212">
        <ele>139.5</ele>
        <time>2026-09-02T12:38:32Z</time>
      </trkpt>
      <trkpt lat="34.587013" lon="112.558104">
        <ele>139.5</ele>
        <time>2026-09-02T12:38:34Z</time>
      </trkpt>
      <trkpt lat="34.586965" lon="112.558001">
        <ele>139.6</ele>
        <time>2026-09-02T12:38:37Z</time>
      </trkpt>
      <trkpt lat="34.586917" lon="112.557932">
        <ele>139.6</ele>
        <time>2026-09-02T12:38:40Z</time>
      </trkpt>
      <trkpt lat="34.586861" lon="112.557873">
        <ele>139.5</ele>
        <time>2026-09-02T12:38:43Z</time>
      </trkpt>
      <trkpt lat="34.586794" lon="112.557823">
        <ele>139.4</ele>
        <time>2026-09-02T12:38:46Z</time>
      </trkpt>
      <trkpt lat="34.586722" lon="112.557791">
        <ele>139.3</ele>
        <time>2026-09-02T12:38:49Z</time>
      </trkpt>
      <trkpt lat="34.586632" lon="112.557778">
        <ele>139.5</ele>
        <time>2026-09-02T12:38:52Z</time>
      </trkpt>
      <trkpt lat="34.586548" lon="112.557785">
        <ele>139.5</ele>
        <time>2026-09-02T12:38:55Z</time>
      </trkpt>
      <trkpt lat="34.586468" lon="112.557795">
        <ele>139.5</ele>
        <time>2026-09-02T12:38:58Z</time>
      </trkpt>
      <trkpt lat="34.58638" lon="112.557806">
        <ele>139.5</ele>
        <time>2026-09-02T12:39:01Z</time>
      </trkpt>
      <trkpt lat="34.5863" lon="112.557814">
        <ele>139.5</ele>
        <time>2026-09-02T12:39:04Z</time>
      </trkpt>
      <trkpt lat="34.586226" lon="112.557814">
        <ele>139.7</ele>
        <time>2026-09-02T12:39:07Z</time>
      </trkpt>
      <trkpt lat="34.586145" lon="112.557817">
        <ele>139.6</ele>
        <time>2026-09-02T12:39:10Z</time>
      </trkpt>
      <trkpt lat="34.586085" lon="112.557813">
        <ele>139.6</ele>
        <time>2026-09-02T12:39:13Z</time>
      </trkpt>
      <trkpt lat="34.586025" lon="112.557816">
        <ele>139.6</ele>
        <time>2026-09-02T12:39:16Z</time>
      </trkpt>
      <trkpt lat="34.585936" lon="112.557813">
        <ele>139.5</ele>
        <time>2026-09-02T12:39:19Z</time>
      </trkpt>
      <trkpt lat="34.585861" lon="112.557815">
        <ele>139.6</ele>
        <time>2026-09-02T12:39:22Z</time>
      </trkpt>
      <trkpt lat="34.585781" lon="112.557824">
        <ele>139.6</ele>
        <time>2026-09-02T12:39:25Z</time>
      </trkpt>
      <trkpt lat="34.585737" lon="112.557839">
        <ele>139.5</ele>
        <time>2026-09-02T12:39:28Z</time>
      </trkpt>
      <trkpt lat="34.585647" lon="112.557887">
        <ele>139.5</ele>
        <time>2026-09-02T12:39:31Z</time>
      </trkpt>
      <trkpt lat="34.58558" lon="112.557949">
        <ele>139.5</ele>
        <time>2026-09-02T12:39:34Z</time>
      </trkpt>
      <trkpt lat="34.585526" lon="112.55803">
        <ele>139.5</ele>
        <time>2026-09-02T12:39:37Z</time>
      </trkpt>
      <trkpt lat="34.585485" lon="112.558125">
        <ele>139.5</ele>
        <time>2026-09-02T12:39:40Z</time>
      </trkpt>
      <trkpt lat="34.585466" lon="112.558219">
        <ele>139.5</ele>
        <time>2026-09-02T12:39:43Z</time>
      </trkpt>
      <trkpt lat="34.585463" lon="112.558318">
        <ele>139.5</ele>
        <time>2026-09-02T12:39:46Z</time>
      </trkpt>
      <trkpt lat="34.58548" lon="112.55843">
        <ele>139.5</ele>
        <time>2026-09-02T12:39:49Z</time>
      </trkpt>
      <trkpt lat="34.585494" lon="112.558491">
        <ele>139.5</ele>
        <time>2026-09-02T12:39:52Z</time>
      </trkpt>
      <trkpt lat="34.585552" lon="112.558594">
        <ele>139.5</ele>
        <time>2026-09-02T12:39:55Z</time>
      </trkpt>
      <trkpt lat="34.585609" lon="112.558663">
        <ele>139.5</ele>
        <time>2026-09-02T12:39:58Z</time>
      </trkpt>
      <trkpt lat="34.585654" lon="112.558698">
        <ele>139.4</ele>
        <time>2026-09-02T12:40:01Z</time>
      </trkpt>
      <trkpt lat="34.585752" lon="112.558745">
        <ele>139.3</ele>
        <time>2026-09-02T12:40:04Z</time>
      </trkpt>
      <trkpt lat="34.585833" lon="112.558762">
        <ele>139.4</ele>
        <time>2026-09-02T12:40:07Z</time>
      </trkpt>
      <trkpt lat="34.585912" lon="112.558762">
        <ele>139.5</ele>
        <time>2026-09-02T12:40:10Z</time>
      </trkpt>
      <trkpt lat="34.585957" lon="112.55876">
        <ele>139.4</ele>
        <time>2026-09-02T12:40:13Z</time>
      </trkpt>
      <trkpt lat="34.586066" lon="112.558749">
        <ele>139.5</ele>
        <time>2026-09-02T12:40:16Z</time>
      </trkpt>
      <trkpt lat="34.586142" lon="112.558745">
        <ele>139.5</ele>
        <time>2026-09-02T12:40:19Z</time>
      </trkpt>
      <trkpt lat="34.586221" lon="112.558741">
        <ele>139.4</ele>
        <time>2026-09-02T12:40:22Z</time>
      </trkpt>
      <trkpt lat="34.586267" lon="112.558742">
        <ele>139.3</ele>
        <time>2026-09-02T12:40:25Z</time>
      </trkpt>
      <trkpt lat="34.58635" lon="112.558742">
        <ele>139.4</ele>
        <time>2026-09-02T12:40:28Z</time>
      </trkpt>
      <trkpt lat="34.586443" lon="112.558744">
        <ele>139.5</ele>
        <time>2026-09-02T12:40:31Z</time>
      </trkpt>
      <trkpt lat="34.586524" lon="112.558741">
        <ele>139.5</ele>
        <time>2026-09-02T12:40:33Z</time>
      </trkpt>
      <trkpt lat="34.586593" lon="112.55874">
        <ele>139.5</ele>
        <time>2026-09-02T12:40:36Z</time>
      </trkpt>
      <trkpt lat="34.586663" lon="112.558738">
        <ele>139.4</ele>
        <time>2026-09-02T12:40:39Z</time>
      </trkpt>
      <trkpt lat="34.586744" lon="112.558723">
        <ele>139.4</ele>
        <time>2026-09-02T12:40:42Z</time>
      </trkpt>
      <trkpt lat="34.586819" lon="112.558693">
        <ele>139.7</ele>
        <time>2026-09-02T12:40:45Z</time>
      </trkpt>
      <trkpt lat="34.586888" lon="112.558643">
        <ele>139.4</ele>
        <time>2026-09-02T12:40:48Z</time>
      </trkpt>
      <trkpt lat="34.586948" lon="112.558579">
        <ele>139.4</ele>
        <time>2026-09-02T12:40:51Z</time>
      </trkpt>
      <trkpt lat="34.586997" lon="112.558492">
        <ele>139.4</ele>
        <time>2026-09-02T12:40:54Z</time>
      </trkpt>
      <trkpt lat="34.587031" lon="112.558378">
        <ele>139.4</ele>
        <time>2026-09-02T12:40:57Z</time>
      </trkpt>
      <trkpt lat="34.587038" lon="112.558281">
        <ele>139.3</ele>
        <time>2026-09-02T12:41:00Z</time>
      </trkpt>
      <trkpt lat="34.587031" lon="112.55818">
        <ele>139.4</ele>
        <time>2026-09-02T12:41:03Z</time>
      </trkpt>
      <trkpt lat="34.587012" lon="112.558098">
        <ele>139.3</ele>
        <time>2026-09-02T12:41:06Z</time>
      </trkpt>
      <trkpt lat="34.586958" lon="112.557986">
        <ele>139.3</ele>
        <time>2026-09-02T12:41:11Z</time>
      </trkpt>
      <trkpt lat="34.586894" lon="112.557905">
        <ele>139.2</ele>
        <time>2026-09-02T12:41:14Z</time>
      </trkpt>
      <trkpt lat="34.586819" lon="112.55784">
        <ele>139.1</ele>
        <time>2026-09-02T12:41:17Z</time>
      </trkpt>
      <trkpt lat="34.586744" lon="112.557796">
        <ele>139.1</ele>
        <time>2026-09-02T12:41:20Z</time>
      </trkpt>
      <trkpt lat="34.58666" lon="112.55778">
        <ele>139</ele>
        <time>2026-09-02T12:41:23Z</time>
      </trkpt>
      <trkpt lat="34.586582" lon="112.557779">
        <ele>139.1</ele>
        <time>2026-09-02T12:41:25Z</time>
      </trkpt>
      <trkpt lat="34.5865" lon="112.55779">
        <ele>139.1</ele>
        <time>2026-09-02T12:41:28Z</time>
      </trkpt>
      <trkpt lat="34.586424" lon="112.557799">
        <ele>139.2</ele>
        <time>2026-09-02T12:41:31Z</time>
      </trkpt>
      <trkpt lat="34.586352" lon="112.557809">
        <ele>139.1</ele>
        <time>2026-09-02T12:41:34Z</time>
      </trkpt>
      <trkpt lat="34.586275" lon="112.557811">
        <ele>139.1</ele>
        <time>2026-09-02T12:41:37Z</time>
      </trkpt>
      <trkpt lat="34.586202" lon="112.557815">
        <ele>139</ele>
        <time>2026-09-02T12:41:40Z</time>
      </trkpt>
      <trkpt lat="34.586125" lon="112.557815">
        <ele>139.1</ele>
        <time>2026-09-02T12:41:43Z</time>
      </trkpt>
      <trkpt lat="34.586049" lon="112.557816">
        <ele>139.2</ele>
        <time>2026-09-02T12:41:46Z</time>
      </trkpt>
      <trkpt lat="34.585955" lon="112.557816">
        <ele>139.2</ele>
        <time>2026-09-02T12:41:49Z</time>
      </trkpt>
      <trkpt lat="34.585875" lon="112.557815">
        <ele>139.2</ele>
        <time>2026-09-02T12:41:52Z</time>
      </trkpt>
      <trkpt lat="34.5858" lon="112.557822">
        <ele>139.2</ele>
        <time>2026-09-02T12:41:55Z</time>
      </trkpt>
      <trkpt lat="34.585726" lon="112.557843">
        <ele>139.1</ele>
        <time>2026-09-02T12:41:58Z</time>
      </trkpt>
      <trkpt lat="34.585654" lon="112.557883">
        <ele>139.1</ele>
        <time>2026-09-02T12:42:01Z</time>
      </trkpt>
      <trkpt lat="34.585611" lon="112.557917">
        <ele>139.3</ele>
        <time>2026-09-02T12:42:04Z</time>
      </trkpt>
      <trkpt lat="34.585537" lon="112.55801">
        <ele>139.4</ele>
        <time>2026-09-02T12:42:07Z</time>
      </trkpt>
      <trkpt lat="34.5855" lon="112.558084">
        <ele>139.3</ele>
        <time>2026-09-02T12:42:10Z</time>
      </trkpt>
      <trkpt lat="34.585473" lon="112.558177">
        <ele>139.2</ele>
        <time>2026-09-02T12:42:13Z</time>
      </trkpt>
      <trkpt lat="34.585463" lon="112.558264">
        <ele>139.1</ele>
        <time>2026-09-02T12:42:16Z</time>
      </trkpt>
      <trkpt lat="34.585467" lon="112.558353">
        <ele>139.3</ele>
        <time>2026-09-02T12:42:19Z</time>
      </trkpt>
      <trkpt lat="34.585485" lon="112.558453">
        <ele>139.2</ele>
        <time>2026-09-02T12:42:22Z</time>
      </trkpt>
      <trkpt lat="34.585522" lon="112.558546">
        <ele>139.1</ele>
        <time>2026-09-02T12:42:25Z</time>
      </trkpt>
      <trkpt lat="34.585572" lon="112.558621">
        <ele>139.1</ele>
        <time>2026-09-02T12:42:28Z</time>
      </trkpt>
      <trkpt lat="34.585638" lon="112.558688">
        <ele>139.1</ele>
        <time>2026-09-02T12:42:31Z</time>
      </trkpt>
      <trkpt lat="34.585706" lon="112.558728">
        <ele>139.1</ele>
        <time>2026-09-02T12:42:34Z</time>
      </trkpt>
      <trkpt lat="34.585767" lon="112.558749">
        <ele>139</ele>
        <time>2026-09-02T12:42:37Z</time>
      </trkpt>
      <trkpt lat="34.58587" lon="112.558763">
        <ele>138.9</ele>
        <time>2026-09-02T12:42:40Z</time>
      </trkpt>
      <trkpt lat="34.585948" lon="112.558758">
        <ele>139</ele>
        <time>2026-09-02T12:42:43Z</time>
      </trkpt>
      <trkpt lat="34.586028" lon="112.55875">
        <ele>139.2</ele>
        <time>2026-09-02T12:42:46Z</time>
      </trkpt>
      <trkpt lat="34.586085" lon="112.558745">
        <ele>139</ele>
        <time>2026-09-02T12:42:49Z</time>
      </trkpt>
      <trkpt lat="34.586188" lon="112.558743">
        <ele>139</ele>
        <time>2026-09-02T12:42:52Z</time>
      </trkpt>
      <trkpt lat="34.586275" lon="112.55874">
        <ele>138.9</ele>
        <time>2026-09-02T12:42:55Z</time>
      </trkpt>
      <trkpt lat="34.586322" lon="112.558739">
        <ele>138.8</ele>
        <time>2026-09-02T12:42:58Z</time>
      </trkpt>
      <trkpt lat="34.586405" lon="112.558744">
        <ele>138.9</ele>
        <time>2026-09-02T12:43:01Z</time>
      </trkpt>
      <trkpt lat="34.586483" lon="112.558741">
        <ele>138.9</ele>
        <time>2026-09-02T12:43:04Z</time>
      </trkpt>
      <trkpt lat="34.586561" lon="112.558741">
        <ele>138.9</ele>
        <time>2026-09-02T12:43:06Z</time>
      </trkpt>
      <trkpt lat="34.586642" lon="112.558739">
        <ele>138.8</ele>
        <time>2026-09-02T12:43:09Z</time>
      </trkpt>
      <trkpt lat="34.586713" lon="112.55873">
        <ele>138.9</ele>
        <time>2026-09-02T12:43:12Z</time>
      </trkpt>
      <trkpt lat="34.586791" lon="112.558708">
        <ele>138.8</ele>
        <time>2026-09-02T12:43:15Z</time>
      </trkpt>
      <trkpt lat="34.586864" lon="112.558664">
        <ele>138.9</ele>
        <time>2026-09-02T12:43:18Z</time>
      </trkpt>
      <trkpt lat="34.586918" lon="112.558615">
        <ele>139.1</ele>
        <time>2026-09-02T12:43:21Z</time>
      </trkpt>
      <trkpt lat="34.58697" lon="112.558546">
        <ele>139</ele>
        <time>2026-09-02T12:43:24Z</time>
      </trkpt>
      <trkpt lat="34.587009" lon="112.558464">
        <ele>138.9</ele>
        <time>2026-09-02T12:43:27Z</time>
      </trkpt>
      <trkpt lat="34.587032" lon="112.558367">
        <ele>138.9</ele>
        <time>2026-09-02T12:43:30Z</time>
      </trkpt>
      <trkpt lat="34.587038" lon="112.558267">
        <ele>138.9</ele>
        <time>2026-09-02T12:43:33Z</time>
      </trkpt>
      <trkpt lat="34.58703" lon="112.558173">
        <ele>138.9</ele>
        <time>2026-09-02T12:43:36Z</time>
      </trkpt>
      <trkpt lat="34.58701" lon="112.558094">
        <ele>138.9</ele>
        <time>2026-09-02T12:43:39Z</time>
      </trkpt>
      <trkpt lat="34.58694" lon="112.557961">
        <ele>138.7</ele>
        <time>2026-09-02T12:43:44Z</time>
      </trkpt>
      <trkpt lat="34.586879" lon="112.557889">
        <ele>138.7</ele>
        <time>2026-09-02T12:43:47Z</time>
      </trkpt>
      <trkpt lat="34.586803" lon="112.55783">
        <ele>138.8</ele>
        <time>2026-09-02T12:43:50Z</time>
      </trkpt>
      <trkpt lat="34.586733" lon="112.557795">
        <ele>138.7</ele>
        <time>2026-09-02T12:43:53Z</time>
      </trkpt>
      <trkpt lat="34.586648" lon="112.55778">
        <ele>138.7</ele>
        <time>2026-09-02T12:43:56Z</time>
      </trkpt>
      <trkpt lat="34.58657" lon="112.557783">
        <ele>138.8</ele>
        <time>2026-09-02T12:43:58Z</time>
      </trkpt>
      <trkpt lat="34.586488" lon="112.557792">
        <ele>138.8</ele>
        <time>2026-09-02T12:44:01Z</time>
      </trkpt>
      <trkpt lat="34.586404" lon="112.557805">
        <ele>138.8</ele>
        <time>2026-09-02T12:44:04Z</time>
      </trkpt>
      <trkpt lat="34.586326" lon="112.557811">
        <ele>138.7</ele>
        <time>2026-09-02T12:44:07Z</time>
      </trkpt>
      <trkpt lat="34.586244" lon="112.557814">
        <ele>138.7</ele>
        <time>2026-09-02T12:44:10Z</time>
      </trkpt>
      <trkpt lat="34.586178" lon="112.557813">
        <ele>138.7</ele>
        <time>2026-09-02T12:44:13Z</time>
      </trkpt>
      <trkpt lat="34.586112" lon="112.557814">
        <ele>138.7</ele>
        <time>2026-09-02T12:44:16Z</time>
      </trkpt>
      <trkpt lat="34.58604" lon="112.557818">
        <ele>138.6</ele>
        <time>2026-09-02T12:44:19Z</time>
      </trkpt>
      <trkpt lat="34.585978" lon="112.557817">
        <ele>138.7</ele>
        <time>2026-09-02T12:44:22Z</time>
      </trkpt>
      <trkpt lat="34.5859" lon="112.557815">
        <ele>138.7</ele>
        <time>2026-09-02T12:44:25Z</time>
      </trkpt>
      <trkpt lat="34.585823" lon="112.55782">
        <ele>138.7</ele>
        <time>2026-09-02T12:44:28Z</time>
      </trkpt>
      <trkpt lat="34.585753" lon="112.557833">
        <ele>138.8</ele>
        <time>2026-09-02T12:44:31Z</time>
      </trkpt>
      <trkpt lat="34.585684" lon="112.557863">
        <ele>138.7</ele>
        <time>2026-09-02T12:44:34Z</time>
      </trkpt>
      <trkpt lat="34.585616" lon="112.557912">
        <ele>138.6</ele>
        <time>2026-09-02T12:44:37Z</time>
      </trkpt>
      <trkpt lat="34.585576" lon="112.557954">
        <ele>138.6</ele>
        <time>2026-09-02T12:44:40Z</time>
      </trkpt>
      <trkpt lat="34.58551" lon="112.558062">
        <ele>138.7</ele>
        <time>2026-09-02T12:44:43Z</time>
      </trkpt>
      <trkpt lat="34.585477" lon="112.558166">
        <ele>138.8</ele>
        <time>2026-09-02T12:44:46Z</time>
      </trkpt>
      <trkpt lat="34.585462" lon="112.55827">
        <ele>138.7</ele>
        <time>2026-09-02T12:44:49Z</time>
      </trkpt>
      <trkpt lat="34.585464" lon="112.558336">
        <ele>138.7</ele>
        <time>2026-09-02T12:44:52Z</time>
      </trkpt>
      <trkpt lat="34.585487" lon="112.558461">
        <ele>138.6</ele>
        <time>2026-09-02T12:44:55Z</time>
      </trkpt>
      <trkpt lat="34.585526" lon="112.558554">
        <ele>138.6</ele>
        <time>2026-09-02T12:44:58Z</time>
      </trkpt>
      <trkpt lat="34.585582" lon="112.558632">
        <ele>138.7</ele>
        <time>2026-09-02T12:45:01Z</time>
      </trkpt>
      <trkpt lat="34.585625" lon="112.558677">
        <ele>138.6</ele>
        <time>2026-09-02T12:45:04Z</time>
      </trkpt>
      <trkpt lat="34.585711" lon="112.55873">
        <ele>138.5</ele>
        <time>2026-09-02T12:45:07Z</time>
      </trkpt>
      <trkpt lat="34.585787" lon="112.558755">
        <ele>138.5</ele>
        <time>2026-09-02T12:45:10Z</time>
      </trkpt>
      <trkpt lat="34.585878" lon="112.558761">
        <ele>138.6</ele>
        <time>2026-09-02T12:45:13Z</time>
      </trkpt>
      <trkpt lat="34.585959" lon="112.558757">
        <ele>138.6</ele>
        <time>2026-09-02T12:45:16Z</time>
      </trkpt>
      <trkpt lat="34.586041" lon="112.558749">
        <ele>138.6</ele>
        <time>2026-09-02T12:45:19Z</time>
      </trkpt>
      <trkpt lat="34.58611" lon="112.558743">
        <ele>138.6</ele>
        <time>2026-09-02T12:45:22Z</time>
      </trkpt>
      <trkpt lat="34.586165" lon="112.55874">
        <ele>138.7</ele>
        <time>2026-09-02T12:45:25Z</time>
      </trkpt>
      <trkpt lat="34.586272" lon="112.558741">
        <ele>138.7</ele>
        <time>2026-09-02T12:45:28Z</time>
      </trkpt>
      <trkpt lat="34.586316" lon="112.558739">
        <ele>138.4</ele>
        <time>2026-09-02T12:45:31Z</time>
      </trkpt>
      <trkpt lat="34.586397" lon="112.558743">
        <ele>138.4</ele>
        <time>2026-09-02T12:45:34Z</time>
      </trkpt>
      <trkpt lat="34.586473" lon="112.558742">
        <ele>138.4</ele>
        <time>2026-09-02T12:45:36Z</time>
      </trkpt>
      <trkpt lat="34.586542" lon="112.55874">
        <ele>138.2</ele>
        <time>2026-09-02T12:45:39Z</time>
      </trkpt>
      <trkpt lat="34.586621" lon="112.558742">
        <ele>138.3</ele>
        <time>2026-09-02T12:45:42Z</time>
      </trkpt>
      <trkpt lat="34.586703" lon="112.558732">
        <ele>138.4</ele>
        <time>2026-09-02T12:45:45Z</time>
      </trkpt>
      <trkpt lat="34.586772" lon="112.558714">
        <ele>138.3</ele>
        <time>2026-09-02T12:45:48Z</time>
      </trkpt>
      <trkpt lat="34.586844" lon="112.558678">
        <ele>138.5</ele>
        <time>2026-09-02T12:45:51Z</time>
      </trkpt>
      <trkpt lat="34.586913" lon="112.55862">
        <ele>138.2</ele>
        <time>2026-09-02T12:45:54Z</time>
      </trkpt>
      <trkpt lat="34.586973" lon="112.558542">
        <ele>138.3</ele>
        <time>2026-09-02T12:45:57Z</time>
      </trkpt>
      <trkpt lat="34.58701" lon="112.558459">
        <ele>138.3</ele>
        <time>2026-09-02T12:46:00Z</time>
      </trkpt>
      <trkpt lat="34.587032" lon="112.558362">
        <ele>138.2</ele>
        <time>2026-09-02T12:46:03Z</time>
      </trkpt>
      <trkpt lat="34.587037" lon="112.558261">
        <ele>138.3</ele>
        <time>2026-09-02T12:46:06Z</time>
      </trkpt>
      <trkpt lat="34.587033" lon="112.558199">
        <ele>138.2</ele>
        <time>2026-09-02T12:46:09Z</time>
      </trkpt>
      <trkpt lat="34.587006" lon="112.558085">
        <ele>138.3</ele>
        <time>2026-09-02T12:46:12Z</time>
      </trkpt>
      <trkpt lat="34.586927" lon="112.557946">
        <ele>138.2</ele>
        <time>2026-09-02T12:46:17Z</time>
      </trkpt>
      <trkpt lat="34.586868" lon="112.557877">
        <ele>138.2</ele>
        <time>2026-09-02T12:46:20Z</time>
      </trkpt>
      <trkpt lat="34.586802" lon="112.557828">
        <ele>138.2</ele>
        <time>2026-09-02T12:46:23Z</time>
      </trkpt>
      <trkpt lat="34.586748" lon="112.557798">
        <ele>138.2</ele>
        <time>2026-09-02T12:46:26Z</time>
      </trkpt>
      <trkpt lat="34.586691" lon="112.557782">
        <ele>138.2</ele>
        <time>2026-09-02T12:46:27Z</time>
      </trkpt>
      <trkpt lat="34.58662" lon="112.557778">
        <ele>138.2</ele>
        <time>2026-09-02T12:46:30Z</time>
      </trkpt>
      <trkpt lat="34.586533" lon="112.557786">
        <ele>138.2</ele>
        <time>2026-09-02T12:46:33Z</time>
      </trkpt>
      <trkpt lat="34.586411" lon="112.557804">
        <ele>138.2</ele>
        <time>2026-09-02T12:46:38Z</time>
      </trkpt>
      <trkpt lat="34.586334" lon="112.557809">
        <ele>138.2</ele>
        <time>2026-09-02T12:46:41Z</time>
      </trkpt>
      <trkpt lat="34.586266" lon="112.557811">
        <ele>138.3</ele>
        <time>2026-09-02T12:46:44Z</time>
      </trkpt>
      <trkpt lat="34.586195" lon="112.557813">
        <ele>138.3</ele>
        <time>2026-09-02T12:46:47Z</time>
      </trkpt>
      <trkpt lat="34.586128" lon="112.557815">
        <ele>138.3</ele>
        <time>2026-09-02T12:46:50Z</time>
      </trkpt>
      <trkpt lat="34.586053" lon="112.557816">
        <ele>138.2</ele>
        <time>2026-09-02T12:46:52Z</time>
      </trkpt>
      <trkpt lat="34.585964" lon="112.557816">
        <ele>138.1</ele>
        <time>2026-09-02T12:46:55Z</time>
      </trkpt>
      <trkpt lat="34.585878" lon="112.557814">
        <ele>138.2</ele>
        <time>2026-09-02T12:46:58Z</time>
      </trkpt>
      <trkpt lat="34.585793" lon="112.557823">
        <ele>138.1</ele>
        <time>2026-09-02T12:47:01Z</time>
      </trkpt>
      <trkpt lat="34.585699" lon="112.557855">
        <ele>138.1</ele>
        <time>2026-09-02T12:47:04Z</time>
      </trkpt>
      <trkpt lat="34.585623" lon="112.557905">
        <ele>138.1</ele>
        <time>2026-09-02T12:47:07Z</time>
      </trkpt>
      <trkpt lat="34.585556" lon="112.557984">
        <ele>138.2</ele>
        <time>2026-09-02T12:47:10Z</time>
      </trkpt>
      <trkpt lat="34.585514" lon="112.558057">
        <ele>138.3</ele>
        <time>2026-09-02T12:47:13Z</time>
      </trkpt>
      <trkpt lat="34.585483" lon="112.558133">
        <ele>138.2</ele>
        <time>2026-09-02T12:47:16Z</time>
      </trkpt>
      <trkpt lat="34.585464" lon="112.55824">
        <ele>138.2</ele>
        <time>2026-09-02T12:47:19Z</time>
      </trkpt>
      <trkpt lat="34.585466" lon="112.558345">
        <ele>138.1</ele>
        <time>2026-09-02T12:47:22Z</time>
      </trkpt>
      <trkpt lat="34.585485" lon="112.558446">
        <ele>138.1</ele>
        <time>2026-09-02T12:47:25Z</time>
      </trkpt>
      <trkpt lat="34.585522" lon="112.558541">
        <ele>138</ele>
        <time>2026-09-02T12:47:28Z</time>
      </trkpt>
      <trkpt lat="34.585573" lon="112.558618">
        <ele>138</ele>
        <time>2026-09-02T12:47:31Z</time>
      </trkpt>
      <trkpt lat="34.585641" lon="112.558686">
        <ele>138</ele>
        <time>2026-09-02T12:47:34Z</time>
      </trkpt>
      <trkpt lat="34.585722" lon="112.558733">
        <ele>138</ele>
        <time>2026-09-02T12:47:37Z</time>
      </trkpt>
      <trkpt lat="34.585815" lon="112.558756">
        <ele>138</ele>
        <time>2026-09-02T12:47:40Z</time>
      </trkpt>
      <trkpt lat="34.585889" lon="112.558761">
        <ele>138</ele>
        <time>2026-09-02T12:47:43Z</time>
      </trkpt>
      <trkpt lat="34.585971" lon="112.558756">
        <ele>138</ele>
        <time>2026-09-02T12:47:46Z</time>
      </trkpt>
      <trkpt lat="34.586048" lon="112.558747">
        <ele>138</ele>
        <time>2026-09-02T12:47:49Z</time>
      </trkpt>
      <trkpt lat="34.586116" lon="112.558744">
        <ele>137.9</ele>
        <time>2026-09-02T12:47:52Z</time>
      </trkpt>
      <trkpt lat="34.586197" lon="112.558742">
        <ele>137.9</ele>
        <time>2026-09-02T12:47:55Z</time>
      </trkpt>
      <trkpt lat="34.586281" lon="112.55874">
        <ele>137.9</ele>
        <time>2026-09-02T12:47:58Z</time>
      </trkpt>
      <trkpt lat="34.586336" lon="112.558739">
        <ele>137.9</ele>
        <time>2026-09-02T12:48:01Z</time>
      </trkpt>
      <trkpt lat="34.586436" lon="112.558743">
        <ele>137.8</ele>
        <time>2026-09-02T12:48:04Z</time>
      </trkpt>
      <trkpt lat="34.586513" lon="112.558741">
        <ele>138</ele>
        <time>2026-09-02T12:48:07Z</time>
      </trkpt>
      <trkpt lat="34.586577" lon="112.558739">
        <ele>138</ele>
        <time>2026-09-02T12:48:10Z</time>
      </trkpt>
      <trkpt lat="34.586653" lon="112.558737">
        <ele>138</ele>
        <time>2026-09-02T12:48:13Z</time>
      </trkpt>
      <trkpt lat="34.586719" lon="112.558729">
        <ele>138.1</ele>
        <time>2026-09-02T12:48:16Z</time>
      </trkpt>
      <trkpt lat="34.586795" lon="112.558705">
        <ele>138.2</ele>
        <time>2026-09-02T12:48:19Z</time>
      </trkpt>
      <trkpt lat="34.586852" lon="112.558674">
        <ele>138.1</ele>
        <time>2026-09-02T12:48:22Z</time>
      </trkpt>
      <trkpt lat="34.586905" lon="112.558627">
        <ele>138.1</ele>
        <time>2026-09-02T12:48:25Z</time>
      </trkpt>
      <trkpt lat="34.58696" lon="112.558562">
        <ele>138.2</ele>
        <time>2026-09-02T12:48:28Z</time>
      </trkpt>
      <trkpt lat="34.587001" lon="112.558483">
        <ele>138</ele>
        <time>2026-09-02T12:48:31Z</time>
      </trkpt>
      <trkpt lat="34.58703" lon="112.558384">
        <ele>137.9</ele>
        <time>2026-09-02T12:48:34Z</time>
      </trkpt>
      <trkpt lat="34.587038" lon="112.558274">
        <ele>137.8</ele>
        <time>2026-09-02T12:48:37Z</time>
      </trkpt>
      <trkpt lat="34.587028" lon="112.55816">
        <ele>137.8</ele>
        <time>2026-09-02T12:48:40Z</time>
      </trkpt>
      <trkpt lat="34.587009" lon="112.558088">
        <ele>137.8</ele>
        <time>2026-09-02T12:48:43Z</time>
      </trkpt>
      <trkpt lat="34.586974" lon="112.558011">
        <ele>137.7</ele>
        <time>2026-09-02T12:48:46Z</time>
      </trkpt>
      <trkpt lat="34.586907" lon="112.557919">
        <ele>137.8</ele>
        <time>2026-09-02T12:48:49Z</time>
      </trkpt>
      <trkpt lat="34.586839" lon="112.557856">
        <ele>137.9</ele>
        <time>2026-09-02T12:48:52Z</time>
      </trkpt>
      <trkpt lat="34.586769" lon="112.55781">
        <ele>137.9</ele>
        <time>2026-09-02T12:48:55Z</time>
      </trkpt>
      <trkpt lat="34.586721" lon="112.557789">
        <ele>138</ele>
        <time>2026-09-02T12:48:58Z</time>
      </trkpt>
      <trkpt lat="34.586597" lon="112.557779">
        <ele>138</ele>
        <time>2026-09-02T12:49:01Z</time>
      </trkpt>
      <trkpt lat="34.586512" lon="112.557788">
        <ele>138</ele>
        <time>2026-09-02T12:49:04Z</time>
      </trkpt>
      <trkpt lat="34.586431" lon="112.557799">
        <ele>137.8</ele>
        <time>2026-09-02T12:49:07Z</time>
      </trkpt>
      <trkpt lat="34.586386" lon="112.557806">
        <ele>137.7</ele>
        <time>2026-09-02T12:49:10Z</time>
      </trkpt>
      <trkpt lat="34.586281" lon="112.557812">
        <ele>137.7</ele>
        <time>2026-09-02T12:49:13Z</time>
      </trkpt>
      <trkpt lat="34.586208" lon="112.557816">
        <ele>137.7</ele>
        <time>2026-09-02T12:49:16Z</time>
      </trkpt>
      <trkpt lat="34.586149" lon="112.557815">
        <ele>138</ele>
        <time>2026-09-02T12:49:19Z</time>
      </trkpt>
      <trkpt lat="34.586071" lon="112.557816">
        <ele>137.9</ele>
        <time>2026-09-02T12:49:22Z</time>
      </trkpt>
      <trkpt lat="34.585995" lon="112.557816">
        <ele>137.9</ele>
        <time>2026-09-02T12:49:25Z</time>
      </trkpt>
      <trkpt lat="34.585913" lon="112.557814">
        <ele>138</ele>
        <time>2026-09-02T12:49:28Z</time>
      </trkpt>
      <trkpt lat="34.585837" lon="112.557818">
        <ele>137.9</ele>
        <time>2026-09-02T12:49:31Z</time>
      </trkpt>
      <trkpt lat="34.585763" lon="112.557831">
        <ele>137.9</ele>
        <time>2026-09-02T12:49:33Z</time>
      </trkpt>
      <trkpt lat="34.585684" lon="112.557865">
        <ele>137.7</ele>
        <time>2026-09-02T12:49:36Z</time>
      </trkpt>
      <trkpt lat="34.585605" lon="112.557924">
        <ele>137.6</ele>
        <time>2026-09-02T12:49:39Z</time>
      </trkpt>
      <trkpt lat="34.585548" lon="112.557995">
        <ele>137.6</ele>
        <time>2026-09-02T12:49:42Z</time>
      </trkpt>
      <trkpt lat="34.585499" lon="112.558089">
        <ele>137.7</ele>
        <time>2026-09-02T12:49:45Z</time>
      </trkpt>
      <trkpt lat="34.585471" lon="112.558189">
        <ele>137.8</ele>
        <time>2026-09-02T12:49:48Z</time>
      </trkpt>
      <trkpt lat="34.585463" lon="112.558299">
        <ele>137.8</ele>
        <time>2026-09-02T12:49:51Z</time>
      </trkpt>
      <trkpt lat="34.585475" lon="112.558407">
        <ele>137.9</ele>
        <time>2026-09-02T12:49:54Z</time>
      </trkpt>
      <trkpt lat="34.585493" lon="112.558484">
        <ele>137.7</ele>
        <time>2026-09-02T12:49:57Z</time>
      </trkpt>
      <trkpt lat="34.585542" lon="112.558579">
        <ele>137.6</ele>
        <time>2026-09-02T12:50:00Z</time>
      </trkpt>
      <trkpt lat="34.585594" lon="112.558646">
        <ele>137.7</ele>
        <time>2026-09-02T12:50:03Z</time>
      </trkpt>
      <trkpt lat="34.58567" lon="112.558706">
        <ele>137.7</ele>
        <time>2026-09-02T12:50:06Z</time>
      </trkpt>
      <trkpt lat="34.585734" lon="112.558739">
        <ele>137.7</ele>
        <time>2026-09-02T12:50:09Z</time>
      </trkpt>
      <trkpt lat="34.585828" lon="112.558759">
        <ele>137.8</ele>
        <time>2026-09-02T12:50:12Z</time>
      </trkpt>
      <trkpt lat="34.585911" lon="112.558761">
        <ele>137.7</ele>
        <time>2026-09-02T12:50:15Z</time>
      </trkpt>
      <trkpt lat="34.585989" lon="112.558754">
        <ele>137.7</ele>
        <time>2026-09-02T12:50:18Z</time>
      </trkpt>
      <trkpt lat="34.586069" lon="112.558746">
        <ele>137.7</ele>
        <time>2026-09-02T12:50:21Z</time>
      </trkpt>
      <trkpt lat="34.58617" lon="112.558742">
        <ele>137.8</ele>
        <time>2026-09-02T12:50:26Z</time>
      </trkpt>
      <trkpt lat="34.586247" lon="112.55874">
        <ele>137.8</ele>
        <time>2026-09-02T12:50:29Z</time>
      </trkpt>
      <trkpt lat="34.586327" lon="112.558739">
        <ele>137.8</ele>
        <time>2026-09-02T12:50:32Z</time>
      </trkpt>
      <trkpt lat="34.586411" lon="112.558743">
        <ele>137.7</ele>
        <time>2026-09-02T12:50:35Z</time>
      </trkpt>
      <trkpt lat="34.586488" lon="112.55874">
        <ele>137.8</ele>
        <time>2026-09-02T12:50:38Z</time>
      </trkpt>
      <trkpt lat="34.586555" lon="112.558741">
        <ele>137.9</ele>
        <time>2026-09-02T12:50:40Z</time>
      </trkpt>
      <trkpt lat="34.58663" lon="112.558741">
        <ele>137.8</ele>
        <time>2026-09-02T12:50:43Z</time>
      </trkpt>
      <trkpt lat="34.5867" lon="112.558733">
        <ele>137.9</ele>
        <time>2026-09-02T12:50:46Z</time>
      </trkpt>
      <trkpt lat="34.586785" lon="112.558711">
        <ele>137.7</ele>
        <time>2026-09-02T12:50:49Z</time>
      </trkpt>
      <trkpt lat="34.58686" lon="112.558667">
        <ele>137.7</ele>
        <time>2026-09-02T12:50:52Z</time>
      </trkpt>
      <trkpt lat="34.58693" lon="112.558602">
        <ele>137.7</ele>
        <time>2026-09-02T12:50:55Z</time>
      </trkpt>
      <trkpt lat="34.586984" lon="112.558522">
        <ele>137.6</ele>
        <time>2026-09-02T12:50:58Z</time>
      </trkpt>
      <trkpt lat="34.587022" lon="112.558422">
        <ele>137.6</ele>
        <time>2026-09-02T12:51:01Z</time>
      </trkpt>
      <trkpt lat="34.587037" lon="112.558323">
        <ele>137.6</ele>
        <time>2026-09-02T12:51:04Z</time>
      </trkpt>
      <trkpt lat="34.587037" lon="112.558225">
        <ele>137.7</ele>
        <time>2026-09-02T12:51:07Z</time>
      </trkpt>
      <trkpt lat="34.587022" lon="112.558135">
        <ele>137.8</ele>
        <time>2026-09-02T12:51:10Z</time>
      </trkpt>
      <trkpt lat="34.587005" lon="112.558079">
        <ele>137.7</ele>
        <time>2026-09-02T12:51:13Z</time>
      </trkpt>
      <trkpt lat="34.586955" lon="112.557981">
        <ele>137.8</ele>
        <time>2026-09-02T12:51:16Z</time>
      </trkpt>
      <trkpt lat="34.5869" lon="112.557911">
        <ele>137.6</ele>
        <time>2026-09-02T12:51:19Z</time>
      </trkpt>
      <trkpt lat="34.586847" lon="112.557862">
        <ele>137.5</ele>
        <time>2026-09-02T12:51:22Z</time>
      </trkpt>
      <trkpt lat="34.586763" lon="112.557807">
        <ele>137.3</ele>
        <time>2026-09-02T12:51:25Z</time>
      </trkpt>
      <trkpt lat="34.58668" lon="112.557782">
        <ele>137.3</ele>
        <time>2026-09-02T12:51:28Z</time>
      </trkpt>
      <trkpt lat="34.586604" lon="112.55778">
        <ele>137.4</ele>
        <time>2026-09-02T12:51:31Z</time>
      </trkpt>
      <trkpt lat="34.586552" lon="112.557786">
        <ele>137.4</ele>
        <time>2026-09-02T12:51:34Z</time>
      </trkpt>
      <trkpt lat="34.586442" lon="112.557798">
        <ele>137.4</ele>
        <time>2026-09-02T12:51:37Z</time>
      </trkpt>
      <trkpt lat="34.586367" lon="112.557807">
        <ele>137.4</ele>
        <time>2026-09-02T12:51:40Z</time>
      </trkpt>
      <trkpt lat="34.586295" lon="112.557813">
        <ele>137.4</ele>
        <time>2026-09-02T12:51:43Z</time>
      </trkpt>
      <trkpt lat="34.586249" lon="112.557814">
        <ele>137.4</ele>
        <time>2026-09-02T12:51:46Z</time>
      </trkpt>
      <trkpt lat="34.586155" lon="112.557814">
        <ele>137.4</ele>
        <time>2026-09-02T12:51:49Z</time>
      </trkpt>
      <trkpt lat="34.586081" lon="112.557812">
        <ele>137.3</ele>
        <time>2026-09-02T12:51:52Z</time>
      </trkpt>
      <trkpt lat="34.586021" lon="112.557815">
        <ele>137.4</ele>
        <time>2026-09-02T12:51:55Z</time>
      </trkpt>
      <trkpt lat="34.585931" lon="112.557814">
        <ele>137.5</ele>
        <time>2026-09-02T12:51:58Z</time>
      </trkpt>
      <trkpt lat="34.58585" lon="112.557816">
        <ele>137.5</ele>
        <time>2026-09-02T12:52:01Z</time>
      </trkpt>
      <trkpt lat="34.58577" lon="112.557828">
        <ele>137.5</ele>
        <time>2026-09-02T12:52:04Z</time>
      </trkpt>
      <trkpt lat="34.585717" lon="112.557846">
        <ele>137.5</ele>
        <time>2026-09-02T12:52:07Z</time>
      </trkpt>
      <trkpt lat="34.585628" lon="112.557901">
        <ele>137.5</ele>
        <time>2026-09-02T12:52:10Z</time>
      </trkpt>
      <trkpt lat="34.585566" lon="112.557971">
        <ele>137.5</ele>
        <time>2026-09-02T12:52:13Z</time>
      </trkpt>
      <trkpt lat="34.585519" lon="112.558045">
        <ele>137.5</ele>
        <time>2026-09-02T12:52:16Z</time>
      </trkpt>
      <trkpt lat="34.585489" lon="112.558113">
        <ele>137.4</ele>
        <time>2026-09-02T12:52:19Z</time>
      </trkpt>
      <trkpt lat="34.585463" lon="112.558247">
        <ele>137.4</ele>
        <time>2026-09-02T12:52:22Z</time>
      </trkpt>
      <trkpt lat="34.585469" lon="112.558365">
        <ele>137.6</ele>
        <time>2026-09-02T12:52:25Z</time>
      </trkpt>
      <trkpt lat="34.585488" lon="112.558464">
        <ele>137.5</ele>
        <time>2026-09-02T12:52:28Z</time>
      </trkpt>
      <trkpt lat="34.585495" lon="112.558495">
        <ele>137.5</ele>
        <time>2026-09-02T12:52:31Z</time>
      </trkpt>
      <trkpt lat="34.585554" lon="112.5586">
        <ele>137.5</ele>
        <time>2026-09-02T12:52:34Z</time>
      </trkpt>
      <trkpt lat="34.585606" lon="112.558658">
        <ele>137.5</ele>
        <time>2026-09-02T12:52:37Z</time>
      </trkpt>
      <trkpt lat="34.585681" lon="112.558712">
        <ele>137.5</ele>
        <time>2026-09-02T12:52:39Z</time>
      </trkpt>
      <trkpt lat="34.585746" lon="112.558742">
        <ele>137.6</ele>
        <time>2026-09-02T12:52:42Z</time>
      </trkpt>
      <trkpt lat="34.585815" lon="112.558759">
        <ele>137.7</ele>
        <time>2026-09-02T12:52:45Z</time>
      </trkpt>
      <trkpt lat="34.585889" lon="112.558763">
        <ele>137.7</ele>
        <time>2026-09-02T12:52:48Z</time>
      </trkpt>
      <trkpt lat="34.585971" lon="112.558757">
        <ele>137.7</ele>
        <time>2026-09-02T12:52:51Z</time>
      </trkpt>
      <trkpt lat="34.586051" lon="112.558747">
        <ele>137.5</ele>
        <time>2026-09-02T12:52:54Z</time>
      </trkpt>
      <trkpt lat="34.586122" lon="112.558745">
        <ele>137.5</ele>
        <time>2026-09-02T12:52:57Z</time>
      </trkpt>
      <trkpt lat="34.586206" lon="112.558742">
        <ele>137.5</ele>
        <time>2026-09-02T12:53:00Z</time>
      </trkpt>
      <trkpt lat="34.586295" lon="112.558738">
        <ele>137.6</ele>
        <time>2026-09-02T12:53:03Z</time>
      </trkpt>
      <trkpt lat="34.586367" lon="112.558743">
        <ele>137.5</ele>
        <time>2026-09-02T12:53:06Z</time>
      </trkpt>
      <trkpt lat="34.58645" lon="112.558742">
        <ele>137.6</ele>
        <time>2026-09-02T12:53:09Z</time>
      </trkpt>
      <trkpt lat="34.586527" lon="112.55874">
        <ele>137.4</ele>
        <time>2026-09-02T12:53:12Z</time>
      </trkpt>
      <trkpt lat="34.586595" lon="112.55874">
        <ele>137.5</ele>
        <time>2026-09-02T12:53:15Z</time>
      </trkpt>
      <trkpt lat="34.586691" lon="112.558735">
        <ele>137.7</ele>
        <time>2026-09-02T12:53:20Z</time>
      </trkpt>
      <trkpt lat="34.586765" lon="112.558716">
        <ele>137.5</ele>
        <time>2026-09-02T12:53:23Z</time>
      </trkpt>
      <trkpt lat="34.586853" lon="112.558672">
        <ele>137.7</ele>
        <time>2026-09-02T12:53:26Z</time>
      </trkpt>
      <trkpt lat="34.586925" lon="112.558607">
        <ele>137.6</ele>
        <time>2026-09-02T12:53:29Z</time>
      </trkpt>
      <trkpt lat="34.586988" lon="112.558511">
        <ele>137.4</ele>
        <time>2026-09-02T12:53:31Z</time>
      </trkpt>
      <trkpt lat="34.587023" lon="112.558414">
        <ele>137.4</ele>
        <time>2026-09-02T12:53:34Z</time>
      </trkpt>
      <trkpt lat="34.587038" lon="112.558308">
        <ele>137.5</ele>
        <time>2026-09-02T12:53:37Z</time>
      </trkpt>
      <trkpt lat="34.587033" lon="112.558192">
        <ele>137.5</ele>
        <time>2026-09-02T12:53:40Z</time>
      </trkpt>
      <trkpt lat="34.587017" lon="112.558113">
        <ele>137.5</ele>
        <time>2026-09-02T12:53:43Z</time>
      </trkpt>
      <trkpt lat="34.587002" lon="112.558072">
        <ele>137.5</ele>
        <time>2026-09-02T12:53:46Z</time>
      </trkpt>
      <trkpt lat="34.586947" lon="112.557971">
        <ele>137.5</ele>
        <time>2026-09-02T12:53:49Z</time>
      </trkpt>
      <trkpt lat="34.586882" lon="112.557893">
        <ele>137.4</ele>
        <time>2026-09-02T12:53:52Z</time>
      </trkpt>
      <trkpt lat="34.586816" lon="112.557841">
        <ele>137.5</ele>
        <time>2026-09-02T12:53:55Z</time>
      </trkpt>
      <trkpt lat="34.586764" lon="112.557811">
        <ele>137.4</ele>
        <time>2026-09-02T12:53:58Z</time>
      </trkpt>
      <trkpt lat="34.58666" lon="112.557782">
        <ele>137.4</ele>
        <time>2026-09-02T12:54:01Z</time>
      </trkpt>
      <trkpt lat="34.586576" lon="112.557784">
        <ele>137.5</ele>
        <time>2026-09-02T12:54:04Z</time>
      </trkpt>
      <trkpt lat="34.586497" lon="112.557793">
        <ele>137.4</ele>
        <time>2026-09-02T12:54:07Z</time>
      </trkpt>
      <trkpt lat="34.586413" lon="112.557805">
        <ele>137.5</ele>
        <time>2026-09-02T12:54:10Z</time>
      </trkpt>
      <trkpt lat="34.586337" lon="112.557811">
        <ele>137.5</ele>
        <time>2026-09-02T12:54:13Z</time>
      </trkpt>
      <trkpt lat="34.58626" lon="112.557813">
        <ele>137.5</ele>
        <time>2026-09-02T12:54:16Z</time>
      </trkpt>
      <trkpt lat="34.586185" lon="112.557815">
        <ele>137.4</ele>
        <time>2026-09-02T12:54:19Z</time>
      </trkpt>
      <trkpt lat="34.586108" lon="112.557817">
        <ele>137.5</ele>
        <time>2026-09-02T12:54:22Z</time>
      </trkpt>
      <trkpt lat="34.586032" lon="112.557819">
        <ele>137.6</ele>
        <time>2026-09-02T12:54:25Z</time>
      </trkpt>
      <trkpt lat="34.585953" lon="112.557818">
        <ele>137.6</ele>
        <time>2026-09-02T12:54:28Z</time>
      </trkpt>
      <trkpt lat="34.585889" lon="112.557816">
        <ele>137.6</ele>
        <time>2026-09-02T12:54:31Z</time>
      </trkpt>
      <trkpt lat="34.585811" lon="112.557823">
        <ele>137.5</ele>
        <time>2026-09-02T12:54:34Z</time>
      </trkpt>
      <trkpt lat="34.585724" lon="112.557846">
        <ele>137.4</ele>
        <time>2026-09-02T12:54:37Z</time>
      </trkpt>
      <trkpt lat="34.585646" lon="112.557888">
        <ele>137.4</ele>
        <time>2026-09-02T12:54:40Z</time>
      </trkpt>
      <trkpt lat="34.585601" lon="112.557929">
        <ele>137.4</ele>
        <time>2026-09-02T12:54:43Z</time>
      </trkpt>
      <trkpt lat="34.585532" lon="112.55802">
        <ele>137.4</ele>
        <time>2026-09-02T12:54:46Z</time>
      </trkpt>
      <trkpt lat="34.585487" lon="112.558118">
        <ele>137.6</ele>
        <time>2026-09-02T12:54:49Z</time>
      </trkpt>
      <trkpt lat="34.585467" lon="112.558213">
        <ele>137.5</ele>
        <time>2026-09-02T12:54:52Z</time>
      </trkpt>
      <trkpt lat="34.585463" lon="112.558285">
        <ele>137.6</ele>
        <time>2026-09-02T12:54:55Z</time>
      </trkpt>
      <trkpt lat="34.585479" lon="112.558421">
        <ele>137.6</ele>
        <time>2026-09-02T12:54:58Z</time>
      </trkpt>
      <trkpt lat="34.585493" lon="112.55848">
        <ele>137.5</ele>
        <time>2026-09-02T12:55:01Z</time>
      </trkpt>
      <trkpt lat="34.585541" lon="112.558575">
        <ele>137.6</ele>
        <time>2026-09-02T12:55:04Z</time>
      </trkpt>
      <trkpt lat="34.585579" lon="112.558626">
        <ele>137.5</ele>
        <time>2026-09-02T12:55:07Z</time>
      </trkpt>
      <trkpt lat="34.585669" lon="112.558703">
        <ele>137.4</ele>
        <time>2026-09-02T12:55:10Z</time>
      </trkpt>
      <trkpt lat="34.585736" lon="112.558737">
        <ele>137.4</ele>
        <time>2026-09-02T12:55:13Z</time>
      </trkpt>
      <trkpt lat="34.585795" lon="112.558757">
        <ele>137.4</ele>
        <time>2026-09-02T12:55:16Z</time>
      </trkpt>
      <trkpt lat="34.585894" lon="112.558761">
        <ele>137.3</ele>
        <time>2026-09-02T12:55:19Z</time>
      </trkpt>
      <trkpt lat="34.586009" lon="112.558752">
        <ele>137.3</ele>
        <time>2026-09-02T12:55:22Z</time>
      </trkpt>
      <trkpt lat="34.586088" lon="112.558748">
        <ele>137.3</ele>
        <time>2026-09-02T12:55:25Z</time>
      </trkpt>
      <trkpt lat="34.586133" lon="112.558746">
        <ele>137.4</ele>
        <time>2026-09-02T12:55:28Z</time>
      </trkpt>
      <trkpt lat="34.586238" lon="112.558744">
        <ele>137.5</ele>
        <time>2026-09-02T12:55:31Z</time>
      </trkpt>
      <trkpt lat="34.586309" lon="112.558741">
        <ele>137.4</ele>
        <time>2026-09-02T12:55:34Z</time>
      </trkpt>
      <trkpt lat="34.58638" lon="112.558743">
        <ele>137.3</ele>
        <time>2026-09-02T12:55:37Z</time>
      </trkpt>
      <trkpt lat="34.586427" lon="112.558743">
        <ele>137.4</ele>
        <time>2026-09-02T12:55:40Z</time>
      </trkpt>
      <trkpt lat="34.586499" lon="112.558741">
        <ele>137.3</ele>
        <time>2026-09-02T12:55:43Z</time>
      </trkpt>
      <trkpt lat="34.586571" lon="112.558742">
        <ele>137.3</ele>
        <time>2026-09-02T12:55:46Z</time>
      </trkpt>
      <trkpt lat="34.586653" lon="112.558739">
        <ele>137.3</ele>
        <time>2026-09-02T12:55:49Z</time>
      </trkpt>
      <trkpt lat="34.586731" lon="112.558728">
        <ele>137.3</ele>
        <time>2026-09-02T12:55:51Z</time>
      </trkpt>
      <trkpt lat="34.586807" lon="112.558701">
        <ele>137.3</ele>
        <time>2026-09-02T12:55:54Z</time>
      </trkpt>
      <trkpt lat="34.586882" lon="112.55865">
        <ele>137.4</ele>
        <time>2026-09-02T12:55:57Z</time>
      </trkpt>
      <trkpt lat="34.58694" lon="112.55859">
        <ele>137.3</ele>
        <time>2026-09-02T12:56:00Z</time>
      </trkpt>
      <trkpt lat="34.586987" lon="112.558516">
        <ele>137.3</ele>
        <time>2026-09-02T12:56:03Z</time>
      </trkpt>
      <trkpt lat="34.587018" lon="112.558439">
        <ele>137.5</ele>
        <time>2026-09-02T12:56:06Z</time>
      </trkpt>
      <trkpt lat="34.587035" lon="112.558347">
        <ele>137.4</ele>
        <time>2026-09-02T12:56:09Z</time>
      </trkpt>
      <trkpt lat="34.587036" lon="112.558231">
        <ele>137.4</ele>
        <time>2026-09-02T12:56:12Z</time>
      </trkpt>
      <trkpt lat="34.587018" lon="112.558125">
        <ele>137.6</ele>
        <time>2026-09-02T12:56:15Z</time>
      </trkpt>
      <trkpt lat="34.58698" lon="112.558024">
        <ele>137.5</ele>
        <time>2026-09-02T12:56:18Z</time>
      </trkpt>
      <trkpt lat="34.586931" lon="112.55795">
        <ele>137.4</ele>
        <time>2026-09-02T12:56:21Z</time>
      </trkpt>
      <trkpt lat="34.586876" lon="112.557885">
        <ele>137.1</ele>
        <time>2026-09-02T12:56:24Z</time>
      </trkpt>
      <trkpt lat="34.586809" lon="112.557835">
        <ele>137.1</ele>
        <time>2026-09-02T12:56:27Z</time>
      </trkpt>
      <trkpt lat="34.586704" lon="112.557785">
        <ele>137.1</ele>
        <time>2026-09-02T12:56:32Z</time>
      </trkpt>
      <trkpt lat="34.586639" lon="112.557779">
        <ele>137</ele>
        <time>2026-09-02T12:56:35Z</time>
      </trkpt>
      <trkpt lat="34.586558" lon="112.557784">
        <ele>137</ele>
        <time>2026-09-02T12:56:37Z</time>
      </trkpt>
      <trkpt lat="34.586479" lon="112.557793">
        <ele>137.3</ele>
        <time>2026-09-02T12:56:40Z</time>
      </trkpt>
      <trkpt lat="34.586395" lon="112.557806">
        <ele>137.2</ele>
        <time>2026-09-02T12:56:43Z</time>
      </trkpt>
      <trkpt lat="34.586314" lon="112.557813">
        <ele>137.3</ele>
        <time>2026-09-02T12:56:47Z</time>
      </trkpt>
      <trkpt lat="34.586237" lon="112.557814">
        <ele>137.2</ele>
        <time>2026-09-02T12:56:50Z</time>
      </trkpt>
      <trkpt lat="34.586172" lon="112.557813">
        <ele>137.3</ele>
        <time>2026-09-02T12:56:53Z</time>
      </trkpt>
      <trkpt lat="34.5861" lon="112.557814">
        <ele>137.4</ele>
        <time>2026-09-02T12:56:55Z</time>
      </trkpt>
      <trkpt lat="34.586034" lon="112.557816">
        <ele>137.4</ele>
        <time>2026-09-02T12:56:59Z</time>
      </trkpt>
      <trkpt lat="34.58596" lon="112.557815">
        <ele>137.5</ele>
        <time>2026-09-02T12:57:02Z</time>
      </trkpt>
      <trkpt lat="34.58589" lon="112.557814">
        <ele>137.3</ele>
        <time>2026-09-02T12:57:05Z</time>
      </trkpt>
      <trkpt lat="34.585812" lon="112.557821">
        <ele>137.3</ele>
        <time>2026-09-02T12:57:07Z</time>
      </trkpt>
      <trkpt lat="34.585741" lon="112.557836">
        <ele>137.4</ele>
        <time>2026-09-02T12:57:10Z</time>
      </trkpt>
      <trkpt lat="34.58567" lon="112.557871">
        <ele>137.4</ele>
        <time>2026-09-02T12:57:14Z</time>
      </trkpt>
      <trkpt lat="34.585594" lon="112.557935">
        <ele>137.4</ele>
        <time>2026-09-02T12:57:17Z</time>
      </trkpt>
      <trkpt lat="34.585543" lon="112.558002">
        <ele>137.5</ele>
        <time>2026-09-02T12:57:19Z</time>
      </trkpt>
      <trkpt lat="34.585502" lon="112.55808">
        <ele>137.5</ele>
        <time>2026-09-02T12:57:22Z</time>
      </trkpt>
      <trkpt lat="34.585472" lon="112.558184">
        <ele>137.6</ele>
        <time>2026-09-02T12:57:25Z</time>
      </trkpt>
      <trkpt lat="34.585464" lon="112.558295">
        <ele>137.4</ele>
        <time>2026-09-02T12:57:28Z</time>
      </trkpt>
      <trkpt lat="34.585472" lon="112.558385">
        <ele>137.3</ele>
        <time>2026-09-02T12:57:31Z</time>
      </trkpt>
      <trkpt lat="34.585491" lon="112.558472">
        <ele>137.4</ele>
        <time>2026-09-02T12:57:34Z</time>
      </trkpt>
      <trkpt lat="34.585547" lon="112.558585">
        <ele>137.3</ele>
        <time>2026-09-02T12:57:37Z</time>
      </trkpt>
      <trkpt lat="34.58562" lon="112.558673">
        <ele>137.5</ele>
        <time>2026-09-02T12:57:40Z</time>
      </trkpt>
      <trkpt lat="34.585699" lon="112.558725">
        <ele>137.5</ele>
        <time>2026-09-02T12:57:43Z</time>
      </trkpt>
      <trkpt lat="34.585798" lon="112.558758">
        <ele>137.5</ele>
        <time>2026-09-02T12:57:46Z</time>
      </trkpt>
      <trkpt lat="34.585898" lon="112.558762">
        <ele>137.5</ele>
        <time>2026-09-02T12:57:49Z</time>
      </trkpt>
      <trkpt lat="34.586016" lon="112.558751">
        <ele>137.4</ele>
        <time>2026-09-02T12:57:52Z</time>
      </trkpt>
      <trkpt lat="34.586151" lon="112.558745">
        <ele>137.5</ele>
        <time>2026-09-02T12:57:55Z</time>
      </trkpt>
      <trkpt lat="34.586261" lon="112.558744">
        <ele>137.4</ele>
        <time>2026-09-02T12:57:58Z</time>
      </trkpt>
      <trkpt lat="34.586391" lon="112.558743">
        <ele>137.4</ele>
        <time>2026-09-02T12:58:01Z</time>
      </trkpt>
      <trkpt lat="34.586463" lon="112.558743">
        <ele>137.5</ele>
        <time>2026-09-02T12:58:04Z</time>
      </trkpt>
      <trkpt lat="34.586591" lon="112.558742">
        <ele>137.3</ele>
        <time>2026-09-02T12:58:07Z</time>
      </trkpt>
      <trkpt lat="34.586693" lon="112.558736">
        <ele>137.5</ele>
        <time>2026-09-02T12:58:10Z</time>
      </trkpt>
      <trkpt lat="34.586788" lon="112.558712">
        <ele>137.6</ele>
        <time>2026-09-02T12:58:13Z</time>
      </trkpt>
      <trkpt lat="34.586878" lon="112.5587">
        <ele>137.4</ele>
        <time>2026-09-02T12:58:16Z</time>
      </trkpt>
      <trkpt lat="34.586983" lon="112.558584">
        <ele>137.4</ele>
        <time>2026-09-02T12:58:19Z</time>
      </trkpt>
      <trkpt lat="34.587033" lon="112.558458">
        <ele>137.3</ele>
        <time>2026-09-02T12:58:22Z</time>
      </trkpt>
      <trkpt lat="34.587052" lon="112.558314">
        <ele>137.4</ele>
        <time>2026-09-02T12:58:25Z</time>
      </trkpt>
      <trkpt lat="34.587045" lon="112.558169">
        <ele>137.4</ele>
        <time>2026-09-02T12:58:28Z</time>
      </trkpt>
      <trkpt lat="34.587008" lon="112.558032">
        <ele>137.2</ele>
        <time>2026-09-02T12:58:31Z</time>
      </trkpt>
      <trkpt lat="34.586938" lon="112.557916">
        <ele>137.4</ele>
        <time>2026-09-02T12:58:34Z</time>
      </trkpt>
      <trkpt lat="34.586879" lon="112.557853">
        <ele>137.2</ele>
        <time>2026-09-02T12:58:37Z</time>
      </trkpt>
      <trkpt lat="34.586744" lon="112.557778">
        <ele>137.3</ele>
        <time>2026-09-02T12:58:40Z</time>
      </trkpt>
      <trkpt lat="34.586638" lon="112.55776">
        <ele>137.1</ele>
        <time>2026-09-02T12:58:43Z</time>
      </trkpt>
      <trkpt lat="34.586539" lon="112.55776">
        <ele>137.1</ele>
        <time>2026-09-02T12:58:46Z</time>
      </trkpt>
      <trkpt lat="34.58647" lon="112.557766">
        <ele>137</ele>
        <time>2026-09-02T12:58:49Z</time>
      </trkpt>
      <trkpt lat="34.586327" lon="112.557782">
        <ele>137.1</ele>
        <time>2026-09-02T12:58:52Z</time>
      </trkpt>
      <trkpt lat="34.586217" lon="112.557791">
        <ele>137.2</ele>
        <time>2026-09-02T12:58:55Z</time>
      </trkpt>
      <trkpt lat="34.58611" lon="112.557801">
        <ele>137.2</ele>
        <time>2026-09-02T12:58:58Z</time>
      </trkpt>
      <trkpt lat="34.586043" lon="112.557802">
        <ele>137.4</ele>
        <time>2026-09-02T12:59:01Z</time>
      </trkpt>
      <trkpt lat="34.585915" lon="112.557801">
        <ele>137.4</ele>
        <time>2026-09-02T12:59:04Z</time>
      </trkpt>
      <trkpt lat="34.585821" lon="112.557807">
        <ele>137.4</ele>
        <time>2026-09-02T12:59:07Z</time>
      </trkpt>
      <trkpt lat="34.585723" lon="112.557828">
        <ele>137.2</ele>
        <time>2026-09-02T12:59:10Z</time>
      </trkpt>
      <trkpt lat="34.585624" lon="112.557878">
        <ele>137.2</ele>
        <time>2026-09-02T12:59:13Z</time>
      </trkpt>
      <trkpt lat="34.585535" lon="112.557966">
        <ele>137.2</ele>
        <time>2026-09-02T12:59:16Z</time>
      </trkpt>
      <trkpt lat="34.58547" lon="112.558092">
        <ele>137</ele>
        <time>2026-09-02T12:59:19Z</time>
      </trkpt>
      <trkpt lat="34.585448" lon="112.558191">
        <ele>137</ele>
        <time>2026-09-02T12:59:22Z</time>
      </trkpt>
      <trkpt lat="34.585452" lon="112.558395">
        <ele>137.2</ele>
        <time>2026-09-02T12:59:25Z</time>
      </trkpt>
      <trkpt lat="34.58549" lon="112.558534">
        <ele>137.3</ele>
        <time>2026-09-02T12:59:28Z</time>
      </trkpt>
      <trkpt lat="34.585563" lon="112.558647">
        <ele>137.3</ele>
        <time>2026-09-02T12:59:31Z</time>
      </trkpt>
      <trkpt lat="34.585621" lon="112.558703">
        <ele>137.1</ele>
        <time>2026-09-02T12:59:34Z</time>
      </trkpt>
      <trkpt lat="34.585718" lon="112.558769">
        <ele>137</ele>
        <time>2026-09-02T12:59:37Z</time>
      </trkpt>
      <trkpt lat="34.585764" lon="112.558791">
        <ele>137</ele>
        <time>2026-09-02T12:59:40Z</time>
      </trkpt>
    </trkseg>
  </trk>
</gpx>