<?xml version="1.0" encoding="UTF-8"?>
<gpx xmlns="http://www.topografix.com/GPX/1/1" xmlns:gpxtpx="http://www.garmin.com/xmlschemas/TrackPointExtension/v1" xmlns:xsi="http://www.w3.org/2001/XMLSchema-instance" xsi:schemaLocation="http://www.topografix.com/GPX/1/1 http://www.topografix.com/GPX/1/1/gpx.xsd" version="1.1" creator="gpx.py -- https://github.com/tkrajina/gpxpy">
  <trk>
    <name>晚上跑步</name>
    <type>running</type>
    <trkseg>
      <trkpt lat="34.586128" lon="112.557913">
        <ele>150.4</ele>
        <time>2026-09-05T12:23:31Z</time>
      </trkpt>
      <trkpt lat="34.586015" lon="112.557935">
        <ele>150.3</ele>
        <time>2026-09-05T12:23:35Z</time>
      </trkpt>
      <trkpt lat="34.585938" lon="112.55795">
        <ele>150.4</ele>
        <time>2026-09-05T12:23:38Z</time>
      </trkpt>
      <trkpt lat="34.585859" lon="112.557954">
        <ele>150.3</ele>
        <time>2026-09-05T12:23:41Z</time>
      </trkpt>
      <trkpt lat="34.585805" lon="112.557969">
        <ele>150.4</ele>
        <time>2026-09-05T12:23:44Z</time>
      </trkpt>
      <trkpt lat="34.585652" lon="112.55801">
        <ele>150.6</ele>
        <time>2026-09-05T12:23:48Z</time>
      </trkpt>
      <trkpt lat="34.585554" lon="112.558117">
        <ele>150.4</ele>
        <time>2026-09-05T12:23:51Z</time>
      </trkpt>
      <trkpt lat="34.58552" lon="112.558181">
        <ele>150.4</ele>
        <time>2026-09-05T12:23:54Z</time>
      </trkpt>
      <trkpt lat="34.585497" lon="112.558283">
        <ele>150.3</ele>
        <time>2026-09-05T12:23:57Z</time>
      </trkpt>
      <trkpt lat="34.585492" lon="112.558358">
        <ele>150.3</ele>
        <time>2026-09-05T12:24:00Z</time>
      </trkpt>
      <trkpt lat="34.585513" lon="112.558495">
        <ele>150.3</ele>
        <time>2026-09-05T12:24:03Z</time>
      </trkpt>
      <trkpt lat="34.585534" lon="112.558565">
        <ele>150.2</ele>
        <time>2026-09-05T12:24:06Z</time>
      </trkpt>
      <trkpt lat="34.585587" lon="112.558665">
        <ele>150.3</ele>
        <time>2026-09-05T12:24:09Z</time>
      </trkpt>
      <trkpt lat="34.585666" lon="112.558756">
        <ele>150.3</ele>
        <time>2026-09-05T12:24:12Z</time>
      </trkpt>
      <trkpt lat="34.585765" lon="112.558814">
        <ele>150.3</ele>
        <time>2026-09-05T12:24:15Z</time>
      </trkpt>
      <trkpt lat="34.585836" lon="112.558833">
        <ele>150.3</ele>
        <time>2026-09-05T12:24:18Z</time>
      </trkpt>
      <trkpt lat="34.585929" lon="112.55884">
        <ele>150.2</ele>
        <time>2026-09-05T12:24:21Z</time>
      </trkpt>
      <trkpt lat="34.586024" lon="112.558833">
        <ele>150.3</ele>
        <time>2026-09-05T12:24:24Z</time>
      </trkpt>
      <trkpt lat="34.58612" lon="112.558829">
        <ele>150.5</ele>
        <time>2026-09-05T12:24:27Z</time>
      </trkpt>
      <trkpt lat="34.586232" lon="112.558823">
        <ele>150.4</ele>
        <time>2026-09-05T12:24:30Z</time>
      </trkpt>
      <trkpt lat="34.586343" lon="112.558814">
        <ele>150.4</ele>
        <time>2026-09-05T12:24:33Z</time>
      </trkpt>
      <trkpt lat="34.586437" lon="112.558805">
        <ele>150.5</ele>
        <time>2026-09-05T12:24:36Z</time>
      </trkpt>
      <trkpt lat="34.586526" lon="112.558803">
        <ele>150.4</ele>
        <time>2026-09-05T12:24:39Z</time>
      </trkpt>
      <trkpt lat="34.586627" lon="112.558802">
        <ele>150.5</ele>
        <time>2026-09-05T12:24:42Z</time>
      </trkpt>
      <trkpt lat="34.586725" lon="112.558794">
        <ele>150.5</ele>
        <time>2026-09-05T12:24:45Z</time>
      </trkpt>
      <trkpt lat="34.586822" lon="112.558768">
        <ele>150.3</ele>
        <time>2026-09-05T12:24:48Z</time>
      </trkpt>
      <trkpt lat="34.586927" lon="112.558698">
        <ele>150.3</ele>
        <time>2026-09-05T12:24:51Z</time>
      </trkpt>
      <trkpt lat="34.586999" lon="112.558597">
        <ele>150.3</ele>
        <time>2026-09-05T12:24:53Z</time>
      </trkpt>
      <trkpt lat="34.58704" lon="112.558465">
        <ele>150.2</ele>
        <time>2026-09-05T12:24:57Z</time>
      </trkpt>
      <trkpt lat="34.587055" lon="112.558337">
        <ele>150.2</ele>
        <time>2026-09-05T12:24:59Z</time>
      </trkpt>
      <trkpt lat="34.587039" lon="112.558187">
        <ele>150.4</ele>
        <time>2026-09-05T12:25:02Z</time>
      </trkpt>
      <trkpt lat="34.587013" lon="112.558046">
        <ele>150.2</ele>
        <time>2026-09-05T12:25:05Z</time>
      </trkpt>
      <trkpt lat="34.586917" lon="112.557907">
        <ele>150.4</ele>
        <time>2026-09-05T12:25:08Z</time>
      </trkpt>
      <trkpt lat="34.586807" lon="112.557832">
        <ele>150.5</ele>
        <time>2026-09-05T12:25:11Z</time>
      </trkpt>
      <trkpt lat="34.586695" lon="112.557799">
        <ele>150</ele>
        <time>2026-09-05T12:25:14Z</time>
      </trkpt>
      <trkpt lat="34.586586" lon="112.557804">
        <ele>150</ele>
        <time>2026-09-05T12:25:17Z</time>
      </trkpt>
      <trkpt lat="34.586493" lon="112.55784">
        <ele>150.2</ele>
        <time>2026-09-05T12:25:20Z</time>
      </trkpt>
      <trkpt lat="34.586412" lon="112.557852">
        <ele>150.2</ele>
        <time>2026-09-05T12:25:23Z</time>
      </trkpt>
      <trkpt lat="34.586335" lon="112.557853">
        <ele>150</ele>
        <time>2026-09-05T12:25:26Z</time>
      </trkpt>
      <trkpt lat="34.586291" lon="112.557852">
        <ele>149.9</ele>
        <time>2026-09-05T12:25:29Z</time>
      </trkpt>
      <trkpt lat="34.586141" lon="112.557874">
        <ele>149.9</ele>
        <time>2026-09-05T12:25:35Z</time>
      </trkpt>
      <trkpt lat="34.58606" lon="112.557886">
        <ele>150</ele>
        <time>2026-09-05T12:25:38Z</time>
      </trkpt>
      <trkpt lat="34.585992" lon="112.557906">
        <ele>149.9</ele>
        <time>2026-09-05T12:25:41Z</time>
      </trkpt>
      <trkpt lat="34.585909" lon="112.557911">
        <ele>149.9</ele>
        <time>2026-09-05T12:25:44Z</time>
      </trkpt>
      <trkpt lat="34.585813" lon="112.557942">
        <ele>150</ele>
        <time>2026-09-05T12:25:47Z</time>
      </trkpt>
      <trkpt lat="34.585744" lon="112.557962">
        <ele>150.1</ele>
        <time>2026-09-05T12:25:50Z</time>
      </trkpt>
      <trkpt lat="34.585666" lon="112.558">
        <ele>150.3</ele>
        <time>2026-09-05T12:25:53Z</time>
      </trkpt>
      <trkpt lat="34.585597" lon="112.558066">
        <ele>150.3</ele>
        <time>2026-09-05T12:25:56Z</time>
      </trkpt>
      <trkpt lat="34.585543" lon="112.558149">
        <ele>150.2</ele>
        <time>2026-09-05T12:25:59Z</time>
      </trkpt>
      <trkpt lat="34.585509" lon="112.558269">
        <ele>150.5</ele>
        <time>2026-09-05T12:26:02Z</time>
      </trkpt>
      <trkpt lat="34.585504" lon="112.558405">
        <ele>150.3</ele>
        <time>2026-09-05T12:26:05Z</time>
      </trkpt>
      <trkpt lat="34.585511" lon="112.558473">
        <ele>150.4</ele>
        <time>2026-09-05T12:26:08Z</time>
      </trkpt>
      <trkpt lat="34.585554" lon="112.55862">
        <ele>150.1</ele>
        <time>2026-09-05T12:26:11Z</time>
      </trkpt>
      <trkpt lat="34.585648" lon="112.558739">
        <ele>150.3</ele>
        <time>2026-09-05T12:26:14Z</time>
      </trkpt>
      <trkpt lat="34.585753" lon="112.55881">
        <ele>150.1</ele>
        <time>2026-09-05T12:26:17Z</time>
      </trkpt>
      <trkpt lat="34.585851" lon="112.558837">
        <ele>150.2</ele>
        <time>2026-09-05T12:26:21Z</time>
      </trkpt>
      <trkpt lat="34.585961" lon="112.558846">
        <ele>150.1</ele>
        <time>2026-09-05T12:26:24Z</time>
      </trkpt>
      <trkpt lat="34.586119" lon="112.558842">
        <ele>150.1</ele>
        <time>2026-09-05T12:26:27Z</time>
      </trkpt>
      <trkpt lat="34.586187" lon="112.558841">
        <ele>150.2</ele>
        <time>2026-09-05T12:26:30Z</time>
      </trkpt>
      <trkpt lat="34.586282" lon="112.558832">
        <ele>150.1</ele>
        <time>2026-09-05T12:26:33Z</time>
      </trkpt>
      <trkpt lat="34.58638" lon="112.558822">
        <ele>150.1</ele>
        <time>2026-09-05T12:26:36Z</time>
      </trkpt>
      <trkpt lat="34.586519" lon="112.558815">
        <ele>150.2</ele>
        <time>2026-09-05T12:26:39Z</time>
      </trkpt>
      <trkpt lat="34.586589" lon="112.558826">
        <ele>150.1</ele>
        <time>2026-09-05T12:26:42Z</time>
      </trkpt>
      <trkpt lat="34.58668" lon="112.558825">
        <ele>150</ele>
        <time>2026-09-05T12:26:45Z</time>
      </trkpt>
      <trkpt lat="34.586759" lon="112.558806">
        <ele>150</ele>
        <time>2026-09-05T12:26:48Z</time>
      </trkpt>
      <trkpt lat="34.586849" lon="112.558775">
        <ele>150.1</ele>
        <time>2026-09-05T12:26:51Z</time>
      </trkpt>
      <trkpt lat="34.586891" lon="112.558749">
        <ele>150.1</ele>
        <time>2026-09-05T12:26:54Z</time>
      </trkpt>
      <trkpt lat="34.586949" lon="112.558691">
        <ele>150.1</ele>
        <time>2026-09-05T12:26:57Z</time>
      </trkpt>
      <trkpt lat="34.587015" lon="112.558582">
        <ele>150.2</ele>
        <time>2026-09-05T12:27:00Z</time>
      </trkpt>
      <trkpt lat="34.587057" lon="112.558407">
        <ele>150.3</ele>
        <time>2026-09-05T12:27:03Z</time>
      </trkpt>
      <trkpt lat="34.587055" lon="112.558296">
        <ele>150.2</ele>
        <time>2026-09-05T12:27:06Z</time>
      </trkpt>
      <trkpt lat="34.587036" lon="112.55814">
        <ele>150.1</ele>
        <time>2026-09-05T12:27:09Z</time>
      </trkpt>
      <trkpt lat="34.58701" lon="112.558024">
        <ele>150.1</ele>
        <time>2026-09-05T12:27:12Z</time>
      </trkpt>
      <trkpt lat="34.586902" lon="112.557896">
        <ele>149.8</ele>
        <time>2026-09-05T12:27:15Z</time>
      </trkpt>
      <trkpt lat="34.586814" lon="112.557838">
        <ele>149.7</ele>
        <time>2026-09-05T12:27:18Z</time>
      </trkpt>
      <trkpt lat="34.586739" lon="112.557812">
        <ele>149.9</ele>
        <time>2026-09-05T12:27:21Z</time>
      </trkpt>
      <trkpt lat="34.586651" lon="112.557814">
        <ele>149.9</ele>
        <time>2026-09-05T12:27:24Z</time>
      </trkpt>
      <trkpt lat="34.586565" lon="112.557839">
        <ele>150</ele>
        <time>2026-09-05T12:27:27Z</time>
      </trkpt>
      <trkpt lat="34.586503" lon="112.557887">
        <ele>150</ele>
        <time>2026-09-05T12:27:30Z</time>
      </trkpt>
      <trkpt lat="34.586475" lon="112.557889">
        <ele>150</ele>
        <time>2026-09-05T12:27:32Z</time>
      </trkpt>
      <trkpt lat="34.586459" lon="112.557896">
        <ele>149.8</ele>
        <time>2026-09-05T12:27:35Z</time>
      </trkpt>
      <trkpt lat="34.586445" lon="112.557918">
        <ele>149.7</ele>
        <time>2026-09-05T12:27:38Z</time>
      </trkpt>
      <trkpt lat="34.586467" lon="112.557911">
        <ele>149.5</ele>
        <time>2026-09-05T12:27:41Z</time>
      </trkpt>
      <trkpt lat="34.58648" lon="112.557917">
        <ele>149.5</ele>
        <time>2026-09-05T12:27:44Z</time>
      </trkpt>
      <trkpt lat="34.586481" lon="112.557918">
        <ele>149.5</ele>
        <time>2026-09-05T12:27:47Z</time>
      </trkpt>
      <trkpt lat="34.586492" lon="112.557906">
        <ele>149.5</ele>
        <time>2026-09-05T12:27:50Z</time>
      </trkpt>
      <trkpt lat="34.586493" lon="112.557902">
        <ele>149.6</ele>
        <time>2026-09-05T12:27:53Z</time>
      </trkpt>
      <trkpt lat="34.586485" lon="112.557911">
        <ele>149.6</ele>
        <time>2026-09-05T12:27:56Z</time>
      </trkpt>
      <trkpt lat="34.586478" lon="112.557917">
        <ele>149.7</ele>
        <time>2026-09-05T12:27:59Z</time>
      </trkpt>
      <trkpt lat="34.586478" lon="112.55791">
        <ele>149.5</ele>
        <time>2026-09-05T12:28:02Z</time>
      </trkpt>
      <trkpt lat="34.586473" lon="112.557916">
        <ele>149.6</ele>
        <time>2026-09-05T12:28:05Z</time>
      </trkpt>
      <trkpt lat="34.58647" lon="112.557918">
        <ele>149.9</ele>
        <time>2026-09-05T12:28:08Z</time>
      </trkpt>
      <trkpt lat="34.58647" lon="112.557909">
        <ele>149.7</ele>
        <time>2026-09-05T12:28:11Z</time>
      </trkpt>
      <trkpt lat="34.586457" lon="112.557905">
        <ele>149.6</ele>
        <time>2026-09-05T12:28:14Z</time>
      </trkpt>
      <trkpt lat="34.58646" lon="112.557904">
        <ele>149.5</ele>
        <time>2026-09-05T12:28:17Z</time>
      </trkpt>
      <trkpt lat="34.58647" lon="112.557896">
        <ele>149.5</ele>
        <time>2026-09-05T12:28:20Z</time>
      </trkpt>
      <trkpt lat="34.58647" lon="112.557905">
        <ele>149.5</ele>
        <time>2026-09-05T12:28:23Z</time>
      </trkpt>
      <trkpt lat="34.586376" lon="112.557883">
        <ele>149.6</ele>
        <time>2026-09-05T12:28:29Z</time>
      </trkpt>
      <trkpt lat="34.586246" lon="112.557876">
        <ele>149.7</ele>
        <time>2026-09-05T12:28:32Z</time>
      </trkpt>
      <trkpt lat="34.586139" lon="112.55788">
        <ele>149.9</ele>
        <time>2026-09-05T12:28:35Z</time>
      </trkpt>
      <trkpt lat="34.586022" lon="112.557884">
        <ele>149.9</ele>
        <time>2026-09-05T12:28:38Z</time>
      </trkpt>
      <trkpt lat="34.585883" lon="112.557902">
        <ele>149.9</ele>
        <time>2026-09-05T12:28:41Z</time>
      </trkpt>
      <trkpt lat="34.585824" lon="112.557919">
        <ele>150</ele>
        <time>2026-09-05T12:28:44Z</time>
      </trkpt>
      <trkpt lat="34.585689" lon="112.557979">
        <ele>149.9</ele>
        <time>2026-09-05T12:28:47Z</time>
      </trkpt>
      <trkpt lat="34.585613" lon="112.558033">
        <ele>149.8</ele>
        <time>2026-09-05T12:28:50Z</time>
      </trkpt>
      <trkpt lat="34.585559" lon="112.558087">
        <ele>149.8</ele>
        <time>2026-09-05T12:28:53Z</time>
      </trkpt>
      <trkpt lat="34.585515" lon="112.558162">
        <ele>149.8</ele>
        <time>2026-09-05T12:28:56Z</time>
      </trkpt>
      <trkpt lat="34.585485" lon="112.558293">
        <ele>149.9</ele>
        <time>2026-09-05T12:29:00Z</time>
      </trkpt>
      <trkpt lat="34.58549" lon="112.558381">
        <ele>149.9</ele>
        <time>2026-09-05T12:29:03Z</time>
      </trkpt>
      <trkpt lat="34.585519" lon="112.558536">
        <ele>149.7</ele>
        <time>2026-09-05T12:29:06Z</time>
      </trkpt>
      <trkpt lat="34.585544" lon="112.558598">
        <ele>149.9</ele>
        <time>2026-09-05T12:29:09Z</time>
      </trkpt>
      <trkpt lat="34.585597" lon="112.558685">
        <ele>149.9</ele>
        <time>2026-09-05T12:29:12Z</time>
      </trkpt>
      <trkpt lat="34.585692" lon="112.558781">
        <ele>149.8</ele>
        <time>2026-09-05T12:29:15Z</time>
      </trkpt>
      <trkpt lat="34.585763" lon="112.558818">
        <ele>149.8</ele>
        <time>2026-09-05T12:29:18Z</time>
      </trkpt>
      <trkpt lat="34.585888" lon="112.558847">
        <ele>149.9</ele>
        <time>2026-09-05T12:29:21Z</time>
      </trkpt>
      <trkpt lat="34.586013" lon="112.55885">
        <ele>149.8</ele>
        <time>2026-09-05T12:29:24Z</time>
      </trkpt>
      <trkpt lat="34.586161" lon="112.558842">
        <ele>149.8</ele>
        <time>2026-09-05T12:29:27Z</time>
      </trkpt>
      <trkpt lat="34.586236" lon="112.558842">
        <ele>149.8</ele>
        <time>2026-09-05T12:29:30Z</time>
      </trkpt>
      <trkpt lat="34.586329" lon="112.558833">
        <ele>149.9</ele>
        <time>2026-09-05T12:29:33Z</time>
      </trkpt>
      <trkpt lat="34.586426" lon="112.558821">
        <ele>149.9</ele>
        <time>2026-09-05T12:29:36Z</time>
      </trkpt>
      <trkpt lat="34.586559" lon="112.558827">
        <ele>149.8</ele>
        <time>2026-09-05T12:29:39Z</time>
      </trkpt>
      <trkpt lat="34.586619" lon="112.558829">
        <ele>150</ele>
        <time>2026-09-05T12:29:42Z</time>
      </trkpt>
      <trkpt lat="34.586703" lon="112.558823">
        <ele>149.9</ele>
        <time>2026-09-05T12:29:45Z</time>
      </trkpt>
      <trkpt lat="34.586779" lon="112.558798">
        <ele>150.1</ele>
        <time>2026-09-05T12:29:48Z</time>
      </trkpt>
      <trkpt lat="34.586861" lon="112.558755">
        <ele>149.9</ele>
        <time>2026-09-05T12:29:51Z</time>
      </trkpt>
      <trkpt lat="34.586948" lon="112.558678">
        <ele>149.8</ele>
        <time>2026-09-05T12:29:54Z</time>
      </trkpt>
      <trkpt lat="34.587009" lon="112.558565">
        <ele>149.9</ele>
        <time>2026-09-05T12:29:57Z</time>
      </trkpt>
      <trkpt lat="34.587039" lon="112.55846">
        <ele>149.9</ele>
        <time>2026-09-05T12:30:00Z</time>
      </trkpt>
      <trkpt lat="34.587051" lon="112.558359">
        <ele>150</ele>
        <time>2026-09-05T12:30:03Z</time>
      </trkpt>
      <trkpt lat="34.587047" lon="112.558236">
        <ele>150</ele>
        <time>2026-09-05T12:30:06Z</time>
      </trkpt>
      <trkpt lat="34.587023" lon="112.558125">
        <ele>149.9</ele>
        <time>2026-09-05T12:30:09Z</time>
      </trkpt>
      <trkpt lat="34.586976" lon="112.558012">
        <ele>150.1</ele>
        <time>2026-09-05T12:30:12Z</time>
      </trkpt>
      <trkpt lat="34.586908" lon="112.557917">
        <ele>150</ele>
        <time>2026-09-05T12:30:15Z</time>
      </trkpt>
      <trkpt lat="34.586804" lon="112.55785">
        <ele>150</ele>
        <time>2026-09-05T12:30:17Z</time>
      </trkpt>
      <trkpt lat="34.586709" lon="112.557827">
        <ele>149.9</ele>
        <time>2026-09-05T12:30:20Z</time>
      </trkpt>
      <trkpt lat="34.586572" lon="112.557859">
        <ele>150</ele>
        <time>2026-09-05T12:30:23Z</time>
      </trkpt>
      <trkpt lat="34.586482" lon="112.557882">
        <ele>149.9</ele>
        <time>2026-09-05T12:30:26Z</time>
      </trkpt>
      <trkpt lat="34.586389" lon="112.557878">
        <ele>149.9</ele>
        <time>2026-09-05T12:30:29Z</time>
      </trkpt>
      <trkpt lat="34.586288" lon="112.557875">
        <ele>149.8</ele>
        <time>2026-09-05T12:30:32Z</time>
      </trkpt>
      <trkpt lat="34.586172" lon="112.557885">
        <ele>149.9</ele>
        <time>2026-09-05T12:30:35Z</time>
      </trkpt>
      <trkpt lat="34.586046" lon="112.557895">
        <ele>149.8</ele>
        <time>2026-09-05T12:30:38Z</time>
      </trkpt>
      <trkpt lat="34.585929" lon="112.557903">
        <ele>149.9</ele>
        <time>2026-09-05T12:30:41Z</time>
      </trkpt>
      <trkpt lat="34.585849" lon="112.557922">
        <ele>149.8</ele>
        <time>2026-09-05T12:30:44Z</time>
      </trkpt>
      <trkpt lat="34.585763" lon="112.55794">
        <ele>149.9</ele>
        <time>2026-09-05T12:30:47Z</time>
      </trkpt>
      <trkpt lat="34.585663" lon="112.557985">
        <ele>150</ele>
        <time>2026-09-05T12:30:50Z</time>
      </trkpt>
      <trkpt lat="34.585593" lon="112.558058">
        <ele>150.1</ele>
        <time>2026-09-05T12:30:53Z</time>
      </trkpt>
      <trkpt lat="34.585539" lon="112.558144">
        <ele>150.1</ele>
        <time>2026-09-05T12:30:56Z</time>
      </trkpt>
      <trkpt lat="34.585503" lon="112.558255">
        <ele>150</ele>
        <time>2026-09-05T12:30:59Z</time>
      </trkpt>
      <trkpt lat="34.585499" lon="112.55838">
        <ele>150</ele>
        <time>2026-09-05T12:31:02Z</time>
      </trkpt>
      <trkpt lat="34.585522" lon="112.558511">
        <ele>150</ele>
        <time>2026-09-05T12:31:05Z</time>
      </trkpt>
      <trkpt lat="34.58555" lon="112.558606">
        <ele>150</ele>
        <time>2026-09-05T12:31:08Z</time>
      </trkpt>
      <trkpt lat="34.585627" lon="112.558712">
        <ele>149.9</ele>
        <time>2026-09-05T12:31:11Z</time>
      </trkpt>
      <trkpt lat="34.585696" lon="112.558772">
        <ele>150</ele>
        <time>2026-09-05T12:31:14Z</time>
      </trkpt>
      <trkpt lat="34.585797" lon="112.558822">
        <ele>150</ele>
        <time>2026-09-05T12:31:17Z</time>
      </trkpt>
      <trkpt lat="34.585894" lon="112.558838">
        <ele>150.1</ele>
        <time>2026-09-05T12:31:20Z</time>
      </trkpt>
      <trkpt lat="34.586001" lon="112.558836">
        <ele>149.9</ele>
        <time>2026-09-05T12:31:23Z</time>
      </trkpt>
      <trkpt lat="34.586107" lon="112.558833">
        <ele>149.9</ele>
        <time>2026-09-05T12:31:26Z</time>
      </trkpt>
      <trkpt lat="34.586235" lon="112.55883">
        <ele>149.9</ele>
        <time>2026-09-05T12:31:29Z</time>
      </trkpt>
      <trkpt lat="34.586313" lon="112.558821">
        <ele>149.8</ele>
        <time>2026-09-05T12:31:32Z</time>
      </trkpt>
      <trkpt lat="34.58647" lon="112.558807">
        <ele>150</ele>
        <time>2026-09-05T12:31:35Z</time>
      </trkpt>
      <trkpt lat="34.586584" lon="112.558805">
        <ele>149.9</ele>
        <time>2026-09-05T12:31:38Z</time>
      </trkpt>
      <trkpt lat="34.58673" lon="112.558792">
        <ele>150.1</ele>
        <time>2026-09-05T12:31:42Z</time>
      </trkpt>
      <trkpt lat="34.586792" lon="112.558776">
        <ele>150.2</ele>
        <time>2026-09-05T12:31:45Z</time>
      </trkpt>
      <trkpt lat="34.586889" lon="112.558731">
        <ele>150.1</ele>
        <time>2026-09-05T12:31:48Z</time>
      </trkpt>
      <trkpt lat="34.586988" lon="112.558626">
        <ele>149.9</ele>
        <time>2026-09-05T12:31:51Z</time>
      </trkpt>
      <trkpt lat="34.587023" lon="112.55854">
        <ele>150</ele>
        <time>2026-09-05T12:31:54Z</time>
      </trkpt>
      <trkpt lat="34.587054" lon="112.558402">
        <ele>150</ele>
        <time>2026-09-05T12:31:57Z</time>
      </trkpt>
      <trkpt lat="34.587051" lon="112.558243">
        <ele>149.8</ele>
        <time>2026-09-05T12:32:00Z</time>
      </trkpt>
      <trkpt lat="34.58702" lon="112.558072">
        <ele>149.8</ele>
        <time>2026-09-05T12:32:03Z</time>
      </trkpt>
      <trkpt lat="34.58697" lon="112.557979">
        <ele>150.1</ele>
        <time>2026-09-05T12:32:06Z</time>
      </trkpt>
      <trkpt lat="34.586884" lon="112.557884">
        <ele>150</ele>
        <time>2026-09-05T12:32:09Z</time>
      </trkpt>
      <trkpt lat="34.58678" lon="112.557835">
        <ele>150.1</ele>
        <time>2026-09-05T12:32:12Z</time>
      </trkpt>
      <trkpt lat="34.586612" lon="112.557856">
        <ele>150.1</ele>
        <time>2026-09-05T12:32:15Z</time>
      </trkpt>
      <trkpt lat="34.58655" lon="112.557854">
        <ele>150.2</ele>
        <time>2026-09-05T12:32:18Z</time>
      </trkpt>
      <trkpt lat="34.586449" lon="112.557915">
        <ele>150.2</ele>
        <time>2026-09-05T12:32:21Z</time>
      </trkpt>
      <trkpt lat="34.586363" lon="112.557879">
        <ele>150</ele>
        <time>2026-09-05T12:32:24Z</time>
      </trkpt>
      <trkpt lat="34.586255" lon="112.557881">
        <ele>149.9</ele>
        <time>2026-09-05T12:32:27Z</time>
      </trkpt>
      <trkpt lat="34.58617" lon="112.557889">
        <ele>149.9</ele>
        <time>2026-09-05T12:32:30Z</time>
      </trkpt>
      <trkpt lat="34.586052" lon="112.557897">
        <ele>150</ele>
        <time>2026-09-05T12:32:33Z</time>
      </trkpt>
      <trkpt lat="34.585931" lon="112.557909">
        <ele>149.9</ele>
        <time>2026-09-05T12:32:36Z</time>
      </trkpt>
      <trkpt lat="34.585812" lon="112.557946">
        <ele>149.8</ele>
        <time>2026-09-05T12:32:39Z</time>
      </trkpt>
      <trkpt lat="34.585735" lon="112.557973">
        <ele>149.8</ele>
        <time>2026-09-05T12:32:42Z</time>
      </trkpt>
      <trkpt lat="34.585641" lon="112.558023">
        <ele>149.9</ele>
        <time>2026-09-05T12:32:45Z</time>
      </trkpt>
      <trkpt lat="34.585574" lon="112.558092">
        <ele>149.9</ele>
        <time>2026-09-05T12:32:47Z</time>
      </trkpt>
      <trkpt lat="34.58552" lon="112.558202">
        <ele>149.9</ele>
        <time>2026-09-05T12:32:50Z</time>
      </trkpt>
      <trkpt lat="34.585495" lon="112.558312">
        <ele>149.9</ele>
        <time>2026-09-05T12:32:53Z</time>
      </trkpt>
      <trkpt lat="34.585499" lon="112.558435">
        <ele>150</ele>
        <time>2026-09-05T12:32:56Z</time>
      </trkpt>
      <trkpt lat="34.585523" lon="112.558547">
        <ele>149.7</ele>
        <time>2026-09-05T12:32:59Z</time>
      </trkpt>
      <trkpt lat="34.585553" lon="112.558628">
        <ele>149.7</ele>
        <time>2026-09-05T12:33:02Z</time>
      </trkpt>
      <trkpt lat="34.585657" lon="112.558752">
        <ele>149.8</ele>
        <time>2026-09-05T12:33:05Z</time>
      </trkpt>
      <trkpt lat="34.585742" lon="112.558809">
        <ele>149.8</ele>
        <time>2026-09-05T12:33:08Z</time>
      </trkpt>
      <trkpt lat="34.585868" lon="112.558841">
        <ele>149.7</ele>
        <time>2026-09-05T12:33:11Z</time>
      </trkpt>
      <trkpt lat="34.586" lon="112.558844">
        <ele>149.6</ele>
        <time>2026-09-05T12:33:14Z</time>
      </trkpt>
      <trkpt lat="34.586126" lon="112.55884">
        <ele>149.8</ele>
        <time>2026-09-05T12:33:17Z</time>
      </trkpt>
      <trkpt lat="34.586226" lon="112.558837">
        <ele>149.8</ele>
        <time>2026-09-05T12:33:20Z</time>
      </trkpt>
      <trkpt lat="34.586305" lon="112.558828">
        <ele>149.7</ele>
        <time>2026-09-05T12:33:23Z</time>
      </trkpt>
      <trkpt lat="34.586465" lon="112.558814">
        <ele>149.7</ele>
        <time>2026-09-05T12:33:26Z</time>
      </trkpt>
      <trkpt lat="34.58657" lon="112.558819">
        <ele>149.7</ele>
        <time>2026-09-05T12:33:29Z</time>
      </trkpt>
      <trkpt lat="34.586655" lon="112.558819">
        <ele>149.8</ele>
        <time>2026-09-05T12:33:32Z</time>
      </trkpt>
      <trkpt lat="34.586715" lon="112.558809">
        <ele>149.8</ele>
        <time>2026-09-05T12:33:35Z</time>
      </trkpt>
      <trkpt lat="34.586818" lon="112.558778">
        <ele>149.7</ele>
        <time>2026-09-05T12:33:38Z</time>
      </trkpt>
      <trkpt lat="34.586907" lon="112.558714">
        <ele>149.9</ele>
        <time>2026-09-05T12:33:41Z</time>
      </trkpt>
      <trkpt lat="34.58698" lon="112.558627">
        <ele>149.8</ele>
        <time>2026-09-05T12:33:44Z</time>
      </trkpt>
      <trkpt lat="34.587027" lon="112.558518">
        <ele>149.7</ele>
        <time>2026-09-05T12:33:47Z</time>
      </trkpt>
      <trkpt lat="34.587047" lon="112.558416">
        <ele>149.9</ele>
        <time>2026-09-05T12:33:50Z</time>
      </trkpt>
      <trkpt lat="34.587047" lon="112.558285">
        <ele>149.9</ele>
        <time>2026-09-05T12:33:53Z</time>
      </trkpt>
      <trkpt lat="34.587021" lon="112.558123">
        <ele>149.9</ele>
        <time>2026-09-05T12:33:56Z</time>
      </trkpt>
      <trkpt lat="34.586968" lon="112.558006">
        <ele>149.9</ele>
        <time>2026-09-05T12:33:59Z</time>
      </trkpt>
      <trkpt lat="34.586825" lon="112.55786">
        <ele>149.8</ele>
        <time>2026-09-05T12:34:02Z</time>
      </trkpt>
      <trkpt lat="34.586711" lon="112.557832">
        <ele>149.7</ele>
        <time>2026-09-05T12:34:05Z</time>
      </trkpt>
      <trkpt lat="34.586665" lon="112.55785">
        <ele>149.8</ele>
        <time>2026-09-05T12:34:08Z</time>
      </trkpt>
      <trkpt lat="34.586532" lon="112.55795">
        <ele>149.6</ele>
        <time>2026-09-05T12:34:11Z</time>
      </trkpt>
      <trkpt lat="34.586509" lon="112.557971">
        <ele>149.3</ele>
        <time>2026-09-05T12:34:15Z</time>
      </trkpt>
      <trkpt lat="34.586484" lon="112.557997">
        <ele>149.5</ele>
        <time>2026-09-05T12:34:21Z</time>
      </trkpt>
      <trkpt lat="34.586484" lon="112.557997">
        <ele>149.5</ele>
        <time>2026-09-05T12:34:23Z</time>
      </trkpt>
      <trkpt lat="34.586483" lon="112.558009">
        <ele>149.6</ele>
        <time>2026-09-05T12:34:26Z</time>
      </trkpt>
      <trkpt lat="34.586486" lon="112.55802">
        <ele>149.7</ele>
        <time>2026-09-05T12:34:29Z</time>
      </trkpt>
      <trkpt lat="34.586487" lon="112.558023">
        <ele>149.6</ele>
        <time>2026-09-05T12:34:32Z</time>
      </trkpt>
      <trkpt lat="34.586499" lon="112.558012">
        <ele>149.5</ele>
        <time>2026-09-05T12:34:35Z</time>
      </trkpt>
      <trkpt lat="34.586496" lon="112.558011">
        <ele>149.5</ele>
        <time>2026-09-05T12:34:38Z</time>
      </trkpt>
      <trkpt lat="34.586486" lon="112.558024">
        <ele>149.6</ele>
        <time>2026-09-05T12:34:41Z</time>
      </trkpt>
      <trkpt lat="34.586493" lon="112.558">
        <ele>149.6</ele>
        <time>2026-09-05T12:34:44Z</time>
      </trkpt>
      <trkpt lat="34.586492" lon="112.557989">
        <ele>149.4</ele>
        <time>2026-09-05T12:34:47Z</time>
      </trkpt>
      <trkpt lat="34.58649" lon="112.557991">
        <ele>149.2</ele>
        <time>2026-09-05T12:34:50Z</time>
      </trkpt>
      <trkpt lat="34.586487" lon="112.557993">
        <ele>149.2</ele>
        <time>2026-09-05T12:34:53Z</time>
      </trkpt>
      <trkpt lat="34.586488" lon="112.557994">
        <ele>149.2</ele>
        <time>2026-09-05T12:34:56Z</time>
      </trkpt>
      <trkpt lat="34.586488" lon="112.557988">
        <ele>149.2</ele>
        <time>2026-09-05T12:35:00Z</time>
      </trkpt>
      <trkpt lat="34.586491" lon="112.557947">
        <ele>149.3</ele>
        <time>2026-09-05T12:35:03Z</time>
      </trkpt>
      <trkpt lat="34.58649" lon="112.557931">
        <ele>149.4</ele>
        <time>2026-09-05T12:35:06Z</time>
      </trkpt>
      <trkpt lat="34.586484" lon="112.557914">
        <ele>149.3</ele>
        <time>2026-09-05T12:35:09Z</time>
      </trkpt>
      <trkpt lat="34.586462" lon="112.557906">
        <ele>149.2</ele>
        <time>2026-09-05T12:35:12Z</time>
      </trkpt>
      <trkpt lat="34.586439" lon="112.557913">
        <ele>149.2</ele>
        <time>2026-09-05T12:35:15Z</time>
      </trkpt>
      <trkpt lat="34.586415" lon="112.557891">
        <ele>149.1</ele>
        <time>2026-09-05T12:35:18Z</time>
      </trkpt>
      <trkpt lat="34.586409" lon="112.55789">
        <ele>148.9</ele>
        <time>2026-09-05T12:35:21Z</time>
      </trkpt>
      <trkpt lat="34.586396" lon="112.557886">
        <ele>148.9</ele>
        <time>2026-09-05T12:35:24Z</time>
      </trkpt>
      <trkpt lat="34.586389" lon="112.557882">
        <ele>148.9</ele>
        <time>2026-09-05T12:35:27Z</time>
      </trkpt>
      <trkpt lat="34.586383" lon="112.55788">
        <ele>149</ele>
        <time>2026-09-05T12:35:30Z</time>
      </trkpt>
      <trkpt lat="34.586375" lon="112.55788">
        <ele>149.1</ele>
        <time>2026-09-05T12:35:33Z</time>
      </trkpt>
      <trkpt lat="34.586359" lon="112.557876">
        <ele>149</ele>
        <time>2026-09-05T12:35:36Z</time>
      </trkpt>
      <trkpt lat="34.586346" lon="112.557876">
        <ele>149</ele>
        <time>2026-09-05T12:35:39Z</time>
      </trkpt>
      <trkpt lat="34.586338" lon="112.55788">
        <ele>148.9</ele>
        <time>2026-09-05T12:35:42Z</time>
      </trkpt>
      <trkpt lat="34.586331" lon="112.557883">
        <ele>149.2</ele>
        <time>2026-09-05T12:35:45Z</time>
      </trkpt>
      <trkpt lat="34.586267" lon="112.557869">
        <ele>149.4</ele>
        <time>2026-09-05T12:35:51Z</time>
      </trkpt>
      <trkpt lat="34.586188" lon="112.557872">
        <ele>149.3</ele>
        <time>2026-09-05T12:35:54Z</time>
      </trkpt>
      <trkpt lat="34.586073" lon="112.557872">
        <ele>149.4</ele>
        <time>2026-09-05T12:35:57Z</time>
      </trkpt>
      <trkpt lat="34.585965" lon="112.557869">
        <ele>149.7</ele>
        <time>2026-09-05T12:36:00Z</time>
      </trkpt>
      <trkpt lat="34.585836" lon="112.557877">
        <ele>149.5</ele>
        <time>2026-09-05T12:36:03Z</time>
      </trkpt>
      <trkpt lat="34.585712" lon="112.557927">
        <ele>149.5</ele>
        <time>2026-09-05T12:36:05Z</time>
      </trkpt>
      <trkpt lat="34.585625" lon="112.558007">
        <ele>149.4</ele>
        <time>2026-09-05T12:36:08Z</time>
      </trkpt>
      <trkpt lat="34.585544" lon="112.558112">
        <ele>149.4</ele>
        <time>2026-09-05T12:36:11Z</time>
      </trkpt>
      <trkpt lat="34.585496" lon="112.558246">
        <ele>149.4</ele>
        <time>2026-09-05T12:36:14Z</time>
      </trkpt>
      <trkpt lat="34.585489" lon="112.558391">
        <ele>149.3</ele>
        <time>2026-09-05T12:36:17Z</time>
      </trkpt>
      <trkpt lat="34.585513" lon="112.558524">
        <ele>149.3</ele>
        <time>2026-09-05T12:36:20Z</time>
      </trkpt>
      <trkpt lat="34.585545" lon="112.558619">
        <ele>149.2</ele>
        <time>2026-09-05T12:36:23Z</time>
      </trkpt>
      <trkpt lat="34.585629" lon="112.558726">
        <ele>149.2</ele>
        <time>2026-09-05T12:36:26Z</time>
      </trkpt>
      <trkpt lat="34.585706" lon="112.558792">
        <ele>149.1</ele>
        <time>2026-09-05T12:36:29Z</time>
      </trkpt>
      <trkpt lat="34.585792" lon="112.558828">
        <ele>149.2</ele>
        <time>2026-09-05T12:36:32Z</time>
      </trkpt>
      <trkpt lat="34.58588" lon="112.558842">
        <ele>149.2</ele>
        <time>2026-09-05T12:36:35Z</time>
      </trkpt>
      <trkpt lat="34.585988" lon="112.558842">
        <ele>149.2</ele>
        <time>2026-09-05T12:36:38Z</time>
      </trkpt>
      <trkpt lat="34.586097" lon="112.558831">
        <ele>149.4</ele>
        <time>2026-09-05T12:36:41Z</time>
      </trkpt>
      <trkpt lat="34.586187" lon="112.558819">
        <ele>149.4</ele>
        <time>2026-09-05T12:36:44Z</time>
      </trkpt>
      <trkpt lat="34.586281" lon="112.558815">
        <ele>149.5</ele>
        <time>2026-09-05T12:36:47Z</time>
      </trkpt>
      <trkpt lat="34.586373" lon="112.558806">
        <ele>149.4</ele>
        <time>2026-09-05T12:36:50Z</time>
      </trkpt>
      <trkpt lat="34.586475" lon="112.558792">
        <ele>149.4</ele>
        <time>2026-09-05T12:36:53Z</time>
      </trkpt>
      <trkpt lat="34.586531" lon="112.558792">
        <ele>149.2</ele>
        <time>2026-09-05T12:36:56Z</time>
      </trkpt>
      <trkpt lat="34.586664" lon="112.558787">
        <ele>149.1</ele>
        <time>2026-09-05T12:36:59Z</time>
      </trkpt>
      <trkpt lat="34.586748" lon="112.558782">
        <ele>149</ele>
        <time>2026-09-05T12:37:02Z</time>
      </trkpt>
      <trkpt lat="34.586831" lon="112.558754">
        <ele>149</ele>
        <time>2026-09-05T12:37:05Z</time>
      </trkpt>
      <trkpt lat="34.586878" lon="112.558732">
        <ele>149.1</ele>
        <time>2026-09-05T12:37:08Z</time>
      </trkpt>
      <trkpt lat="34.58696" lon="112.55866">
        <ele>149.1</ele>
        <time>2026-09-05T12:37:11Z</time>
      </trkpt>
      <trkpt lat="34.586991" lon="112.558617">
        <ele>149.1</ele>
        <time>2026-09-05T12:37:14Z</time>
      </trkpt>
      <trkpt lat="34.587027" lon="112.55852">
        <ele>149.1</ele>
        <time>2026-09-05T12:37:17Z</time>
      </trkpt>
      <trkpt lat="34.587044" lon="112.558445">
        <ele>149</ele>
        <time>2026-09-05T12:37:20Z</time>
      </trkpt>
      <trkpt lat="34.587052" lon="112.558321">
        <ele>149</ele>
        <time>2026-09-05T12:37:23Z</time>
      </trkpt>
      <trkpt lat="34.587031" lon="112.558158">
        <ele>149</ele>
        <time>2026-09-05T12:37:26Z</time>
      </trkpt>
      <trkpt lat="34.587011" lon="112.558083">
        <ele>148.9</ele>
        <time>2026-09-05T12:37:29Z</time>
      </trkpt>
      <trkpt lat="34.586941" lon="112.557948">
        <ele>149</ele>
        <time>2026-09-05T12:37:32Z</time>
      </trkpt>
      <trkpt lat="34.586869" lon="112.557875">
        <ele>149.2</ele>
        <time>2026-09-05T12:37:35Z</time>
      </trkpt>
      <trkpt lat="34.586766" lon="112.557831">
        <ele>149.2</ele>
        <time>2026-09-05T12:37:39Z</time>
      </trkpt>
      <trkpt lat="34.586718" lon="112.557812">
        <ele>149.2</ele>
        <time>2026-09-05T12:37:42Z</time>
      </trkpt>
      <trkpt lat="34.586622" lon="112.557836">
        <ele>149.1</ele>
        <time>2026-09-05T12:37:45Z</time>
      </trkpt>
      <trkpt lat="34.586545" lon="112.557849">
        <ele>149.1</ele>
        <time>2026-09-05T12:37:48Z</time>
      </trkpt>
      <trkpt lat="34.586453" lon="112.557907">
        <ele>149</ele>
        <time>2026-09-05T12:37:51Z</time>
      </trkpt>
      <trkpt lat="34.58638" lon="112.557879">
        <ele>149.2</ele>
        <time>2026-09-05T12:37:54Z</time>
      </trkpt>
      <trkpt lat="34.586318" lon="112.557872">
        <ele>149</ele>
        <time>2026-09-05T12:37:57Z</time>
      </trkpt>
      <trkpt lat="34.586203" lon="112.557878">
        <ele>149</ele>
        <time>2026-09-05T12:38:00Z</time>
      </trkpt>
      <trkpt lat="34.586148" lon="112.557877">
        <ele>149.1</ele>
        <time>2026-09-05T12:38:03Z</time>
      </trkpt>
      <trkpt lat="34.586063" lon="112.557877">
        <ele>149.1</ele>
        <time>2026-09-05T12:38:06Z</time>
      </trkpt>
      <trkpt lat="34.585993" lon="112.557879">
        <ele>149.1</ele>
        <time>2026-09-05T12:38:09Z</time>
      </trkpt>
      <trkpt lat="34.585898" lon="112.557879">
        <ele>149</ele>
        <time>2026-09-05T12:38:12Z</time>
      </trkpt>
      <trkpt lat="34.585835" lon="112.557892">
        <ele>148.9</ele>
        <time>2026-09-05T12:38:15Z</time>
      </trkpt>
      <trkpt lat="34.585759" lon="112.557905">
        <ele>148.9</ele>
        <time>2026-09-05T12:38:18Z</time>
      </trkpt>
      <trkpt lat="34.585682" lon="112.557959">
        <ele>148.8</ele>
        <time>2026-09-05T12:38:21Z</time>
      </trkpt>
      <trkpt lat="34.58559" lon="112.55805">
        <ele>148.9</ele>
        <time>2026-09-05T12:38:24Z</time>
      </trkpt>
      <trkpt lat="34.585551" lon="112.558108">
        <ele>148.8</ele>
        <time>2026-09-05T12:38:27Z</time>
      </trkpt>
      <trkpt lat="34.5855" lon="112.558244">
        <ele>148.9</ele>
        <time>2026-09-05T12:38:30Z</time>
      </trkpt>
      <trkpt lat="34.585499" lon="112.558383">
        <ele>148.9</ele>
        <time>2026-09-05T12:38:33Z</time>
      </trkpt>
      <trkpt lat="34.58552" lon="112.558507">
        <ele>149</ele>
        <time>2026-09-05T12:38:36Z</time>
      </trkpt>
      <trkpt lat="34.585553" lon="112.558611">
        <ele>149</ele>
        <time>2026-09-05T12:38:39Z</time>
      </trkpt>
      <trkpt lat="34.585628" lon="112.558719">
        <ele>149</ele>
        <time>2026-09-05T12:38:42Z</time>
      </trkpt>
      <trkpt lat="34.585714" lon="112.558797">
        <ele>149</ele>
        <time>2026-09-05T12:38:44Z</time>
      </trkpt>
      <trkpt lat="34.585801" lon="112.558834">
        <ele>149.2</ele>
        <time>2026-09-05T12:38:47Z</time>
      </trkpt>
      <trkpt lat="34.585894" lon="112.558851">
        <ele>149.1</ele>
        <time>2026-09-05T12:38:50Z</time>
      </trkpt>
      <trkpt lat="34.585978" lon="112.558847">
        <ele>148.8</ele>
        <time>2026-09-05T12:38:53Z</time>
      </trkpt>
      <trkpt lat="34.586063" lon="112.558843">
        <ele>148.9</ele>
        <time>2026-09-05T12:38:56Z</time>
      </trkpt>
      <trkpt lat="34.586159" lon="112.558837">
        <ele>148.9</ele>
        <time>2026-09-05T12:38:59Z</time>
      </trkpt>
      <trkpt lat="34.586263" lon="112.558828">
        <ele>148.9</ele>
        <time>2026-09-05T12:39:02Z</time>
      </trkpt>
      <trkpt lat="34.586355" lon="112.558818">
        <ele>149</ele>
        <time>2026-09-05T12:39:05Z</time>
      </trkpt>
      <trkpt lat="34.586431" lon="112.558804">
        <ele>149.2</ele>
        <time>2026-09-05T12:39:08Z</time>
      </trkpt>
      <trkpt lat="34.586518" lon="112.558801">
        <ele>149.1</ele>
        <time>2026-09-05T12:39:11Z</time>
      </trkpt>
      <trkpt lat="34.586607" lon="112.558797">
        <ele>149</ele>
        <time>2026-09-05T12:39:14Z</time>
      </trkpt>
      <trkpt lat="34.586686" lon="112.558792">
        <ele>149</ele>
        <time>2026-09-05T12:39:17Z</time>
      </trkpt>
      <trkpt lat="34.586762" lon="112.558779">
        <ele>148.9</ele>
        <time>2026-09-05T12:39:20Z</time>
      </trkpt>
      <trkpt lat="34.586822" lon="112.558762">
        <ele>148.9</ele>
        <time>2026-09-05T12:39:23Z</time>
      </trkpt>
      <trkpt lat="34.586892" lon="112.558722">
        <ele>149</ele>
        <time>2026-09-05T12:39:26Z</time>
      </trkpt>
      <trkpt lat="34.586955" lon="112.558666">
        <ele>148.8</ele>
        <time>2026-09-05T12:39:29Z</time>
      </trkpt>
      <trkpt lat="34.586996" lon="112.558603">
        <ele>148.7</ele>
        <time>2026-09-05T12:39:32Z</time>
      </trkpt>
      <trkpt lat="34.587034" lon="112.558503">
        <ele>148.8</ele>
        <time>2026-09-05T12:39:35Z</time>
      </trkpt>
      <trkpt lat="34.587055" lon="112.558381">
        <ele>148.9</ele>
        <time>2026-09-05T12:39:38Z</time>
      </trkpt>
      <trkpt lat="34.58705" lon="112.558272">
        <ele>149</ele>
        <time>2026-09-05T12:39:41Z</time>
      </trkpt>
      <trkpt lat="34.587033" lon="112.558157">
        <ele>148.9</ele>
        <time>2026-09-05T12:39:44Z</time>
      </trkpt>
      <trkpt lat="34.587017" lon="112.558067">
        <ele>148.9</ele>
        <time>2026-09-05T12:39:47Z</time>
      </trkpt>
      <trkpt lat="34.586962" lon="112.557971">
        <ele>148.9</ele>
        <time>2026-09-05T12:39:50Z</time>
      </trkpt>
      <trkpt lat="34.586915" lon="112.55791">
        <ele>149</ele>
        <time>2026-09-05T12:39:53Z</time>
      </trkpt>
      <trkpt lat="34.586835" lon="112.55785">
        <ele>149</ele>
        <time>2026-09-05T12:39:56Z</time>
      </trkpt>
      <trkpt lat="34.586756" lon="112.557825">
        <ele>149</ele>
        <time>2026-09-05T12:39:59Z</time>
      </trkpt>
      <trkpt lat="34.586692" lon="112.557819">
        <ele>149.1</ele>
        <time>2026-09-05T12:40:02Z</time>
      </trkpt>
      <trkpt lat="34.586613" lon="112.557854">
        <ele>149.2</ele>
        <time>2026-09-05T12:40:05Z</time>
      </trkpt>
      <trkpt lat="34.586531" lon="112.557861">
        <ele>149</ele>
        <time>2026-09-05T12:40:08Z</time>
      </trkpt>
      <trkpt lat="34.586444" lon="112.5579">
        <ele>148.9</ele>
        <time>2026-09-05T12:40:11Z</time>
      </trkpt>
      <trkpt lat="34.586361" lon="112.557875">
        <ele>148.8</ele>
        <time>2026-09-05T12:40:14Z</time>
      </trkpt>
      <trkpt lat="34.586312" lon="112.557869">
        <ele>148.9</ele>
        <time>2026-09-05T12:40:17Z</time>
      </trkpt>
      <trkpt lat="34.586177" lon="112.557872">
        <ele>148.8</ele>
        <time>2026-09-05T12:40:20Z</time>
      </trkpt>
      <trkpt lat="34.586065" lon="112.557874">
        <ele>148.8</ele>
        <time>2026-09-05T12:40:23Z</time>
      </trkpt>
      <trkpt lat="34.585967" lon="112.557876">
        <ele>148.7</ele>
        <time>2026-09-05T12:40:26Z</time>
      </trkpt>
      <trkpt lat="34.585911" lon="112.557878">
        <ele>148.8</ele>
        <time>2026-09-05T12:40:29Z</time>
      </trkpt>
      <trkpt lat="34.585796" lon="112.557899">
        <ele>148.7</ele>
        <time>2026-09-05T12:40:33Z</time>
      </trkpt>
      <trkpt lat="34.585667" lon="112.557979">
        <ele>148.7</ele>
        <time>2026-09-05T12:40:36Z</time>
      </trkpt>
      <trkpt lat="34.585622" lon="112.558021">
        <ele>148.8</ele>
        <time>2026-09-05T12:40:39Z</time>
      </trkpt>
      <trkpt lat="34.585563" lon="112.55809">
        <ele>148.9</ele>
        <time>2026-09-05T12:40:42Z</time>
      </trkpt>
      <trkpt lat="34.585514" lon="112.558193">
        <ele>149</ele>
        <time>2026-09-05T12:40:45Z</time>
      </trkpt>
      <trkpt lat="34.585497" lon="112.558325">
        <ele>148.9</ele>
        <time>2026-09-05T12:40:48Z</time>
      </trkpt>
      <trkpt lat="34.585501" lon="112.558419">
        <ele>149.1</ele>
        <time>2026-09-05T12:40:51Z</time>
      </trkpt>
      <trkpt lat="34.585518" lon="112.558498">
        <ele>149.1</ele>
        <time>2026-09-05T12:40:54Z</time>
      </trkpt>
      <trkpt lat="34.585548" lon="112.558583">
        <ele>148.8</ele>
        <time>2026-09-05T12:40:57Z</time>
      </trkpt>
      <trkpt lat="34.585622" lon="112.558693">
        <ele>148.9</ele>
        <time>2026-09-05T12:41:00Z</time>
      </trkpt>
      <trkpt lat="34.585693" lon="112.558743">
        <ele>148.9</ele>
        <time>2026-09-05T12:41:03Z</time>
      </trkpt>
      <trkpt lat="34.585765" lon="112.55878">
        <ele>148.8</ele>
        <time>2026-09-05T12:41:06Z</time>
      </trkpt>
      <trkpt lat="34.585859" lon="112.558809">
        <ele>148.9</ele>
        <time>2026-09-05T12:41:09Z</time>
      </trkpt>
      <trkpt lat="34.585967" lon="112.558797">
        <ele>148.9</ele>
        <time>2026-09-05T12:41:12Z</time>
      </trkpt>
      <trkpt lat="34.586059" lon="112.558799">
        <ele>148.9</ele>
        <time>2026-09-05T12:41:15Z</time>
      </trkpt>
      <trkpt lat="34.586147" lon="112.558797">
        <ele>148.9</ele>
        <time>2026-09-05T12:41:18Z</time>
      </trkpt>
      <trkpt lat="34.586229" lon="112.558791">
        <ele>148.9</ele>
        <time>2026-09-05T12:41:21Z</time>
      </trkpt>
      <trkpt lat="34.586336" lon="112.558792">
        <ele>148.8</ele>
        <time>2026-09-05T12:41:24Z</time>
      </trkpt>
      <trkpt lat="34.586445" lon="112.558782">
        <ele>148.8</ele>
        <time>2026-09-05T12:41:27Z</time>
      </trkpt>
      <trkpt lat="34.586547" lon="112.558776">
        <ele>148.7</ele>
        <time>2026-09-05T12:41:30Z</time>
      </trkpt>
      <trkpt lat="34.586637" lon="112.55877">
        <ele>148.6</ele>
        <time>2026-09-05T12:41:33Z</time>
      </trkpt>
      <trkpt lat="34.586746" lon="112.558752">
        <ele>148.6</ele>
        <time>2026-09-05T12:41:36Z</time>
      </trkpt>
      <trkpt lat="34.586824" lon="112.558733">
        <ele>148.6</ele>
        <time>2026-09-05T12:41:38Z</time>
      </trkpt>
      <trkpt lat="34.5869" lon="112.558695">
        <ele>148.6</ele>
        <time>2026-09-05T12:41:41Z</time>
      </trkpt>
      <trkpt lat="34.58696" lon="112.558636">
        <ele>148.6</ele>
        <time>2026-09-05T12:41:44Z</time>
      </trkpt>
      <trkpt lat="34.587015" lon="112.558543">
        <ele>148.8</ele>
        <time>2026-09-05T12:41:47Z</time>
      </trkpt>
      <trkpt lat="34.587043" lon="112.558434">
        <ele>148.8</ele>
        <time>2026-09-05T12:41:50Z</time>
      </trkpt>
      <trkpt lat="34.587051" lon="112.558312">
        <ele>148.8</ele>
        <time>2026-09-05T12:41:53Z</time>
      </trkpt>
      <trkpt lat="34.587038" lon="112.558197">
        <ele>148.9</ele>
        <time>2026-09-05T12:41:56Z</time>
      </trkpt>
      <trkpt lat="34.587017" lon="112.558081">
        <ele>148.7</ele>
        <time>2026-09-05T12:41:59Z</time>
      </trkpt>
      <trkpt lat="34.586954" lon="112.557963">
        <ele>148.8</ele>
        <time>2026-09-05T12:42:02Z</time>
      </trkpt>
      <trkpt lat="34.58689" lon="112.557891">
        <ele>148.8</ele>
        <time>2026-09-05T12:42:05Z</time>
      </trkpt>
      <trkpt lat="34.586842" lon="112.557852">
        <ele>148.8</ele>
        <time>2026-09-05T12:42:08Z</time>
      </trkpt>
      <trkpt lat="34.586746" lon="112.557819">
        <ele>148.7</ele>
        <time>2026-09-05T12:42:11Z</time>
      </trkpt>
      <trkpt lat="34.586672" lon="112.557818">
        <ele>148.8</ele>
        <time>2026-09-05T12:42:14Z</time>
      </trkpt>
      <trkpt lat="34.586567" lon="112.557838">
        <ele>148.8</ele>
        <time>2026-09-05T12:42:17Z</time>
      </trkpt>
      <trkpt lat="34.586487" lon="112.557875">
        <ele>148.6</ele>
        <time>2026-09-05T12:42:20Z</time>
      </trkpt>
      <trkpt lat="34.586432" lon="112.557897">
        <ele>148.4</ele>
        <time>2026-09-05T12:42:29Z</time>
      </trkpt>
      <trkpt lat="34.586444" lon="112.557895">
        <ele>148.6</ele>
        <time>2026-09-05T12:42:32Z</time>
      </trkpt>
      <trkpt lat="34.586446" lon="112.557898">
        <ele>148.5</ele>
        <time>2026-09-05T12:42:35Z</time>
      </trkpt>
      <trkpt lat="34.58645" lon="112.557892">
        <ele>148.6</ele>
        <time>2026-09-05T12:42:38Z</time>
      </trkpt>
      <trkpt lat="34.586449" lon="112.557896">
        <ele>148.8</ele>
        <time>2026-09-05T12:42:41Z</time>
      </trkpt>
      <trkpt lat="34.58645" lon="112.557896">
        <ele>148.6</ele>
        <time>2026-09-05T12:42:44Z</time>
      </trkpt>
      <trkpt lat="34.586451" lon="112.55789">
        <ele>148.7</ele>
        <time>2026-09-05T12:42:47Z</time>
      </trkpt>
      <trkpt lat="34.586447" lon="112.557897">
        <ele>148.5</ele>
        <time>2026-09-05T12:42:50Z</time>
      </trkpt>
      <trkpt lat="34.586452" lon="112.557884">
        <ele>148.6</ele>
        <time>2026-09-05T12:42:53Z</time>
      </trkpt>
      <trkpt lat="34.586451" lon="112.557896">
        <ele>148.6</ele>
        <time>2026-09-05T12:42:56Z</time>
      </trkpt>
      <trkpt lat="34.586458" lon="112.5579">
        <ele>148.6</ele>
        <time>2026-09-05T12:42:59Z</time>
      </trkpt>
      <trkpt lat="34.586458" lon="112.557901">
        <ele>148.6</ele>
        <time>2026-09-05T12:43:02Z</time>
      </trkpt>
      <trkpt lat="34.586458" lon="112.557898">
        <ele>148.7</ele>
        <time>2026-09-05T12:43:05Z</time>
      </trkpt>
      <trkpt lat="34.586453" lon="112.557908">
        <ele>148.5</ele>
        <time>2026-09-05T12:43:08Z</time>
      </trkpt>
      <trkpt lat="34.586463" lon="112.557889">
        <ele>148.5</ele>
        <time>2026-09-05T12:43:11Z</time>
      </trkpt>
      <trkpt lat="34.586461" lon="112.557895">
        <ele>148.4</ele>
        <time>2026-09-05T12:43:14Z</time>
      </trkpt>
      <trkpt lat="34.586463" lon="112.557893">
        <ele>148.4</ele>
        <time>2026-09-05T12:43:17Z</time>
      </trkpt>
      <trkpt lat="34.586462" lon="112.5579">
        <ele>148.4</ele>
        <time>2026-09-05T12:43:20Z</time>
      </trkpt>
      <trkpt lat="34.586465" lon="112.557891">
        <ele>148.3</ele>
        <time>2026-09-05T12:43:23Z</time>
      </trkpt>
      <trkpt lat="34.586462" lon="112.557896">
        <ele>148.3</ele>
        <time>2026-09-05T12:43:26Z</time>
      </trkpt>
      <trkpt lat="34.586465" lon="112.557892">
        <ele>148.4</ele>
        <time>2026-09-05T12:43:29Z</time>
      </trkpt>
      <trkpt lat="34.586463" lon="112.557894">
        <ele>148.4</ele>
        <time>2026-09-05T12:43:32Z</time>
      </trkpt>
      <trkpt lat="34.586462" lon="112.557897">
        <ele>148.3</ele>
        <time>2026-09-05T12:43:35Z</time>
      </trkpt>
      <trkpt lat="34.586463" lon="112.557894">
        <ele>148.3</ele>
        <time>2026-09-05T12:43:38Z</time>
      </trkpt>
      <trkpt lat="34.586468" lon="112.557887">
        <ele>148.2</ele>
        <time>2026-09-05T12:43:42Z</time>
      </trkpt>
      <trkpt lat="34.586468" lon="112.557888">
        <ele>148.2</ele>
        <time>2026-09-05T12:43:44Z</time>
      </trkpt>
      <trkpt lat="34.586468" lon="112.557887">
        <ele>148.2</ele>
        <time>2026-09-05T12:43:47Z</time>
      </trkpt>
      <trkpt lat="34.586463" lon="112.5579">
        <ele>148.3</ele>
        <time>2026-09-05T12:43:51Z</time>
      </trkpt>
      <trkpt lat="34.586466" lon="112.557894">
        <ele>148.2</ele>
        <time>2026-09-05T12:43:54Z</time>
      </trkpt>
      <trkpt lat="34.586473" lon="112.557902">
        <ele>148.2</ele>
        <time>2026-09-05T12:43:57Z</time>
      </trkpt>
      <trkpt lat="34.586477" lon="112.557906">
        <ele>148.3</ele>
        <time>2026-09-05T12:44:00Z</time>
      </trkpt>
      <trkpt lat="34.586478" lon="112.55791">
        <ele>148.3</ele>
        <time>2026-09-05T12:44:02Z</time>
      </trkpt>
      <trkpt lat="34.586477" lon="112.557904">
        <ele>148.4</ele>
        <time>2026-09-05T12:44:06Z</time>
      </trkpt>
      <trkpt lat="34.586478" lon="112.557912">
        <ele>148.5</ele>
        <time>2026-09-05T12:44:09Z</time>
      </trkpt>
      <trkpt lat="34.58648" lon="112.557911">
        <ele>148.4</ele>
        <time>2026-09-05T12:44:12Z</time>
      </trkpt>
      <trkpt lat="34.586484" lon="112.55791">
        <ele>148.2</ele>
        <time>2026-09-05T12:44:15Z</time>
      </trkpt>
      <trkpt lat="34.586481" lon="112.557914">
        <ele>148.2</ele>
        <time>2026-09-05T12:44:18Z</time>
      </trkpt>
      <trkpt lat="34.586494" lon="112.5579">
        <ele>148.1</ele>
        <time>2026-09-05T12:44:21Z</time>
      </trkpt>
      <trkpt lat="34.586498" lon="112.557897">
        <ele>148.2</ele>
        <time>2026-09-05T12:44:24Z</time>
      </trkpt>
      <trkpt lat="34.586502" lon="112.557894">
        <ele>148.3</ele>
        <time>2026-09-05T12:44:27Z</time>
      </trkpt>
      <trkpt lat="34.586482" lon="112.557918">
        <ele>148.2</ele>
        <time>2026-09-05T12:44:30Z</time>
      </trkpt>
      <trkpt lat="34.586479" lon="112.557916">
        <ele>148.3</ele>
        <time>2026-09-05T12:44:33Z</time>
      </trkpt>
      <trkpt lat="34.586472" lon="112.557904">
        <ele>148.2</ele>
        <time>2026-09-05T12:44:36Z</time>
      </trkpt>
      <trkpt lat="34.586467" lon="112.557896">
        <ele>148.1</ele>
        <time>2026-09-05T12:44:39Z</time>
      </trkpt>
      <trkpt lat="34.586446" lon="112.557903">
        <ele>148.2</ele>
        <time>2026-09-05T12:44:42Z</time>
      </trkpt>
      <trkpt lat="34.586438" lon="112.557904">
        <ele>148.2</ele>
        <time>2026-09-05T12:44:45Z</time>
      </trkpt>
      <trkpt lat="34.586429" lon="112.557902">
        <ele>148.2</ele>
        <time>2026-09-05T12:44:48Z</time>
      </trkpt>
      <trkpt lat="34.586416" lon="112.557891">
        <ele>148.3</ele>
        <time>2026-09-05T12:44:51Z</time>
      </trkpt>
      <trkpt lat="34.586372" lon="112.557873">
        <ele>148.5</ele>
        <time>2026-09-05T12:44:57Z</time>
      </trkpt>
      <trkpt lat="34.586297" lon="112.557856">
        <ele>148.4</ele>
        <time>2026-09-05T12:45:00Z</time>
      </trkpt>
      <trkpt lat="34.586212" lon="112.557863">
        <ele>148.6</ele>
        <time>2026-09-05T12:45:03Z</time>
      </trkpt>
      <trkpt lat="34.586067" lon="112.55786">
        <ele>148.6</ele>
        <time>2026-09-05T12:45:06Z</time>
      </trkpt>
      <trkpt lat="34.585999" lon="112.557852">
        <ele>148.5</ele>
        <time>2026-09-05T12:45:09Z</time>
      </trkpt>
      <trkpt lat="34.585867" lon="112.557853">
        <ele>148.9</ele>
        <time>2026-09-05T12:45:12Z</time>
      </trkpt>
      <trkpt lat="34.585725" lon="112.557884">
        <ele>148.7</ele>
        <time>2026-09-05T12:45:15Z</time>
      </trkpt>
      <trkpt lat="34.585596" lon="112.557988">
        <ele>148.8</ele>
        <time>2026-09-05T12:45:18Z</time>
      </trkpt>
      <trkpt lat="34.585513" lon="112.558131">
        <ele>148.7</ele>
        <time>2026-09-05T12:45:21Z</time>
      </trkpt>
      <trkpt lat="34.585476" lon="112.558269">
        <ele>148.6</ele>
        <time>2026-09-05T12:45:24Z</time>
      </trkpt>
      <trkpt lat="34.585482" lon="112.558401">
        <ele>148.6</ele>
        <time>2026-09-05T12:45:26Z</time>
      </trkpt>
      <trkpt lat="34.585501" lon="112.558495">
        <ele>148.7</ele>
        <time>2026-09-05T12:45:29Z</time>
      </trkpt>
      <trkpt lat="34.585544" lon="112.558606">
        <ele>148.8</ele>
        <time>2026-09-05T12:45:32Z</time>
      </trkpt>
      <trkpt lat="34.585617" lon="112.558707">
        <ele>148.7</ele>
        <time>2026-09-05T12:45:35Z</time>
      </trkpt>
      <trkpt lat="34.585716" lon="112.558784">
        <ele>148.6</ele>
        <time>2026-09-05T12:45:38Z</time>
      </trkpt>
      <trkpt lat="34.585839" lon="112.558827">
        <ele>148.8</ele>
        <time>2026-09-05T12:45:41Z</time>
      </trkpt>
      <trkpt lat="34.585952" lon="112.558834">
        <ele>148.7</ele>
        <time>2026-09-05T12:45:44Z</time>
      </trkpt>
      <trkpt lat="34.586058" lon="112.558826">
        <ele>148.5</ele>
        <time>2026-09-05T12:45:47Z</time>
      </trkpt>
      <trkpt lat="34.586152" lon="112.558826">
        <ele>148.6</ele>
        <time>2026-09-05T12:45:50Z</time>
      </trkpt>
      <trkpt lat="34.586252" lon="112.558817">
        <ele>148.5</ele>
        <time>2026-09-05T12:45:53Z</time>
      </trkpt>
      <trkpt lat="34.586351" lon="112.558805">
        <ele>148.6</ele>
        <time>2026-09-05T12:45:56Z</time>
      </trkpt>
      <trkpt lat="34.586444" lon="112.558797">
        <ele>148.7</ele>
        <time>2026-09-05T12:45:59Z</time>
      </trkpt>
      <trkpt lat="34.586544" lon="112.558795">
        <ele>148.7</ele>
        <time>2026-09-05T12:46:02Z</time>
      </trkpt>
      <trkpt lat="34.586643" lon="112.55879">
        <ele>148.6</ele>
        <time>2026-09-05T12:46:05Z</time>
      </trkpt>
      <trkpt lat="34.58674" lon="112.55878">
        <ele>148.7</ele>
        <time>2026-09-05T12:46:08Z</time>
      </trkpt>
      <trkpt lat="34.586838" lon="112.558751">
        <ele>148.8</ele>
        <time>2026-09-05T12:46:11Z</time>
      </trkpt>
      <trkpt lat="34.586894" lon="112.558714">
        <ele>148.7</ele>
        <time>2026-09-05T12:46:14Z</time>
      </trkpt>
      <trkpt lat="34.58699" lon="112.558609">
        <ele>148.6</ele>
        <time>2026-09-05T12:46:17Z</time>
      </trkpt>
      <trkpt lat="34.587035" lon="112.558478">
        <ele>148.5</ele>
        <time>2026-09-05T12:46:20Z</time>
      </trkpt>
      <trkpt lat="34.587054" lon="112.558344">
        <ele>148.6</ele>
        <time>2026-09-05T12:46:23Z</time>
      </trkpt>
      <trkpt lat="34.587051" lon="112.558248">
        <ele>148.7</ele>
        <time>2026-09-05T12:46:26Z</time>
      </trkpt>
      <trkpt lat="34.587026" lon="112.558105">
        <ele>148.7</ele>
        <time>2026-09-05T12:46:29Z</time>
      </trkpt>
      <trkpt lat="34.587011" lon="112.558026">
        <ele>148.5</ele>
        <time>2026-09-05T12:46:32Z</time>
      </trkpt>
      <trkpt lat="34.586933" lon="112.557925">
        <ele>148.5</ele>
        <time>2026-09-05T12:46:35Z</time>
      </trkpt>
      <trkpt lat="34.586871" lon="112.557871">
        <ele>148.5</ele>
        <time>2026-09-05T12:46:38Z</time>
      </trkpt>
      <trkpt lat="34.586768" lon="112.557818">
        <ele>148.7</ele>
        <time>2026-09-05T12:46:41Z</time>
      </trkpt>
      <trkpt lat="34.586673" lon="112.557798">
        <ele>148.7</ele>
        <time>2026-09-05T12:46:44Z</time>
      </trkpt>
      <trkpt lat="34.586593" lon="112.557799">
        <ele>148.7</ele>
        <time>2026-09-05T12:46:47Z</time>
      </trkpt>
      <trkpt lat="34.58649" lon="112.557842">
        <ele>148.7</ele>
        <time>2026-09-05T12:46:50Z</time>
      </trkpt>
      <trkpt lat="34.586406" lon="112.557854">
        <ele>148.7</ele>
        <time>2026-09-05T12:46:53Z</time>
      </trkpt>
      <trkpt lat="34.586314" lon="112.557852">
        <ele>148.6</ele>
        <time>2026-09-05T12:46:57Z</time>
      </trkpt>
      <trkpt lat="34.586275" lon="112.557849">
        <ele>148.8</ele>
        <time>2026-09-05T12:46:59Z</time>
      </trkpt>
      <trkpt lat="34.586187" lon="112.55786">
        <ele>148.6</ele>
        <time>2026-09-05T12:47:03Z</time>
      </trkpt>
      <trkpt lat="34.586095" lon="112.557858">
        <ele>148.6</ele>
        <time>2026-09-05T12:47:06Z</time>
      </trkpt>
      <trkpt lat="34.58597" lon="112.55785">
        <ele>148.6</ele>
        <time>2026-09-05T12:47:09Z</time>
      </trkpt>
      <trkpt lat="34.585898" lon="112.557861">
        <ele>148.7</ele>
        <time>2026-09-05T12:47:12Z</time>
      </trkpt>
      <trkpt lat="34.585804" lon="112.557872">
        <ele>148.7</ele>
        <time>2026-09-05T12:47:15Z</time>
      </trkpt>
      <trkpt lat="34.585707" lon="112.557902">
        <ele>148.8</ele>
        <time>2026-09-05T12:47:18Z</time>
      </trkpt>
      <trkpt lat="34.585643" lon="112.557961">
        <ele>148.7</ele>
        <time>2026-09-05T12:47:21Z</time>
      </trkpt>
      <trkpt lat="34.585566" lon="112.558043">
        <ele>148.7</ele>
        <time>2026-09-05T12:47:24Z</time>
      </trkpt>
      <trkpt lat="34.585506" lon="112.558142">
        <ele>148.7</ele>
        <time>2026-09-05T12:47:27Z</time>
      </trkpt>
      <trkpt lat="34.585473" lon="112.558237">
        <ele>148.6</ele>
        <time>2026-09-05T12:47:30Z</time>
      </trkpt>
      <trkpt lat="34.585475" lon="112.558364">
        <ele>148.6</ele>
        <time>2026-09-05T12:47:33Z</time>
      </trkpt>
      <trkpt lat="34.585499" lon="112.558478">
        <ele>148.7</ele>
        <time>2026-09-05T12:47:36Z</time>
      </trkpt>
      <trkpt lat="34.585532" lon="112.558571">
        <ele>148.8</ele>
        <time>2026-09-05T12:47:39Z</time>
      </trkpt>
      <trkpt lat="34.585598" lon="112.558691">
        <ele>148.9</ele>
        <time>2026-09-05T12:47:42Z</time>
      </trkpt>
      <trkpt lat="34.585645" lon="112.558743">
        <ele>148.8</ele>
        <time>2026-09-05T12:47:45Z</time>
      </trkpt>
      <trkpt lat="34.585724" lon="112.558805">
        <ele>148.8</ele>
        <time>2026-09-05T12:47:48Z</time>
      </trkpt>
      <trkpt lat="34.58579" lon="112.558827">
        <ele>148.7</ele>
        <time>2026-09-05T12:47:51Z</time>
      </trkpt>
      <trkpt lat="34.585876" lon="112.558839">
        <ele>148.7</ele>
        <time>2026-09-05T12:47:54Z</time>
      </trkpt>
      <trkpt lat="34.585984" lon="112.558834">
        <ele>148.7</ele>
        <time>2026-09-05T12:47:57Z</time>
      </trkpt>
      <trkpt lat="34.586085" lon="112.558822">
        <ele>148.7</ele>
        <time>2026-09-05T12:47:59Z</time>
      </trkpt>
      <trkpt lat="34.586201" lon="112.558816">
        <ele>148.6</ele>
        <time>2026-09-05T12:48:02Z</time>
      </trkpt>
      <trkpt lat="34.586297" lon="112.558816">
        <ele>148.8</ele>
        <time>2026-09-05T12:48:05Z</time>
      </trkpt>
      <trkpt lat="34.586405" lon="112.558798">
        <ele>148.6</ele>
        <time>2026-09-05T12:48:08Z</time>
      </trkpt>
      <trkpt lat="34.5865" lon="112.558797">
        <ele>148.6</ele>
        <time>2026-09-05T12:48:11Z</time>
      </trkpt>
      <trkpt lat="34.586612" lon="112.558796">
        <ele>148.6</ele>
        <time>2026-09-05T12:48:14Z</time>
      </trkpt>
      <trkpt lat="34.586704" lon="112.558784">
        <ele>148.6</ele>
        <time>2026-09-05T12:48:17Z</time>
      </trkpt>
      <trkpt lat="34.58679" lon="112.558766">
        <ele>148.6</ele>
        <time>2026-09-05T12:48:20Z</time>
      </trkpt>
      <trkpt lat="34.586867" lon="112.558742">
        <ele>148.7</ele>
        <time>2026-09-05T12:48:23Z</time>
      </trkpt>
      <trkpt lat="34.58694" lon="112.558678">
        <ele>148.6</ele>
        <time>2026-09-05T12:48:26Z</time>
      </trkpt>
      <trkpt lat="34.587009" lon="112.558573">
        <ele>148.5</ele>
        <time>2026-09-05T12:48:29Z</time>
      </trkpt>
      <trkpt lat="34.587036" lon="112.558485">
        <ele>148.4</ele>
        <time>2026-09-05T12:48:32Z</time>
      </trkpt>
      <trkpt lat="34.587054" lon="112.558357">
        <ele>148.4</ele>
        <time>2026-09-05T12:48:35Z</time>
      </trkpt>
      <trkpt lat="34.587048" lon="112.558231">
        <ele>148.3</ele>
        <time>2026-09-05T12:48:38Z</time>
      </trkpt>
      <trkpt lat="34.587035" lon="112.558147">
        <ele>148.4</ele>
        <time>2026-09-05T12:48:41Z</time>
      </trkpt>
      <trkpt lat="34.587013" lon="112.558051">
        <ele>148.6</ele>
        <time>2026-09-05T12:48:44Z</time>
      </trkpt>
      <trkpt lat="34.586943" lon="112.557943">
        <ele>148.6</ele>
        <time>2026-09-05T12:48:47Z</time>
      </trkpt>
      <trkpt lat="34.58691" lon="112.557902">
        <ele>148.6</ele>
        <time>2026-09-05T12:48:50Z</time>
      </trkpt>
      <trkpt lat="34.58679" lon="112.557827">
        <ele>148.7</ele>
        <time>2026-09-05T12:48:53Z</time>
      </trkpt>
      <trkpt lat="34.586703" lon="112.557802">
        <ele>148.5</ele>
        <time>2026-09-05T12:48:56Z</time>
      </trkpt>
      <trkpt lat="34.586571" lon="112.557818">
        <ele>148.5</ele>
        <time>2026-09-05T12:48:59Z</time>
      </trkpt>
      <trkpt lat="34.586495" lon="112.55784">
        <ele>148.5</ele>
        <time>2026-09-05T12:49:02Z</time>
      </trkpt>
      <trkpt lat="34.58635" lon="112.55786">
        <ele>148.4</ele>
        <time>2026-09-05T12:49:05Z</time>
      </trkpt>
      <trkpt lat="34.586257" lon="112.557858">
        <ele>148.3</ele>
        <time>2026-09-05T12:49:08Z</time>
      </trkpt>
      <trkpt lat="34.586163" lon="112.557865">
        <ele>148.5</ele>
        <time>2026-09-05T12:49:11Z</time>
      </trkpt>
      <trkpt lat="34.586092" lon="112.557872">
        <ele>148.6</ele>
        <time>2026-09-05T12:49:14Z</time>
      </trkpt>
      <trkpt lat="34.585934" lon="112.557865">
        <ele>148.6</ele>
        <time>2026-09-05T12:49:17Z</time>
      </trkpt>
      <trkpt lat="34.585842" lon="112.55787">
        <ele>148.8</ele>
        <time>2026-09-05T12:49:20Z</time>
      </trkpt>
      <trkpt lat="34.585754" lon="112.557884">
        <ele>148.5</ele>
        <time>2026-09-05T12:49:23Z</time>
      </trkpt>
      <trkpt lat="34.585674" lon="112.557931">
        <ele>148.5</ele>
        <time>2026-09-05T12:49:26Z</time>
      </trkpt>
      <trkpt lat="34.585581" lon="112.558037">
        <ele>148.4</ele>
        <time>2026-09-05T12:49:30Z</time>
      </trkpt>
      <trkpt lat="34.585501" lon="112.558173">
        <ele>148.6</ele>
        <time>2026-09-05T12:49:33Z</time>
      </trkpt>
      <trkpt lat="34.585483" lon="112.55825">
        <ele>148.8</ele>
        <time>2026-09-05T12:49:36Z</time>
      </trkpt>
      <trkpt lat="34.58548" lon="112.558374">
        <ele>148.6</ele>
        <time>2026-09-05T12:49:39Z</time>
      </trkpt>
      <trkpt lat="34.5855" lon="112.558471">
        <ele>148.7</ele>
        <time>2026-09-05T12:49:42Z</time>
      </trkpt>
      <trkpt lat="34.585548" lon="112.558608">
        <ele>148.5</ele>
        <time>2026-09-05T12:49:45Z</time>
      </trkpt>
      <trkpt lat="34.585586" lon="112.558672">
        <ele>148.4</ele>
        <time>2026-09-05T12:49:48Z</time>
      </trkpt>
      <trkpt lat="34.585642" lon="112.558733">
        <ele>148.4</ele>
        <time>2026-09-05T12:49:51Z</time>
      </trkpt>
      <trkpt lat="34.585715" lon="112.558788">
        <ele>148.3</ele>
        <time>2026-09-05T12:49:54Z</time>
      </trkpt>
      <trkpt lat="34.585799" lon="112.558813">
        <ele>148.2</ele>
        <time>2026-09-05T12:49:57Z</time>
      </trkpt>
      <trkpt lat="34.585892" lon="112.558818">
        <ele>148.3</ele>
        <time>2026-09-05T12:50:00Z</time>
      </trkpt>
      <trkpt lat="34.586005" lon="112.558819">
        <ele>148.4</ele>
        <time>2026-09-05T12:50:03Z</time>
      </trkpt>
      <trkpt lat="34.586118" lon="112.558813">
        <ele>148.4</ele>
        <time>2026-09-05T12:50:06Z</time>
      </trkpt>
      <trkpt lat="34.586259" lon="112.558812">
        <ele>148.3</ele>
        <time>2026-09-05T12:50:09Z</time>
      </trkpt>
      <trkpt lat="34.586386" lon="112.558799">
        <ele>148.3</ele>
        <time>2026-09-05T12:50:12Z</time>
      </trkpt>
      <trkpt lat="34.586485" lon="112.558792">
        <ele>148.3</ele>
        <time>2026-09-05T12:50:15Z</time>
      </trkpt>
      <trkpt lat="34.586585" lon="112.55879">
        <ele>148.4</ele>
        <time>2026-09-05T12:50:18Z</time>
      </trkpt>
      <trkpt lat="34.586682" lon="112.558778">
        <ele>148.6</ele>
        <time>2026-09-05T12:50:21Z</time>
      </trkpt>
      <trkpt lat="34.586767" lon="112.558765">
        <ele>148.6</ele>
        <time>2026-09-05T12:50:24Z</time>
      </trkpt>
      <trkpt lat="34.586852" lon="112.558737">
        <ele>148.6</ele>
        <time>2026-09-05T12:50:27Z</time>
      </trkpt>
      <trkpt lat="34.586935" lon="112.558667">
        <ele>148.4</ele>
        <time>2026-09-05T12:50:30Z</time>
      </trkpt>
      <trkpt lat="34.586995" lon="112.558586">
        <ele>148.4</ele>
        <time>2026-09-05T12:50:32Z</time>
      </trkpt>
      <trkpt lat="34.58703" lon="112.558491">
        <ele>148.3</ele>
        <time>2026-09-05T12:50:35Z</time>
      </trkpt>
      <trkpt lat="34.587048" lon="112.558373">
        <ele>148.3</ele>
        <time>2026-09-05T12:50:38Z</time>
      </trkpt>
      <trkpt lat="34.587048" lon="112.558266">
        <ele>148.4</ele>
        <time>2026-09-05T12:50:41Z</time>
      </trkpt>
      <trkpt lat="34.587039" lon="112.558193">
        <ele>148.4</ele>
        <time>2026-09-05T12:50:44Z</time>
      </trkpt>
      <trkpt lat="34.587025" lon="112.558116">
        <ele>148.3</ele>
        <time>2026-09-05T12:50:47Z</time>
      </trkpt>
      <trkpt lat="34.586996" lon="112.558041">
        <ele>148.3</ele>
        <time>2026-09-05T12:50:50Z</time>
      </trkpt>
      <trkpt lat="34.586949" lon="112.557955">
        <ele>148.4</ele>
        <time>2026-09-05T12:50:53Z</time>
      </trkpt>
      <trkpt lat="34.586874" lon="112.55788">
        <ele>148.2</ele>
        <time>2026-09-05T12:50:56Z</time>
      </trkpt>
      <trkpt lat="34.586787" lon="112.55784">
        <ele>148.2</ele>
        <time>2026-09-05T12:50:59Z</time>
      </trkpt>
      <trkpt lat="34.586697" lon="112.55783">
        <ele>148.2</ele>
        <time>2026-09-05T12:51:02Z</time>
      </trkpt>
      <trkpt lat="34.586574" lon="112.55789">
        <ele>148.1</ele>
        <time>2026-09-05T12:51:05Z</time>
      </trkpt>
      <trkpt lat="34.586517" lon="112.557876">
        <ele>148.1</ele>
        <time>2026-09-05T12:51:08Z</time>
      </trkpt>
      <trkpt lat="34.586441" lon="112.55791">
        <ele>148.2</ele>
        <time>2026-09-05T12:51:11Z</time>
      </trkpt>
      <trkpt lat="34.586399" lon="112.557917">
        <ele>148</ele>
        <time>2026-09-05T12:51:17Z</time>
      </trkpt>
      <trkpt lat="34.586424" lon="112.557923">
        <ele>148</ele>
        <time>2026-09-05T12:51:20Z</time>
      </trkpt>
      <trkpt lat="34.586433" lon="112.557934">
        <ele>148</ele>
        <time>2026-09-05T12:51:23Z</time>
      </trkpt>
      <trkpt lat="34.586434" lon="112.557932">
        <ele>148</ele>
        <time>2026-09-05T12:51:26Z</time>
      </trkpt>
      <trkpt lat="34.586439" lon="112.557931">
        <ele>148</ele>
        <time>2026-09-05T12:51:29Z</time>
      </trkpt>
      <trkpt lat="34.586442" lon="112.557918">
        <ele>148.2</ele>
        <time>2026-09-05T12:51:32Z</time>
      </trkpt>
      <trkpt lat="34.586434" lon="112.55792">
        <ele>148.1</ele>
        <time>2026-09-05T12:51:35Z</time>
      </trkpt>
      <trkpt lat="34.586431" lon="112.557921">
        <ele>147.9</ele>
        <time>2026-09-05T12:51:38Z</time>
      </trkpt>
      <trkpt lat="34.586427" lon="112.557915">
        <ele>148</ele>
        <time>2026-09-05T12:51:41Z</time>
      </trkpt>
      <trkpt lat="34.586427" lon="112.557915">
        <ele>147.9</ele>
        <time>2026-09-05T12:51:44Z</time>
      </trkpt>
      <trkpt lat="34.586432" lon="112.557927">
        <ele>148</ele>
        <time>2026-09-05T12:51:47Z</time>
      </trkpt>
      <trkpt lat="34.58645" lon="112.557919">
        <ele>148</ele>
        <time>2026-09-05T12:51:56Z</time>
      </trkpt>
      <trkpt lat="34.586453" lon="112.557918">
        <ele>148</ele>
        <time>2026-09-05T12:51:59Z</time>
      </trkpt>
      <trkpt lat="34.586446" lon="112.557927">
        <ele>148</ele>
        <time>2026-09-05T12:52:02Z</time>
      </trkpt>
      <trkpt lat="34.586443" lon="112.55793">
        <ele>148.4</ele>
        <time>2026-09-05T12:52:06Z</time>
      </trkpt>
      <trkpt lat="34.586439" lon="112.55794">
        <ele>148.4</ele>
        <time>2026-09-05T12:52:09Z</time>
      </trkpt>
      <trkpt lat="34.586437" lon="112.557942">
        <ele>148.4</ele>
        <time>2026-09-05T12:52:12Z</time>
      </trkpt>
      <trkpt lat="34.586438" lon="112.557943">
        <ele>148.4</ele>
        <time>2026-09-05T12:52:15Z</time>
      </trkpt>
      <trkpt lat="34.58644" lon="112.557938">
        <ele>148.3</ele>
        <time>2026-09-05T12:52:18Z</time>
      </trkpt>
      <trkpt lat="34.586456" lon="112.557912">
        <ele>148.3</ele>
        <time>2026-09-05T12:52:21Z</time>
      </trkpt>
      <trkpt lat="34.586457" lon="112.557915">
        <ele>148.2</ele>
        <time>2026-09-05T12:52:24Z</time>
      </trkpt>
      <trkpt lat="34.586462" lon="112.557909">
        <ele>148.4</ele>
        <time>2026-09-05T12:52:27Z</time>
      </trkpt>
      <trkpt lat="34.586463" lon="112.55791">
        <ele>148.3</ele>
        <time>2026-09-05T12:52:30Z</time>
      </trkpt>
      <trkpt lat="34.586457" lon="112.557909">
        <ele>148.1</ele>
        <time>2026-09-05T12:52:33Z</time>
      </trkpt>
      <trkpt lat="34.586438" lon="112.557944">
        <ele>147.9</ele>
        <time>2026-09-05T12:52:36Z</time>
      </trkpt>
      <trkpt lat="34.586442" lon="112.557924">
        <ele>147.8</ele>
        <time>2026-09-05T12:52:39Z</time>
      </trkpt>
      <trkpt lat="34.586439" lon="112.55791">
        <ele>147.8</ele>
        <time>2026-09-05T12:52:42Z</time>
      </trkpt>
      <trkpt lat="34.586434" lon="112.557907">
        <ele>147.7</ele>
        <time>2026-09-05T12:52:45Z</time>
      </trkpt>
      <trkpt lat="34.586434" lon="112.5579">
        <ele>147.7</ele>
        <time>2026-09-05T12:52:48Z</time>
      </trkpt>
      <trkpt lat="34.586434" lon="112.557904">
        <ele>147.7</ele>
        <time>2026-09-05T12:52:51Z</time>
      </trkpt>
      <trkpt lat="34.586433" lon="112.557904">
        <ele>147.7</ele>
        <time>2026-09-05T12:52:54Z</time>
      </trkpt>
      <trkpt lat="34.58643" lon="112.557905">
        <ele>147.8</ele>
        <time>2026-09-05T12:52:57Z</time>
      </trkpt>
      <trkpt lat="34.586435" lon="112.557899">
        <ele>147.8</ele>
        <time>2026-09-05T12:53:00Z</time>
      </trkpt>
      <trkpt lat="34.586435" lon="112.55791">
        <ele>147.8</ele>
        <time>2026-09-05T12:53:03Z</time>
      </trkpt>
      <trkpt lat="34.586438" lon="112.55791">
        <ele>147.8</ele>
        <time>2026-09-05T12:53:05Z</time>
      </trkpt>
      <trkpt lat="34.586443" lon="112.557911">
        <ele>147.9</ele>
        <time>2026-09-05T12:53:08Z</time>
      </trkpt>
      <trkpt lat="34.586446" lon="112.557912">
        <ele>148.1</ele>
        <time>2026-09-05T12:53:11Z</time>
      </trkpt>
      <trkpt lat="34.586446" lon="112.557926">
        <ele>148</ele>
        <time>2026-09-05T12:53:14Z</time>
      </trkpt>
      <trkpt lat="34.586456" lon="112.557913">
        <ele>148.1</ele>
        <time>2026-09-05T12:53:17Z</time>
      </trkpt>
      <trkpt lat="34.586453" lon="112.557916">
        <ele>148</ele>
        <time>2026-09-05T12:53:20Z</time>
      </trkpt>
      <trkpt lat="34.586444" lon="112.557929">
        <ele>147.7</ele>
        <time>2026-09-05T12:53:24Z</time>
      </trkpt>
      <trkpt lat="34.586446" lon="112.557921">
        <ele>147.7</ele>
        <time>2026-09-05T12:53:26Z</time>
      </trkpt>
      <trkpt lat="34.586442" lon="112.557927">
        <ele>147.9</ele>
        <time>2026-09-05T12:53:29Z</time>
      </trkpt>
      <trkpt lat="34.586443" lon="112.557923">
        <ele>147.8</ele>
        <time>2026-09-05T12:53:32Z</time>
      </trkpt>
      <trkpt lat="34.586448" lon="112.557904">
        <ele>147.9</ele>
        <time>2026-09-05T12:53:35Z</time>
      </trkpt>
      <trkpt lat="34.586446" lon="112.557912">
        <ele>148</ele>
        <time>2026-09-05T12:53:38Z</time>
      </trkpt>
      <trkpt lat="34.586444" lon="112.557917">
        <ele>147.9</ele>
        <time>2026-09-05T12:53:41Z</time>
      </trkpt>
      <trkpt lat="34.58644" lon="112.557936">
        <ele>148</ele>
        <time>2026-09-05T12:53:44Z</time>
      </trkpt>
      <trkpt lat="34.586439" lon="112.557938">
        <ele>148.1</ele>
        <time>2026-09-05T12:53:47Z</time>
      </trkpt>
      <trkpt lat="34.586443" lon="112.557931">
        <ele>148.2</ele>
        <time>2026-09-05T12:53:50Z</time>
      </trkpt>
      <trkpt lat="34.586452" lon="112.557913">
        <ele>148</ele>
        <time>2026-09-05T12:53:53Z</time>
      </trkpt>
      <trkpt lat="34.586454" lon="112.557909">
        <ele>147.7</ele>
        <time>2026-09-05T12:53:56Z</time>
      </trkpt>
      <trkpt lat="34.586451" lon="112.557913">
        <ele>147.8</ele>
        <time>2026-09-05T12:53:59Z</time>
      </trkpt>
      <trkpt lat="34.586454" lon="112.55791">
        <ele>147.7</ele>
        <time>2026-09-05T12:54:02Z</time>
      </trkpt>
      <trkpt lat="34.586455" lon="112.557912">
        <ele>147.4</ele>
        <time>2026-09-05T12:54:05Z</time>
      </trkpt>
      <trkpt lat="34.586458" lon="112.557905">
        <ele>147.3</ele>
        <time>2026-09-05T12:54:08Z</time>
      </trkpt>
      <trkpt lat="34.586459" lon="112.557902">
        <ele>147.4</ele>
        <time>2026-09-05T12:54:11Z</time>
      </trkpt>
      <trkpt lat="34.58644" lon="112.557937">
        <ele>147.3</ele>
        <time>2026-09-05T12:54:14Z</time>
      </trkpt>
      <trkpt lat="34.586444" lon="112.557909">
        <ele>147.2</ele>
        <time>2026-09-05T12:54:17Z</time>
      </trkpt>
      <trkpt lat="34.586439" lon="112.557916">
        <ele>147.1</ele>
        <time>2026-09-05T12:54:20Z</time>
      </trkpt>
      <trkpt lat="34.586443" lon="112.557911">
        <ele>147.2</ele>
        <time>2026-09-05T12:54:23Z</time>
      </trkpt>
      <trkpt lat="34.586443" lon="112.55791">
        <ele>147.2</ele>
        <time>2026-09-05T12:54:26Z</time>
      </trkpt>
      <trkpt lat="34.58644" lon="112.557914">
        <ele>147.2</ele>
        <time>2026-09-05T12:54:29Z</time>
      </trkpt>
      <trkpt lat="34.586445" lon="112.5579">
        <ele>147.1</ele>
        <time>2026-09-05T12:54:32Z</time>
      </trkpt>
      <trkpt lat="34.586443" lon="112.557915">
        <ele>147</ele>
        <time>2026-09-05T12:54:35Z</time>
      </trkpt>
      <trkpt lat="34.586438" lon="112.557928">
        <ele>147.1</ele>
        <time>2026-09-05T12:54:38Z</time>
      </trkpt>
      <trkpt lat="34.586447" lon="112.557897">
        <ele>147</ele>
        <time>2026-09-05T12:54:41Z</time>
      </trkpt>
      <trkpt lat="34.586441" lon="112.55791">
        <ele>147.2</ele>
        <time>2026-09-05T12:54:44Z</time>
      </trkpt>
      <trkpt lat="34.586441" lon="112.557908">
        <ele>147.1</ele>
        <time>2026-09-05T12:54:47Z</time>
      </trkpt>
      <trkpt lat="34.586441" lon="112.557908">
        <ele>147.1</ele>
        <time>2026-09-05T12:54:50Z</time>
      </trkpt>
      <trkpt lat="34.586445" lon="112.557906">
        <ele>147</ele>
        <time>2026-09-05T12:54:53Z</time>
      </trkpt>
      <trkpt lat="34.586446" lon="112.557904">
        <ele>147.1</ele>
        <time>2026-09-05T12:54:56Z</time>
      </trkpt>
      <trkpt lat="34.586442" lon="112.55791">
        <ele>147.1</ele>
        <time>2026-09-05T12:54:59Z</time>
      </trkpt>
      <trkpt lat="34.586442" lon="112.557909">
        <ele>147.1</ele>
        <time>2026-09-05T12:55:02Z</time>
      </trkpt>
      <trkpt lat="34.586438" lon="112.557908">
        <ele>146.9</ele>
        <time>2026-09-05T12:55:05Z</time>
      </trkpt>
      <trkpt lat="34.58643" lon="112.557902">
        <ele>147</ele>
        <time>2026-09-05T12:55:08Z</time>
      </trkpt>
      <trkpt lat="34.586427" lon="112.557904">
        <ele>147.2</ele>
        <time>2026-09-05T12:55:11Z</time>
      </trkpt>
      <trkpt lat="34.586428" lon="112.557904">
        <ele>147.3</ele>
        <time>2026-09-05T12:55:14Z</time>
      </trkpt>
      <trkpt lat="34.586427" lon="112.557903">
        <ele>147.3</ele>
        <time>2026-09-05T12:55:17Z</time>
      </trkpt>
      <trkpt lat="34.586428" lon="112.557903">
        <ele>147.2</ele>
        <time>2026-09-05T12:55:20Z</time>
      </trkpt>
      <trkpt lat="34.58643" lon="112.557904">
        <ele>147.1</ele>
        <time>2026-09-05T12:55:23Z</time>
      </trkpt>
      <trkpt lat="34.586432" lon="112.557902">
        <ele>147.1</ele>
        <time>2026-09-05T12:55:26Z</time>
      </trkpt>
      <trkpt lat="34.586432" lon="112.557899">
        <ele>147.3</ele>
        <time>2026-09-05T12:55:29Z</time>
      </trkpt>
      <trkpt lat="34.586432" lon="112.557897">
        <ele>147.2</ele>
        <time>2026-09-05T12:55:32Z</time>
      </trkpt>
      <trkpt lat="34.586437" lon="112.557897">
        <ele>147.2</ele>
        <time>2026-09-05T12:55:36Z</time>
      </trkpt>
      <trkpt lat="34.58644" lon="112.5579">
        <ele>147.2</ele>
        <time>2026-09-05T12:55:39Z</time>
      </trkpt>
      <trkpt lat="34.586442" lon="112.557903">
        <ele>147</ele>
        <time>2026-09-05T12:55:42Z</time>
      </trkpt>
      <trkpt lat="34.586442" lon="112.557905">
        <ele>147</ele>
        <time>2026-09-05T12:55:45Z</time>
      </trkpt>
      <trkpt lat="34.58644" lon="112.557904">
        <ele>147</ele>
        <time>2026-09-05T12:55:48Z</time>
      </trkpt>
      <trkpt lat="34.586437" lon="112.557901">
        <ele>147.1</ele>
        <time>2026-09-05T12:55:51Z</time>
      </trkpt>
      <trkpt lat="34.586435" lon="112.557897">
        <ele>147.2</ele>
        <time>2026-09-05T12:55:54Z</time>
      </trkpt>
      <trkpt lat="34.586436" lon="112.557891">
        <ele>147.2</ele>
        <time>2026-09-05T12:55:57Z</time>
      </trkpt>
      <trkpt lat="34.586437" lon="112.557887">
        <ele>147.2</ele>
        <time>2026-09-05T12:56:00Z</time>
      </trkpt>
      <trkpt lat="34.586439" lon="112.557886">
        <ele>147.3</ele>
        <time>2026-09-05T12:56:03Z</time>
      </trkpt>
      <trkpt lat="34.58644" lon="112.557886">
        <ele>147.1</ele>
        <time>2026-09-05T12:56:06Z</time>
      </trkpt>
      <trkpt lat="34.586439" lon="112.557887">
        <ele>147</ele>
        <time>2026-09-05T12:56:09Z</time>
      </trkpt>
      <trkpt lat="34.586434" lon="112.557889">
        <ele>147</ele>
        <time>2026-09-05T12:56:12Z</time>
      </trkpt>
      <trkpt lat="34.586431" lon="112.557891">
        <ele>147</ele>
        <time>2026-09-05T12:56:15Z</time>
      </trkpt>
      <trkpt lat="34.58643" lon="112.557891">
        <ele>147.1</ele>
        <time>2026-09-05T12:56:18Z</time>
      </trkpt>
      <trkpt lat="34.586431" lon="112.557889">
        <ele>147.1</ele>
        <time>2026-09-05T12:56:21Z</time>
      </trkpt>
      <trkpt lat="34.586435" lon="112.557894">
        <ele>147</ele>
        <time>2026-09-05T12:56:24Z</time>
      </trkpt>
      <trkpt lat="34.586437" lon="112.557901">
        <ele>147</ele>
        <time>2026-09-05T12:56:27Z</time>
      </trkpt>
      <trkpt lat="34.586438" lon="112.557902">
        <ele>147</ele>
        <time>2026-09-05T12:56:30Z</time>
      </trkpt>
      <trkpt lat="34.586436" lon="112.557902">
        <ele>147</ele>
        <time>2026-09-05T12:56:32Z</time>
      </trkpt>
      <trkpt lat="34.586433" lon="112.557901">
        <ele>147</ele>
        <time>2026-09-05T12:56:35Z</time>
      </trkpt>
      <trkpt lat="34.586434" lon="112.5579">
        <ele>146.7</ele>
        <time>2026-09-05T12:56:37Z</time>
      </trkpt>
    </trkseg>
  </trk>
</gpx>