<?xml version="1.0" encoding="UTF-8"?>
<gpx xmlns="http://www.topografix.com/GPX/1/1" xmlns:gpxtpx="http://www.garmin.com/xmlschemas/TrackPointExtension/v1" xmlns:xsi="http://www.w3.org/2001/XMLSchema-instance" xsi:schemaLocation="http://www.topografix.com/GPX/1/1 http://www.topografix.com/GPX/1/1/gpx.xsd" version="1.1" creator="gpx.py -- https://github.com/tkrajina/gpxpy">
  <trk>
    <name>晚上跑步</name>
    <type>running</type>
    <trkseg>
      <trkpt lat="34.586403" lon="112.557845">
        <ele>141.3</ele>
        <time>2026-09-04T12:14:23Z</time>
      </trkpt>
      <trkpt lat="34.586348" lon="112.557823">
        <ele>141.4</ele>
        <time>2026-09-04T12:14:26Z</time>
      </trkpt>
      <trkpt lat="34.586197" lon="112.557826">
        <ele>141.3</ele>
        <time>2026-09-04T12:14:29Z</time>
      </trkpt>
      <trkpt lat="34.58612" lon="112.557831">
        <ele>141.5</ele>
        <time>2026-09-04T12:14:32Z</time>
      </trkpt>
      <trkpt lat="34.58599" lon="112.55784">
        <ele>141.4</ele>
        <time>2026-09-04T12:14:35Z</time>
      </trkpt>
      <trkpt lat="34.58585" lon="112.557831">
        <ele>141.5</ele>
        <time>2026-09-04T12:14:38Z</time>
      </trkpt>
      <trkpt lat="34.585678" lon="112.557874">
        <ele>141.8</ele>
        <time>2026-09-04T12:14:41Z</time>
      </trkpt>
      <trkpt lat="34.585622" lon="112.55791">
        <ele>141.8</ele>
        <time>2026-09-04T12:14:44Z</time>
      </trkpt>
      <trkpt lat="34.585531" lon="112.558005">
        <ele>141.4</ele>
        <time>2026-09-04T12:14:47Z</time>
      </trkpt>
      <trkpt lat="34.58548" lon="112.558124">
        <ele>141.5</ele>
        <time>2026-09-04T12:14:50Z</time>
      </trkpt>
      <trkpt lat="34.585459" lon="112.558293">
        <ele>141.5</ele>
        <time>2026-09-04T12:14:53Z</time>
      </trkpt>
      <trkpt lat="34.585472" lon="112.558396">
        <ele>141.4</ele>
        <time>2026-09-04T12:14:56Z</time>
      </trkpt>
      <trkpt lat="34.585511" lon="112.558513">
        <ele>141.5</ele>
        <time>2026-09-04T12:14:59Z</time>
      </trkpt>
      <trkpt lat="34.585606" lon="112.558651">
        <ele>141.5</ele>
        <time>2026-09-04T12:15:02Z</time>
      </trkpt>
      <trkpt lat="34.58576" lon="112.558749">
        <ele>141.5</ele>
        <time>2026-09-04T12:15:05Z</time>
      </trkpt>
      <trkpt lat="34.585835" lon="112.558769">
        <ele>141.4</ele>
        <time>2026-09-04T12:15:08Z</time>
      </trkpt>
      <trkpt lat="34.585963" lon="112.558766">
        <ele>141.2</ele>
        <time>2026-09-04T12:15:11Z</time>
      </trkpt>
      <trkpt lat="34.586092" lon="112.558757">
        <ele>141.2</ele>
        <time>2026-09-04T12:15:14Z</time>
      </trkpt>
      <trkpt lat="34.586211" lon="112.558739">
        <ele>141.3</ele>
        <time>2026-09-04T12:15:17Z</time>
      </trkpt>
      <trkpt lat="34.586356" lon="112.558735">
        <ele>141.2</ele>
        <time>2026-09-04T12:15:20Z</time>
      </trkpt>
      <trkpt lat="34.586473" lon="112.558732">
        <ele>141.3</ele>
        <time>2026-09-04T12:15:23Z</time>
      </trkpt>
      <trkpt lat="34.586613" lon="112.558723">
        <ele>141.4</ele>
        <time>2026-09-04T12:15:26Z</time>
      </trkpt>
      <trkpt lat="34.586732" lon="112.558715">
        <ele>141.2</ele>
        <time>2026-09-04T12:15:29Z</time>
      </trkpt>
      <trkpt lat="34.586823" lon="112.558673">
        <ele>141</ele>
        <time>2026-09-04T12:15:31Z</time>
      </trkpt>
      <trkpt lat="34.586917" lon="112.558593">
        <ele>141.1</ele>
        <time>2026-09-04T12:15:34Z</time>
      </trkpt>
      <trkpt lat="34.586989" lon="112.558472">
        <ele>141.1</ele>
        <time>2026-09-04T12:15:37Z</time>
      </trkpt>
      <trkpt lat="34.587021" lon="112.558328">
        <ele>141.1</ele>
        <time>2026-09-04T12:15:40Z</time>
      </trkpt>
      <trkpt lat="34.587" lon="112.558155">
        <ele>141.2</ele>
        <time>2026-09-04T12:15:43Z</time>
      </trkpt>
      <trkpt lat="34.586941" lon="112.558036">
        <ele>141.2</ele>
        <time>2026-09-04T12:15:46Z</time>
      </trkpt>
      <trkpt lat="34.586846" lon="112.557891">
        <ele>141.2</ele>
        <time>2026-09-04T12:15:49Z</time>
      </trkpt>
      <trkpt lat="34.586745" lon="112.557825">
        <ele>141.2</ele>
        <time>2026-09-04T12:15:52Z</time>
      </trkpt>
      <trkpt lat="34.586637" lon="112.557796">
        <ele>141.1</ele>
        <time>2026-09-04T12:15:55Z</time>
      </trkpt>
      <trkpt lat="34.586483" lon="112.557808">
        <ele>141</ele>
        <time>2026-09-04T12:15:59Z</time>
      </trkpt>
      <trkpt lat="34.586488" lon="112.557806">
        <ele>141</ele>
        <time>2026-09-04T12:16:00Z</time>
      </trkpt>
      <trkpt lat="34.586273" lon="112.557823">
        <ele>141.1</ele>
        <time>2026-09-04T12:16:06Z</time>
      </trkpt>
      <trkpt lat="34.586167" lon="112.557826">
        <ele>141.2</ele>
        <time>2026-09-04T12:16:09Z</time>
      </trkpt>
      <trkpt lat="34.586049" lon="112.557829">
        <ele>141.3</ele>
        <time>2026-09-04T12:16:12Z</time>
      </trkpt>
      <trkpt lat="34.585917" lon="112.557831">
        <ele>141.3</ele>
        <time>2026-09-04T12:16:15Z</time>
      </trkpt>
      <trkpt lat="34.585793" lon="112.55784">
        <ele>141.5</ele>
        <time>2026-09-04T12:16:18Z</time>
      </trkpt>
      <trkpt lat="34.585685" lon="112.557872">
        <ele>141.5</ele>
        <time>2026-09-04T12:16:20Z</time>
      </trkpt>
      <trkpt lat="34.585586" lon="112.557943">
        <ele>141.4</ele>
        <time>2026-09-04T12:16:23Z</time>
      </trkpt>
      <trkpt lat="34.585512" lon="112.558044">
        <ele>141.4</ele>
        <time>2026-09-04T12:16:26Z</time>
      </trkpt>
      <trkpt lat="34.585466" lon="112.558176">
        <ele>141.3</ele>
        <time>2026-09-04T12:16:29Z</time>
      </trkpt>
      <trkpt lat="34.58546" lon="112.558299">
        <ele>141.3</ele>
        <time>2026-09-04T12:16:32Z</time>
      </trkpt>
      <trkpt lat="34.585481" lon="112.558434">
        <ele>141.3</ele>
        <time>2026-09-04T12:16:35Z</time>
      </trkpt>
      <trkpt lat="34.585523" lon="112.558524">
        <ele>141.4</ele>
        <time>2026-09-04T12:16:38Z</time>
      </trkpt>
      <trkpt lat="34.585625" lon="112.55867">
        <ele>141.2</ele>
        <time>2026-09-04T12:16:41Z</time>
      </trkpt>
      <trkpt lat="34.585732" lon="112.55874">
        <ele>141</ele>
        <time>2026-09-04T12:16:44Z</time>
      </trkpt>
      <trkpt lat="34.585841" lon="112.558769">
        <ele>141</ele>
        <time>2026-09-04T12:16:47Z</time>
      </trkpt>
      <trkpt lat="34.585916" lon="112.558771">
        <ele>141</ele>
        <time>2026-09-04T12:16:50Z</time>
      </trkpt>
      <trkpt lat="34.586024" lon="112.55876">
        <ele>141.3</ele>
        <time>2026-09-04T12:16:53Z</time>
      </trkpt>
      <trkpt lat="34.58617" lon="112.558744">
        <ele>141.4</ele>
        <time>2026-09-04T12:16:56Z</time>
      </trkpt>
      <trkpt lat="34.586234" lon="112.558741">
        <ele>141.3</ele>
        <time>2026-09-04T12:16:59Z</time>
      </trkpt>
      <trkpt lat="34.58634" lon="112.558735">
        <ele>141.2</ele>
        <time>2026-09-04T12:17:02Z</time>
      </trkpt>
      <trkpt lat="34.586446" lon="112.558733">
        <ele>141.2</ele>
        <time>2026-09-04T12:17:05Z</time>
      </trkpt>
      <trkpt lat="34.586579" lon="112.558729">
        <ele>141.1</ele>
        <time>2026-09-04T12:17:08Z</time>
      </trkpt>
      <trkpt lat="34.586656" lon="112.558724">
        <ele>141.3</ele>
        <time>2026-09-04T12:17:11Z</time>
      </trkpt>
      <trkpt lat="34.586775" lon="112.558694">
        <ele>141.2</ele>
        <time>2026-09-04T12:17:14Z</time>
      </trkpt>
      <trkpt lat="34.586874" lon="112.55864">
        <ele>141.2</ele>
        <time>2026-09-04T12:17:17Z</time>
      </trkpt>
      <trkpt lat="34.586939" lon="112.558568">
        <ele>141.3</ele>
        <time>2026-09-04T12:17:20Z</time>
      </trkpt>
      <trkpt lat="34.586991" lon="112.558466">
        <ele>141.1</ele>
        <time>2026-09-04T12:17:23Z</time>
      </trkpt>
      <trkpt lat="34.587022" lon="112.558343">
        <ele>141.1</ele>
        <time>2026-09-04T12:17:26Z</time>
      </trkpt>
      <trkpt lat="34.587022" lon="112.558221">
        <ele>141</ele>
        <time>2026-09-04T12:17:29Z</time>
      </trkpt>
      <trkpt lat="34.586999" lon="112.558111">
        <ele>141.1</ele>
        <time>2026-09-04T12:17:32Z</time>
      </trkpt>
      <trkpt lat="34.586921" lon="112.558015">
        <ele>141.2</ele>
        <time>2026-09-04T12:17:35Z</time>
      </trkpt>
      <trkpt lat="34.586875" lon="112.557907">
        <ele>141.3</ele>
        <time>2026-09-04T12:17:38Z</time>
      </trkpt>
      <trkpt lat="34.586785" lon="112.557838">
        <ele>141.2</ele>
        <time>2026-09-04T12:17:41Z</time>
      </trkpt>
      <trkpt lat="34.586734" lon="112.557814">
        <ele>141.2</ele>
        <time>2026-09-04T12:17:44Z</time>
      </trkpt>
      <trkpt lat="34.586669" lon="112.557795">
        <ele>141.1</ele>
        <time>2026-09-04T12:17:47Z</time>
      </trkpt>
      <trkpt lat="34.586584" lon="112.557789">
        <ele>141</ele>
        <time>2026-09-04T12:17:50Z</time>
      </trkpt>
      <trkpt lat="34.586504" lon="112.557798">
        <ele>141.1</ele>
        <time>2026-09-04T12:17:53Z</time>
      </trkpt>
      <trkpt lat="34.586421" lon="112.557804">
        <ele>141.2</ele>
        <time>2026-09-04T12:17:56Z</time>
      </trkpt>
      <trkpt lat="34.586335" lon="112.557814">
        <ele>141.3</ele>
        <time>2026-09-04T12:17:59Z</time>
      </trkpt>
      <trkpt lat="34.586257" lon="112.557819">
        <ele>141.1</ele>
        <time>2026-09-04T12:18:01Z</time>
      </trkpt>
      <trkpt lat="34.586182" lon="112.557818">
        <ele>141.1</ele>
        <time>2026-09-04T12:18:04Z</time>
      </trkpt>
      <trkpt lat="34.586111" lon="112.557822">
        <ele>141.3</ele>
        <time>2026-09-04T12:18:07Z</time>
      </trkpt>
      <trkpt lat="34.586032" lon="112.557825">
        <ele>141.1</ele>
        <time>2026-09-04T12:18:10Z</time>
      </trkpt>
      <trkpt lat="34.585954" lon="112.557824">
        <ele>141.1</ele>
        <time>2026-09-04T12:18:13Z</time>
      </trkpt>
      <trkpt lat="34.585882" lon="112.557823">
        <ele>141.1</ele>
        <time>2026-09-04T12:18:16Z</time>
      </trkpt>
      <trkpt lat="34.585823" lon="112.557827">
        <ele>141.2</ele>
        <time>2026-09-04T12:18:19Z</time>
      </trkpt>
      <trkpt lat="34.585758" lon="112.557838">
        <ele>141.2</ele>
        <time>2026-09-04T12:18:22Z</time>
      </trkpt>
      <trkpt lat="34.585699" lon="112.55786">
        <ele>141.3</ele>
        <time>2026-09-04T12:18:25Z</time>
      </trkpt>
      <trkpt lat="34.58563" lon="112.557902">
        <ele>141.2</ele>
        <time>2026-09-04T12:18:28Z</time>
      </trkpt>
      <trkpt lat="34.585557" lon="112.557971">
        <ele>141.2</ele>
        <time>2026-09-04T12:18:32Z</time>
      </trkpt>
      <trkpt lat="34.585503" lon="112.558053">
        <ele>141</ele>
        <time>2026-09-04T12:18:36Z</time>
      </trkpt>
      <trkpt lat="34.58548" lon="112.558117">
        <ele>140.9</ele>
        <time>2026-09-04T12:18:38Z</time>
      </trkpt>
      <trkpt lat="34.585463" lon="112.558214">
        <ele>141.1</ele>
        <time>2026-09-04T12:18:40Z</time>
      </trkpt>
      <trkpt lat="34.58546" lon="112.558306">
        <ele>141.2</ele>
        <time>2026-09-04T12:18:43Z</time>
      </trkpt>
      <trkpt lat="34.585472" lon="112.558394">
        <ele>141.3</ele>
        <time>2026-09-04T12:18:46Z</time>
      </trkpt>
      <trkpt lat="34.585491" lon="112.558457">
        <ele>141.2</ele>
        <time>2026-09-04T12:18:49Z</time>
      </trkpt>
      <trkpt lat="34.585549" lon="112.558581">
        <ele>141.1</ele>
        <time>2026-09-04T12:18:53Z</time>
      </trkpt>
      <trkpt lat="34.585642" lon="112.558684">
        <ele>141.1</ele>
        <time>2026-09-04T12:18:57Z</time>
      </trkpt>
      <trkpt lat="34.585711" lon="112.558731">
        <ele>141.1</ele>
        <time>2026-09-04T12:19:00Z</time>
      </trkpt>
      <trkpt lat="34.585783" lon="112.558756">
        <ele>141.1</ele>
        <time>2026-09-04T12:19:03Z</time>
      </trkpt>
      <trkpt lat="34.585862" lon="112.558772">
        <ele>141</ele>
        <time>2026-09-04T12:19:06Z</time>
      </trkpt>
      <trkpt lat="34.585934" lon="112.558772">
        <ele>140.9</ele>
        <time>2026-09-04T12:19:09Z</time>
      </trkpt>
      <trkpt lat="34.586026" lon="112.558764">
        <ele>141</ele>
        <time>2026-09-04T12:19:12Z</time>
      </trkpt>
      <trkpt lat="34.586105" lon="112.558757">
        <ele>141</ele>
        <time>2026-09-04T12:19:14Z</time>
      </trkpt>
      <trkpt lat="34.58619" lon="112.558747">
        <ele>141.1</ele>
        <time>2026-09-04T12:19:17Z</time>
      </trkpt>
      <trkpt lat="34.586273" lon="112.558746">
        <ele>141.2</ele>
        <time>2026-09-04T12:19:20Z</time>
      </trkpt>
      <trkpt lat="34.586332" lon="112.558744">
        <ele>141.1</ele>
        <time>2026-09-04T12:19:23Z</time>
      </trkpt>
      <trkpt lat="34.5864" lon="112.558741">
        <ele>141.1</ele>
        <time>2026-09-04T12:19:26Z</time>
      </trkpt>
      <trkpt lat="34.586468" lon="112.558742">
        <ele>141</ele>
        <time>2026-09-04T12:19:29Z</time>
      </trkpt>
      <trkpt lat="34.586539" lon="112.558741">
        <ele>141.1</ele>
        <time>2026-09-04T12:19:32Z</time>
      </trkpt>
      <trkpt lat="34.586608" lon="112.55874">
        <ele>141.2</ele>
        <time>2026-09-04T12:19:35Z</time>
      </trkpt>
      <trkpt lat="34.586691" lon="112.558732">
        <ele>141.2</ele>
        <time>2026-09-04T12:19:38Z</time>
      </trkpt>
      <trkpt lat="34.586778" lon="112.55871">
        <ele>141.2</ele>
        <time>2026-09-04T12:19:41Z</time>
      </trkpt>
      <trkpt lat="34.586855" lon="112.558666">
        <ele>141.2</ele>
        <time>2026-09-04T12:19:44Z</time>
      </trkpt>
      <trkpt lat="34.586899" lon="112.55863">
        <ele>141.2</ele>
        <time>2026-09-04T12:19:47Z</time>
      </trkpt>
      <trkpt lat="34.586967" lon="112.558551">
        <ele>141.1</ele>
        <time>2026-09-04T12:19:50Z</time>
      </trkpt>
      <trkpt lat="34.587017" lon="112.558424">
        <ele>141</ele>
        <time>2026-09-04T12:19:53Z</time>
      </trkpt>
      <trkpt lat="34.587029" lon="112.558355">
        <ele>141</ele>
        <time>2026-09-04T12:19:56Z</time>
      </trkpt>
      <trkpt lat="34.587036" lon="112.558253">
        <ele>141</ele>
        <time>2026-09-04T12:19:59Z</time>
      </trkpt>
      <trkpt lat="34.587022" lon="112.558179">
        <ele>140.9</ele>
        <time>2026-09-04T12:20:02Z</time>
      </trkpt>
      <trkpt lat="34.586995" lon="112.55808">
        <ele>140.8</ele>
        <time>2026-09-04T12:20:05Z</time>
      </trkpt>
      <trkpt lat="34.586971" lon="112.558028">
        <ele>140.9</ele>
        <time>2026-09-04T12:20:08Z</time>
      </trkpt>
      <trkpt lat="34.586915" lon="112.557949">
        <ele>140.8</ele>
        <time>2026-09-04T12:20:11Z</time>
      </trkpt>
      <trkpt lat="34.586842" lon="112.557876">
        <ele>140.9</ele>
        <time>2026-09-04T12:20:14Z</time>
      </trkpt>
      <trkpt lat="34.58674" lon="112.557818">
        <ele>140.9</ele>
        <time>2026-09-04T12:20:17Z</time>
      </trkpt>
      <trkpt lat="34.586694" lon="112.557802">
        <ele>140.8</ele>
        <time>2026-09-04T12:20:20Z</time>
      </trkpt>
      <trkpt lat="34.586619" lon="112.557789">
        <ele>140.8</ele>
        <time>2026-09-04T12:20:23Z</time>
      </trkpt>
      <trkpt lat="34.586538" lon="112.557796">
        <ele>140.9</ele>
        <time>2026-09-04T12:20:26Z</time>
      </trkpt>
      <trkpt lat="34.586426" lon="112.557804">
        <ele>140.7</ele>
        <time>2026-09-04T12:20:29Z</time>
      </trkpt>
      <trkpt lat="34.586371" lon="112.55781">
        <ele>140.9</ele>
        <time>2026-09-04T12:20:32Z</time>
      </trkpt>
      <trkpt lat="34.586289" lon="112.557818">
        <ele>141.1</ele>
        <time>2026-09-04T12:20:35Z</time>
      </trkpt>
      <trkpt lat="34.58621" lon="112.55782">
        <ele>140.9</ele>
        <time>2026-09-04T12:20:38Z</time>
      </trkpt>
      <trkpt lat="34.586128" lon="112.557823">
        <ele>141.1</ele>
        <time>2026-09-04T12:20:41Z</time>
      </trkpt>
      <trkpt lat="34.586052" lon="112.557825">
        <ele>140.9</ele>
        <time>2026-09-04T12:20:44Z</time>
      </trkpt>
      <trkpt lat="34.585967" lon="112.557824">
        <ele>140.9</ele>
        <time>2026-09-04T12:20:47Z</time>
      </trkpt>
      <trkpt lat="34.585893" lon="112.557825">
        <ele>141.1</ele>
        <time>2026-09-04T12:20:50Z</time>
      </trkpt>
      <trkpt lat="34.585824" lon="112.557831">
        <ele>141</ele>
        <time>2026-09-04T12:20:53Z</time>
      </trkpt>
      <trkpt lat="34.585742" lon="112.557844">
        <ele>141</ele>
        <time>2026-09-04T12:20:55Z</time>
      </trkpt>
      <trkpt lat="34.58567" lon="112.557876">
        <ele>141</ele>
        <time>2026-09-04T12:20:58Z</time>
      </trkpt>
      <trkpt lat="34.585605" lon="112.55792">
        <ele>140.9</ele>
        <time>2026-09-04T12:21:01Z</time>
      </trkpt>
      <trkpt lat="34.585549" lon="112.557983">
        <ele>141</ele>
        <time>2026-09-04T12:21:04Z</time>
      </trkpt>
      <trkpt lat="34.585495" lon="112.558071">
        <ele>141</ele>
        <time>2026-09-04T12:21:07Z</time>
      </trkpt>
      <trkpt lat="34.585469" lon="112.55816">
        <ele>140.9</ele>
        <time>2026-09-04T12:21:10Z</time>
      </trkpt>
      <trkpt lat="34.585459" lon="112.558262">
        <ele>141</ele>
        <time>2026-09-04T12:21:13Z</time>
      </trkpt>
      <trkpt lat="34.585465" lon="112.558368">
        <ele>141</ele>
        <time>2026-09-04T12:21:16Z</time>
      </trkpt>
      <trkpt lat="34.585487" lon="112.558459">
        <ele>141.1</ele>
        <time>2026-09-04T12:21:19Z</time>
      </trkpt>
      <trkpt lat="34.58553" lon="112.558559">
        <ele>141.1</ele>
        <time>2026-09-04T12:21:22Z</time>
      </trkpt>
      <trkpt lat="34.585584" lon="112.558636">
        <ele>140.9</ele>
        <time>2026-09-04T12:21:26Z</time>
      </trkpt>
      <trkpt lat="34.585709" lon="112.558737">
        <ele>140.9</ele>
        <time>2026-09-04T12:21:30Z</time>
      </trkpt>
      <trkpt lat="34.585805" lon="112.558772">
        <ele>140.7</ele>
        <time>2026-09-04T12:21:33Z</time>
      </trkpt>
      <trkpt lat="34.585935" lon="112.558777">
        <ele>140.6</ele>
        <time>2026-09-04T12:21:36Z</time>
      </trkpt>
      <trkpt lat="34.586003" lon="112.55877">
        <ele>140.7</ele>
        <time>2026-09-04T12:21:39Z</time>
      </trkpt>
      <trkpt lat="34.586113" lon="112.558757">
        <ele>140.8</ele>
        <time>2026-09-04T12:21:42Z</time>
      </trkpt>
      <trkpt lat="34.586226" lon="112.558746">
        <ele>140.8</ele>
        <time>2026-09-04T12:21:44Z</time>
      </trkpt>
      <trkpt lat="34.586315" lon="112.558746">
        <ele>140.8</ele>
        <time>2026-09-04T12:21:47Z</time>
      </trkpt>
      <trkpt lat="34.586422" lon="112.558741">
        <ele>140.8</ele>
        <time>2026-09-04T12:21:50Z</time>
      </trkpt>
      <trkpt lat="34.586521" lon="112.558743">
        <ele>140.9</ele>
        <time>2026-09-04T12:21:53Z</time>
      </trkpt>
      <trkpt lat="34.586603" lon="112.55874">
        <ele>140.8</ele>
        <time>2026-09-04T12:21:56Z</time>
      </trkpt>
      <trkpt lat="34.586697" lon="112.558733">
        <ele>140.7</ele>
        <time>2026-09-04T12:21:59Z</time>
      </trkpt>
      <trkpt lat="34.586803" lon="112.5587">
        <ele>140.8</ele>
        <time>2026-09-04T12:22:02Z</time>
      </trkpt>
      <trkpt lat="34.586877" lon="112.558646">
        <ele>140.7</ele>
        <time>2026-09-04T12:22:05Z</time>
      </trkpt>
      <trkpt lat="34.586954" lon="112.558565">
        <ele>140.7</ele>
        <time>2026-09-04T12:22:08Z</time>
      </trkpt>
      <trkpt lat="34.587007" lon="112.558447">
        <ele>140.7</ele>
        <time>2026-09-04T12:22:11Z</time>
      </trkpt>
      <trkpt lat="34.587029" lon="112.558335">
        <ele>140.6</ele>
        <time>2026-09-04T12:22:14Z</time>
      </trkpt>
      <trkpt lat="34.587031" lon="112.558238">
        <ele>140.7</ele>
        <time>2026-09-04T12:22:17Z</time>
      </trkpt>
      <trkpt lat="34.587" lon="112.558101">
        <ele>140.5</ele>
        <time>2026-09-04T12:22:20Z</time>
      </trkpt>
      <trkpt lat="34.586969" lon="112.558043">
        <ele>140.6</ele>
        <time>2026-09-04T12:22:23Z</time>
      </trkpt>
      <trkpt lat="34.586885" lon="112.557922">
        <ele>140.6</ele>
        <time>2026-09-04T12:22:26Z</time>
      </trkpt>
      <trkpt lat="34.586792" lon="112.557846">
        <ele>140.8</ele>
        <time>2026-09-04T12:22:29Z</time>
      </trkpt>
      <trkpt lat="34.586687" lon="112.5578">
        <ele>140.7</ele>
        <time>2026-09-04T12:22:32Z</time>
      </trkpt>
      <trkpt lat="34.586593" lon="112.557792">
        <ele>140.7</ele>
        <time>2026-09-04T12:22:35Z</time>
      </trkpt>
      <trkpt lat="34.586506" lon="112.557798">
        <ele>140.8</ele>
        <time>2026-09-04T12:22:38Z</time>
      </trkpt>
      <trkpt lat="34.586367" lon="112.557809">
        <ele>140.7</ele>
        <time>2026-09-04T12:22:41Z</time>
      </trkpt>
      <trkpt lat="34.586312" lon="112.557815">
        <ele>140.7</ele>
        <time>2026-09-04T12:22:44Z</time>
      </trkpt>
      <trkpt lat="34.586204" lon="112.557818">
        <ele>140.7</ele>
        <time>2026-09-04T12:22:47Z</time>
      </trkpt>
      <trkpt lat="34.586089" lon="112.557826">
        <ele>140.8</ele>
        <time>2026-09-04T12:22:50Z</time>
      </trkpt>
      <trkpt lat="34.58595" lon="112.557825">
        <ele>140.7</ele>
        <time>2026-09-04T12:22:53Z</time>
      </trkpt>
      <trkpt lat="34.585882" lon="112.557826">
        <ele>140.6</ele>
        <time>2026-09-04T12:22:56Z</time>
      </trkpt>
      <trkpt lat="34.585787" lon="112.557836">
        <ele>140.6</ele>
        <time>2026-09-04T12:22:59Z</time>
      </trkpt>
      <trkpt lat="34.585695" lon="112.557864">
        <ele>140.6</ele>
        <time>2026-09-04T12:23:02Z</time>
      </trkpt>
      <trkpt lat="34.585574" lon="112.557954">
        <ele>140.6</ele>
        <time>2026-09-04T12:23:05Z</time>
      </trkpt>
      <trkpt lat="34.585526" lon="112.558012">
        <ele>140.7</ele>
        <time>2026-09-04T12:23:08Z</time>
      </trkpt>
      <trkpt lat="34.585481" lon="112.55811">
        <ele>140.9</ele>
        <time>2026-09-04T12:23:11Z</time>
      </trkpt>
      <trkpt lat="34.585461" lon="112.558206">
        <ele>140.8</ele>
        <time>2026-09-04T12:23:14Z</time>
      </trkpt>
      <trkpt lat="34.58546" lon="112.558312">
        <ele>140.9</ele>
        <time>2026-09-04T12:23:17Z</time>
      </trkpt>
      <trkpt lat="34.585472" lon="112.5584">
        <ele>140.8</ele>
        <time>2026-09-04T12:23:20Z</time>
      </trkpt>
      <trkpt lat="34.585498" lon="112.558493">
        <ele>140.8</ele>
        <time>2026-09-04T12:23:23Z</time>
      </trkpt>
      <trkpt lat="34.585562" lon="112.558605">
        <ele>140.8</ele>
        <time>2026-09-04T12:23:25Z</time>
      </trkpt>
      <trkpt lat="34.585646" lon="112.558689">
        <ele>140.7</ele>
        <time>2026-09-04T12:23:28Z</time>
      </trkpt>
      <trkpt lat="34.585731" lon="112.558743">
        <ele>140.8</ele>
        <time>2026-09-04T12:23:31Z</time>
      </trkpt>
      <trkpt lat="34.585826" lon="112.558772">
        <ele>140.6</ele>
        <time>2026-09-04T12:23:34Z</time>
      </trkpt>
      <trkpt lat="34.585935" lon="112.558775">
        <ele>140.7</ele>
        <time>2026-09-04T12:23:37Z</time>
      </trkpt>
      <trkpt lat="34.586038" lon="112.558764">
        <ele>140.6</ele>
        <time>2026-09-04T12:23:40Z</time>
      </trkpt>
      <trkpt lat="34.586137" lon="112.558753">
        <ele>140.6</ele>
        <time>2026-09-04T12:23:43Z</time>
      </trkpt>
      <trkpt lat="34.586238" lon="112.558747">
        <ele>140.5</ele>
        <time>2026-09-04T12:23:46Z</time>
      </trkpt>
      <trkpt lat="34.586327" lon="112.558744">
        <ele>140.6</ele>
        <time>2026-09-04T12:23:49Z</time>
      </trkpt>
      <trkpt lat="34.58644" lon="112.55874">
        <ele>140.5</ele>
        <time>2026-09-04T12:23:52Z</time>
      </trkpt>
      <trkpt lat="34.586543" lon="112.55874">
        <ele>140.5</ele>
        <time>2026-09-04T12:23:55Z</time>
      </trkpt>
      <trkpt lat="34.586639" lon="112.558735">
        <ele>140.4</ele>
        <time>2026-09-04T12:23:58Z</time>
      </trkpt>
      <trkpt lat="34.586746" lon="112.558724">
        <ele>140.5</ele>
        <time>2026-09-04T12:24:03Z</time>
      </trkpt>
      <trkpt lat="34.586823" lon="112.558692">
        <ele>140.5</ele>
        <time>2026-09-04T12:24:06Z</time>
      </trkpt>
      <trkpt lat="34.586883" lon="112.558652">
        <ele>140.5</ele>
        <time>2026-09-04T12:24:09Z</time>
      </trkpt>
      <trkpt lat="34.586953" lon="112.558575">
        <ele>140.5</ele>
        <time>2026-09-04T12:24:12Z</time>
      </trkpt>
      <trkpt lat="34.586983" lon="112.558522">
        <ele>140.5</ele>
        <time>2026-09-04T12:24:15Z</time>
      </trkpt>
      <trkpt lat="34.587022" lon="112.55841">
        <ele>140.4</ele>
        <time>2026-09-04T12:24:18Z</time>
      </trkpt>
      <trkpt lat="34.587035" lon="112.558279">
        <ele>140.3</ele>
        <time>2026-09-04T12:24:20Z</time>
      </trkpt>
      <trkpt lat="34.587014" lon="112.558139">
        <ele>140.5</ele>
        <time>2026-09-04T12:24:23Z</time>
      </trkpt>
      <trkpt lat="34.58697" lon="112.558036">
        <ele>140.4</ele>
        <time>2026-09-04T12:24:26Z</time>
      </trkpt>
      <trkpt lat="34.586911" lon="112.557945">
        <ele>140.4</ele>
        <time>2026-09-04T12:24:29Z</time>
      </trkpt>
      <trkpt lat="34.586834" lon="112.557876">
        <ele>140.3</ele>
        <time>2026-09-04T12:24:32Z</time>
      </trkpt>
      <trkpt lat="34.586746" lon="112.557822">
        <ele>140.2</ele>
        <time>2026-09-04T12:24:35Z</time>
      </trkpt>
      <trkpt lat="34.586659" lon="112.557795">
        <ele>140.2</ele>
        <time>2026-09-04T12:24:38Z</time>
      </trkpt>
      <trkpt lat="34.58656" lon="112.557792">
        <ele>140.3</ele>
        <time>2026-09-04T12:24:41Z</time>
      </trkpt>
      <trkpt lat="34.58646" lon="112.557804">
        <ele>140.2</ele>
        <time>2026-09-04T12:24:44Z</time>
      </trkpt>
      <trkpt lat="34.586381" lon="112.557809">
        <ele>140.4</ele>
        <time>2026-09-04T12:24:47Z</time>
      </trkpt>
      <trkpt lat="34.586299" lon="112.557818">
        <ele>140.4</ele>
        <time>2026-09-04T12:24:50Z</time>
      </trkpt>
      <trkpt lat="34.58624" lon="112.557821">
        <ele>140.2</ele>
        <time>2026-09-04T12:24:53Z</time>
      </trkpt>
      <trkpt lat="34.586109" lon="112.557822">
        <ele>140.3</ele>
        <time>2026-09-04T12:24:56Z</time>
      </trkpt>
      <trkpt lat="34.58605" lon="112.557826">
        <ele>140.2</ele>
        <time>2026-09-04T12:24:59Z</time>
      </trkpt>
      <trkpt lat="34.585938" lon="112.557828">
        <ele>140.2</ele>
        <time>2026-09-04T12:25:02Z</time>
      </trkpt>
      <trkpt lat="34.585823" lon="112.557834">
        <ele>140.2</ele>
        <time>2026-09-04T12:25:05Z</time>
      </trkpt>
      <trkpt lat="34.585713" lon="112.557857">
        <ele>140.3</ele>
        <time>2026-09-04T12:25:08Z</time>
      </trkpt>
      <trkpt lat="34.585651" lon="112.55789">
        <ele>140.2</ele>
        <time>2026-09-04T12:25:11Z</time>
      </trkpt>
      <trkpt lat="34.585579" lon="112.55795">
        <ele>140.4</ele>
        <time>2026-09-04T12:25:14Z</time>
      </trkpt>
      <trkpt lat="34.585514" lon="112.558037">
        <ele>140.6</ele>
        <time>2026-09-04T12:25:17Z</time>
      </trkpt>
      <trkpt lat="34.585475" lon="112.558135">
        <ele>140.7</ele>
        <time>2026-09-04T12:25:20Z</time>
      </trkpt>
      <trkpt lat="34.58546" lon="112.558245">
        <ele>140.6</ele>
        <time>2026-09-04T12:25:23Z</time>
      </trkpt>
      <trkpt lat="34.585465" lon="112.558362">
        <ele>140.6</ele>
        <time>2026-09-04T12:25:26Z</time>
      </trkpt>
      <trkpt lat="34.5855" lon="112.558497">
        <ele>140.7</ele>
        <time>2026-09-04T12:25:29Z</time>
      </trkpt>
      <trkpt lat="34.585546" lon="112.558586">
        <ele>140.5</ele>
        <time>2026-09-04T12:25:32Z</time>
      </trkpt>
      <trkpt lat="34.585601" lon="112.558655">
        <ele>140.3</ele>
        <time>2026-09-04T12:25:35Z</time>
      </trkpt>
      <trkpt lat="34.58568" lon="112.558719">
        <ele>140.4</ele>
        <time>2026-09-04T12:25:38Z</time>
      </trkpt>
      <trkpt lat="34.585794" lon="112.558768">
        <ele>140.3</ele>
        <time>2026-09-04T12:25:41Z</time>
      </trkpt>
      <trkpt lat="34.58587" lon="112.558777">
        <ele>140.4</ele>
        <time>2026-09-04T12:25:44Z</time>
      </trkpt>
      <trkpt lat="34.585963" lon="112.558772">
        <ele>140.3</ele>
        <time>2026-09-04T12:25:47Z</time>
      </trkpt>
      <trkpt lat="34.586057" lon="112.558762">
        <ele>140.4</ele>
        <time>2026-09-04T12:25:50Z</time>
      </trkpt>
      <trkpt lat="34.586157" lon="112.558754">
        <ele>140.3</ele>
        <time>2026-09-04T12:25:53Z</time>
      </trkpt>
      <trkpt lat="34.586258" lon="112.558748">
        <ele>140.4</ele>
        <time>2026-09-04T12:25:56Z</time>
      </trkpt>
      <trkpt lat="34.586347" lon="112.558744">
        <ele>140.4</ele>
        <time>2026-09-04T12:25:59Z</time>
      </trkpt>
      <trkpt lat="34.586428" lon="112.55874">
        <ele>140.4</ele>
        <time>2026-09-04T12:26:01Z</time>
      </trkpt>
      <trkpt lat="34.586524" lon="112.558741">
        <ele>140.4</ele>
        <time>2026-09-04T12:26:04Z</time>
      </trkpt>
      <trkpt lat="34.586609" lon="112.558737">
        <ele>140.2</ele>
        <time>2026-09-04T12:26:07Z</time>
      </trkpt>
      <trkpt lat="34.586711" lon="112.558729">
        <ele>140.2</ele>
        <time>2026-09-04T12:26:10Z</time>
      </trkpt>
      <trkpt lat="34.586807" lon="112.558697">
        <ele>140.2</ele>
        <time>2026-09-04T12:26:13Z</time>
      </trkpt>
      <trkpt lat="34.586871" lon="112.558656">
        <ele>140.2</ele>
        <time>2026-09-04T12:26:16Z</time>
      </trkpt>
      <trkpt lat="34.586938" lon="112.558588">
        <ele>140.3</ele>
        <time>2026-09-04T12:26:19Z</time>
      </trkpt>
      <trkpt lat="34.586993" lon="112.558488">
        <ele>140.3</ele>
        <time>2026-09-04T12:26:22Z</time>
      </trkpt>
      <trkpt lat="34.587025" lon="112.558376">
        <ele>140.3</ele>
        <time>2026-09-04T12:26:25Z</time>
      </trkpt>
      <trkpt lat="34.587033" lon="112.558248">
        <ele>140.2</ele>
        <time>2026-09-04T12:26:28Z</time>
      </trkpt>
      <trkpt lat="34.587013" lon="112.558129">
        <ele>140.2</ele>
        <time>2026-09-04T12:26:31Z</time>
      </trkpt>
      <trkpt lat="34.586957" lon="112.55803">
        <ele>140.4</ele>
        <time>2026-09-04T12:26:35Z</time>
      </trkpt>
      <trkpt lat="34.586872" lon="112.557904">
        <ele>140.3</ele>
        <time>2026-09-04T12:26:39Z</time>
      </trkpt>
      <trkpt lat="34.586791" lon="112.557844">
        <ele>140.3</ele>
        <time>2026-09-04T12:26:42Z</time>
      </trkpt>
      <trkpt lat="34.586682" lon="112.557798">
        <ele>140.5</ele>
        <time>2026-09-04T12:26:45Z</time>
      </trkpt>
      <trkpt lat="34.586586" lon="112.557792">
        <ele>140.3</ele>
        <time>2026-09-04T12:26:48Z</time>
      </trkpt>
      <trkpt lat="34.586481" lon="112.557801">
        <ele>140.4</ele>
        <time>2026-09-04T12:26:50Z</time>
      </trkpt>
      <trkpt lat="34.586393" lon="112.557808">
        <ele>140.4</ele>
        <time>2026-09-04T12:26:53Z</time>
      </trkpt>
      <trkpt lat="34.586297" lon="112.557815">
        <ele>140.4</ele>
        <time>2026-09-04T12:26:56Z</time>
      </trkpt>
      <trkpt lat="34.586231" lon="112.557817">
        <ele>140.5</ele>
        <time>2026-09-04T12:26:59Z</time>
      </trkpt>
      <trkpt lat="34.586157" lon="112.55782">
        <ele>140.1</ele>
        <time>2026-09-04T12:27:02Z</time>
      </trkpt>
      <trkpt lat="34.586093" lon="112.557826">
        <ele>140</ele>
        <time>2026-09-04T12:27:05Z</time>
      </trkpt>
      <trkpt lat="34.586068" lon="112.557826">
        <ele>140.2</ele>
        <time>2026-09-04T12:27:08Z</time>
      </trkpt>
      <trkpt lat="34.586036" lon="112.557824">
        <ele>140.3</ele>
        <time>2026-09-04T12:27:11Z</time>
      </trkpt>
      <trkpt lat="34.585986" lon="112.557822">
        <ele>140.3</ele>
        <time>2026-09-04T12:27:14Z</time>
      </trkpt>
      <trkpt lat="34.585922" lon="112.557823">
        <ele>140.1</ele>
        <time>2026-09-04T12:27:17Z</time>
      </trkpt>
      <trkpt lat="34.58585" lon="112.557826">
        <ele>140.1</ele>
        <time>2026-09-04T12:27:20Z</time>
      </trkpt>
      <trkpt lat="34.585764" lon="112.557837">
        <ele>140.1</ele>
        <time>2026-09-04T12:27:23Z</time>
      </trkpt>
      <trkpt lat="34.58571" lon="112.557854">
        <ele>140.2</ele>
        <time>2026-09-04T12:27:26Z</time>
      </trkpt>
      <trkpt lat="34.585622" lon="112.557908">
        <ele>140.1</ele>
        <time>2026-09-04T12:27:29Z</time>
      </trkpt>
      <trkpt lat="34.585519" lon="112.558028">
        <ele>140.2</ele>
        <time>2026-09-04T12:27:32Z</time>
      </trkpt>
      <trkpt lat="34.585483" lon="112.558101">
        <ele>140.2</ele>
        <time>2026-09-04T12:27:35Z</time>
      </trkpt>
      <trkpt lat="34.585461" lon="112.558202">
        <ele>140.1</ele>
        <time>2026-09-04T12:27:38Z</time>
      </trkpt>
      <trkpt lat="34.585462" lon="112.558329">
        <ele>140.1</ele>
        <time>2026-09-04T12:27:41Z</time>
      </trkpt>
      <trkpt lat="34.585494" lon="112.558479">
        <ele>140.1</ele>
        <time>2026-09-04T12:27:44Z</time>
      </trkpt>
      <trkpt lat="34.58554" lon="112.558575">
        <ele>140.1</ele>
        <time>2026-09-04T12:27:47Z</time>
      </trkpt>
      <trkpt lat="34.58561" lon="112.558661">
        <ele>140.1</ele>
        <time>2026-09-04T12:27:50Z</time>
      </trkpt>
      <trkpt lat="34.585699" lon="112.558727">
        <ele>140.1</ele>
        <time>2026-09-04T12:27:53Z</time>
      </trkpt>
      <trkpt lat="34.585792" lon="112.558762">
        <ele>140.1</ele>
        <time>2026-09-04T12:27:56Z</time>
      </trkpt>
      <trkpt lat="34.585889" lon="112.558776">
        <ele>140</ele>
        <time>2026-09-04T12:27:59Z</time>
      </trkpt>
      <trkpt lat="34.585992" lon="112.55877">
        <ele>140.1</ele>
        <time>2026-09-04T12:28:02Z</time>
      </trkpt>
      <trkpt lat="34.586093" lon="112.55876">
        <ele>140.2</ele>
        <time>2026-09-04T12:28:05Z</time>
      </trkpt>
      <trkpt lat="34.586194" lon="112.558748">
        <ele>140.2</ele>
        <time>2026-09-04T12:28:08Z</time>
      </trkpt>
      <trkpt lat="34.58629" lon="112.558746">
        <ele>140.1</ele>
        <time>2026-09-04T12:28:11Z</time>
      </trkpt>
      <trkpt lat="34.58639" lon="112.558741">
        <ele>140.1</ele>
        <time>2026-09-04T12:28:14Z</time>
      </trkpt>
      <trkpt lat="34.586515" lon="112.558743">
        <ele>140.1</ele>
        <time>2026-09-04T12:28:17Z</time>
      </trkpt>
      <trkpt lat="34.586577" lon="112.558739">
        <ele>140.1</ele>
        <time>2026-09-04T12:28:20Z</time>
      </trkpt>
      <trkpt lat="34.586664" lon="112.558737">
        <ele>140.1</ele>
        <time>2026-09-04T12:28:23Z</time>
      </trkpt>
      <trkpt lat="34.586737" lon="112.558725">
        <ele>140.1</ele>
        <time>2026-09-04T12:28:26Z</time>
      </trkpt>
      <trkpt lat="34.586796" lon="112.558707">
        <ele>140.1</ele>
        <time>2026-09-04T12:28:29Z</time>
      </trkpt>
      <trkpt lat="34.586852" lon="112.558672">
        <ele>140.2</ele>
        <time>2026-09-04T12:28:32Z</time>
      </trkpt>
      <trkpt lat="34.586918" lon="112.558615">
        <ele>140</ele>
        <time>2026-09-04T12:28:34Z</time>
      </trkpt>
      <trkpt lat="34.586974" lon="112.558545">
        <ele>140</ele>
        <time>2026-09-04T12:28:37Z</time>
      </trkpt>
      <trkpt lat="34.587005" lon="112.558481">
        <ele>140.1</ele>
        <time>2026-09-04T12:28:40Z</time>
      </trkpt>
      <trkpt lat="34.587026" lon="112.558386">
        <ele>140.1</ele>
        <time>2026-09-04T12:28:43Z</time>
      </trkpt>
      <trkpt lat="34.587036" lon="112.558272">
        <ele>140</ele>
        <time>2026-09-04T12:28:46Z</time>
      </trkpt>
      <trkpt lat="34.58702" lon="112.558148">
        <ele>140</ele>
        <time>2026-09-04T12:28:49Z</time>
      </trkpt>
      <trkpt lat="34.586986" lon="112.558063">
        <ele>140</ele>
        <time>2026-09-04T12:28:52Z</time>
      </trkpt>
      <trkpt lat="34.586925" lon="112.557959">
        <ele>139.9</ele>
        <time>2026-09-04T12:28:55Z</time>
      </trkpt>
      <trkpt lat="34.586856" lon="112.557889">
        <ele>140</ele>
        <time>2026-09-04T12:28:58Z</time>
      </trkpt>
      <trkpt lat="34.58678" lon="112.557835">
        <ele>139.9</ele>
        <time>2026-09-04T12:29:01Z</time>
      </trkpt>
      <trkpt lat="34.586709" lon="112.557805">
        <ele>140</ele>
        <time>2026-09-04T12:29:04Z</time>
      </trkpt>
      <trkpt lat="34.586624" lon="112.557788">
        <ele>139.9</ele>
        <time>2026-09-04T12:29:07Z</time>
      </trkpt>
      <trkpt lat="34.586516" lon="112.557796">
        <ele>140</ele>
        <time>2026-09-04T12:29:12Z</time>
      </trkpt>
      <trkpt lat="34.586431" lon="112.557803">
        <ele>139.9</ele>
        <time>2026-09-04T12:29:15Z</time>
      </trkpt>
      <trkpt lat="34.586354" lon="112.557811">
        <ele>139.9</ele>
        <time>2026-09-04T12:29:18Z</time>
      </trkpt>
      <trkpt lat="34.586287" lon="112.557817">
        <ele>139.8</ele>
        <time>2026-09-04T12:29:21Z</time>
      </trkpt>
      <trkpt lat="34.586222" lon="112.557821">
        <ele>139.9</ele>
        <time>2026-09-04T12:29:24Z</time>
      </trkpt>
      <trkpt lat="34.58615" lon="112.557821">
        <ele>140</ele>
        <time>2026-09-04T12:29:26Z</time>
      </trkpt>
      <trkpt lat="34.586072" lon="112.557825">
        <ele>140</ele>
        <time>2026-09-04T12:29:29Z</time>
      </trkpt>
      <trkpt lat="34.585995" lon="112.557824">
        <ele>140</ele>
        <time>2026-09-04T12:29:32Z</time>
      </trkpt>
      <trkpt lat="34.585911" lon="112.557825">
        <ele>140</ele>
        <time>2026-09-04T12:29:35Z</time>
      </trkpt>
      <trkpt lat="34.585839" lon="112.55783">
        <ele>140.2</ele>
        <time>2026-09-04T12:29:38Z</time>
      </trkpt>
      <trkpt lat="34.585747" lon="112.557843">
        <ele>140.1</ele>
        <time>2026-09-04T12:29:41Z</time>
      </trkpt>
      <trkpt lat="34.585682" lon="112.557868">
        <ele>140</ele>
        <time>2026-09-04T12:29:44Z</time>
      </trkpt>
      <trkpt lat="34.585602" lon="112.557924">
        <ele>140.1</ele>
        <time>2026-09-04T12:29:47Z</time>
      </trkpt>
      <trkpt lat="34.585537" lon="112.557999">
        <ele>140</ele>
        <time>2026-09-04T12:29:50Z</time>
      </trkpt>
      <trkpt lat="34.585484" lon="112.558103">
        <ele>139.9</ele>
        <time>2026-09-04T12:29:53Z</time>
      </trkpt>
      <trkpt lat="34.585462" lon="112.558197">
        <ele>140</ele>
        <time>2026-09-04T12:29:56Z</time>
      </trkpt>
      <trkpt lat="34.58546" lon="112.558257">
        <ele>140</ele>
        <time>2026-09-04T12:29:59Z</time>
      </trkpt>
      <trkpt lat="34.585464" lon="112.558353">
        <ele>140</ele>
        <time>2026-09-04T12:30:02Z</time>
      </trkpt>
      <trkpt lat="34.585482" lon="112.558439">
        <ele>140.1</ele>
        <time>2026-09-04T12:30:05Z</time>
      </trkpt>
      <trkpt lat="34.585527" lon="112.558549">
        <ele>140</ele>
        <time>2026-09-04T12:30:08Z</time>
      </trkpt>
      <trkpt lat="34.585569" lon="112.558616">
        <ele>139.9</ele>
        <time>2026-09-04T12:30:11Z</time>
      </trkpt>
      <trkpt lat="34.585633" lon="112.55868">
        <ele>139.9</ele>
        <time>2026-09-04T12:30:14Z</time>
      </trkpt>
      <trkpt lat="34.585696" lon="112.558723">
        <ele>139.8</ele>
        <time>2026-09-04T12:30:17Z</time>
      </trkpt>
      <trkpt lat="34.585812" lon="112.55877">
        <ele>139.9</ele>
        <time>2026-09-04T12:30:20Z</time>
      </trkpt>
      <trkpt lat="34.585882" lon="112.558774">
        <ele>139.8</ele>
        <time>2026-09-04T12:30:23Z</time>
      </trkpt>
      <trkpt lat="34.585961" lon="112.558771">
        <ele>139.8</ele>
        <time>2026-09-04T12:30:26Z</time>
      </trkpt>
      <trkpt lat="34.586051" lon="112.558762">
        <ele>139.9</ele>
        <time>2026-09-04T12:30:29Z</time>
      </trkpt>
      <trkpt lat="34.586132" lon="112.558755">
        <ele>139.9</ele>
        <time>2026-09-04T12:30:32Z</time>
      </trkpt>
      <trkpt lat="34.586214" lon="112.558746">
        <ele>139.9</ele>
        <time>2026-09-04T12:30:35Z</time>
      </trkpt>
      <trkpt lat="34.586297" lon="112.558742">
        <ele>140</ele>
        <time>2026-09-04T12:30:38Z</time>
      </trkpt>
      <trkpt lat="34.586383" lon="112.558739">
        <ele>139.8</ele>
        <time>2026-09-04T12:30:41Z</time>
      </trkpt>
      <trkpt lat="34.58647" lon="112.55874">
        <ele>139.7</ele>
        <time>2026-09-04T12:30:44Z</time>
      </trkpt>
      <trkpt lat="34.586553" lon="112.558741">
        <ele>139.7</ele>
        <time>2026-09-04T12:30:47Z</time>
      </trkpt>
      <trkpt lat="34.58663" lon="112.558735">
        <ele>139.8</ele>
        <time>2026-09-04T12:30:50Z</time>
      </trkpt>
      <trkpt lat="34.586707" lon="112.558732">
        <ele>139.8</ele>
        <time>2026-09-04T12:30:53Z</time>
      </trkpt>
      <trkpt lat="34.586773" lon="112.558715">
        <ele>139.8</ele>
        <time>2026-09-04T12:30:56Z</time>
      </trkpt>
      <trkpt lat="34.586855" lon="112.55867">
        <ele>140</ele>
        <time>2026-09-04T12:30:59Z</time>
      </trkpt>
      <trkpt lat="34.586921" lon="112.558611">
        <ele>139.8</ele>
        <time>2026-09-04T12:31:02Z</time>
      </trkpt>
      <trkpt lat="34.586967" lon="112.558556">
        <ele>139.6</ele>
        <time>2026-09-04T12:31:04Z</time>
      </trkpt>
      <trkpt lat="34.586997" lon="112.558495">
        <ele>139.7</ele>
        <time>2026-09-04T12:31:07Z</time>
      </trkpt>
      <trkpt lat="34.587024" lon="112.558405">
        <ele>139.6</ele>
        <time>2026-09-04T12:31:10Z</time>
      </trkpt>
      <trkpt lat="34.587037" lon="112.558308">
        <ele>139.7</ele>
        <time>2026-09-04T12:31:13Z</time>
      </trkpt>
      <trkpt lat="34.58703" lon="112.558213">
        <ele>139.8</ele>
        <time>2026-09-04T12:31:16Z</time>
      </trkpt>
      <trkpt lat="34.587011" lon="112.558111">
        <ele>139.6</ele>
        <time>2026-09-04T12:31:19Z</time>
      </trkpt>
      <trkpt lat="34.586964" lon="112.558014">
        <ele>139.6</ele>
        <time>2026-09-04T12:31:22Z</time>
      </trkpt>
      <trkpt lat="34.586906" lon="112.557937">
        <ele>139.6</ele>
        <time>2026-09-04T12:31:25Z</time>
      </trkpt>
      <trkpt lat="34.58682" lon="112.557859">
        <ele>139.6</ele>
        <time>2026-09-04T12:31:28Z</time>
      </trkpt>
      <trkpt lat="34.586727" lon="112.557812">
        <ele>139.5</ele>
        <time>2026-09-04T12:31:31Z</time>
      </trkpt>
      <trkpt lat="34.586638" lon="112.557791">
        <ele>139.6</ele>
        <time>2026-09-04T12:31:34Z</time>
      </trkpt>
      <trkpt lat="34.586557" lon="112.557793">
        <ele>139.5</ele>
        <time>2026-09-04T12:31:37Z</time>
      </trkpt>
      <trkpt lat="34.586477" lon="112.5578">
        <ele>139.5</ele>
        <time>2026-09-04T12:31:40Z</time>
      </trkpt>
      <trkpt lat="34.586387" lon="112.557808">
        <ele>139.6</ele>
        <time>2026-09-04T12:31:45Z</time>
      </trkpt>
      <trkpt lat="34.586307" lon="112.557815">
        <ele>139.6</ele>
        <time>2026-09-04T12:31:48Z</time>
      </trkpt>
      <trkpt lat="34.586226" lon="112.557819">
        <ele>139.6</ele>
        <time>2026-09-04T12:31:51Z</time>
      </trkpt>
      <trkpt lat="34.586144" lon="112.557819">
        <ele>139.6</ele>
        <time>2026-09-04T12:31:54Z</time>
      </trkpt>
      <trkpt lat="34.586061" lon="112.557824">
        <ele>139.6</ele>
        <time>2026-09-04T12:31:56Z</time>
      </trkpt>
      <trkpt lat="34.585966" lon="112.55782">
        <ele>139.7</ele>
        <time>2026-09-04T12:31:59Z</time>
      </trkpt>
      <trkpt lat="34.585866" lon="112.557827">
        <ele>139.6</ele>
        <time>2026-09-04T12:32:02Z</time>
      </trkpt>
      <trkpt lat="34.585789" lon="112.557835">
        <ele>139.6</ele>
        <time>2026-09-04T12:32:05Z</time>
      </trkpt>
      <trkpt lat="34.5857" lon="112.557862">
        <ele>139.7</ele>
        <time>2026-09-04T12:32:08Z</time>
      </trkpt>
      <trkpt lat="34.585612" lon="112.557915">
        <ele>139.7</ele>
        <time>2026-09-04T12:32:11Z</time>
      </trkpt>
      <trkpt lat="34.585541" lon="112.557993">
        <ele>139.8</ele>
        <time>2026-09-04T12:32:14Z</time>
      </trkpt>
      <trkpt lat="34.585488" lon="112.558088">
        <ele>139.7</ele>
        <time>2026-09-04T12:32:17Z</time>
      </trkpt>
      <trkpt lat="34.585464" lon="112.55819">
        <ele>139.7</ele>
        <time>2026-09-04T12:32:20Z</time>
      </trkpt>
      <trkpt lat="34.585459" lon="112.558286">
        <ele>139.8</ele>
        <time>2026-09-04T12:32:23Z</time>
      </trkpt>
      <trkpt lat="34.585477" lon="112.558414">
        <ele>139.7</ele>
        <time>2026-09-04T12:32:26Z</time>
      </trkpt>
      <trkpt lat="34.585502" lon="112.558503">
        <ele>139.7</ele>
        <time>2026-09-04T12:32:29Z</time>
      </trkpt>
      <trkpt lat="34.585563" lon="112.55861">
        <ele>139.7</ele>
        <time>2026-09-04T12:32:32Z</time>
      </trkpt>
      <trkpt lat="34.585621" lon="112.558673">
        <ele>139.6</ele>
        <time>2026-09-04T12:32:35Z</time>
      </trkpt>
      <trkpt lat="34.585656" lon="112.558701">
        <ele>139.6</ele>
        <time>2026-09-04T12:32:38Z</time>
      </trkpt>
      <trkpt lat="34.58574" lon="112.558749">
        <ele>139.6</ele>
        <time>2026-09-04T12:32:41Z</time>
      </trkpt>
      <trkpt lat="34.585844" lon="112.558775">
        <ele>139.5</ele>
        <time>2026-09-04T12:32:44Z</time>
      </trkpt>
      <trkpt lat="34.585899" lon="112.558777">
        <ele>139.5</ele>
        <time>2026-09-04T12:32:47Z</time>
      </trkpt>
      <trkpt lat="34.585989" lon="112.558771">
        <ele>139.5</ele>
        <time>2026-09-04T12:32:50Z</time>
      </trkpt>
      <trkpt lat="34.586078" lon="112.558759">
        <ele>139.5</ele>
        <time>2026-09-04T12:32:53Z</time>
      </trkpt>
      <trkpt lat="34.586184" lon="112.558748">
        <ele>139.6</ele>
        <time>2026-09-04T12:32:56Z</time>
      </trkpt>
      <trkpt lat="34.586247" lon="112.558747">
        <ele>139.6</ele>
        <time>2026-09-04T12:32:59Z</time>
      </trkpt>
      <trkpt lat="34.58632" lon="112.558745">
        <ele>139.6</ele>
        <time>2026-09-04T12:33:02Z</time>
      </trkpt>
      <trkpt lat="34.586407" lon="112.558741">
        <ele>139.7</ele>
        <time>2026-09-04T12:33:05Z</time>
      </trkpt>
      <trkpt lat="34.586491" lon="112.558741">
        <ele>139.6</ele>
        <time>2026-09-04T12:33:08Z</time>
      </trkpt>
      <trkpt lat="34.586573" lon="112.558739">
        <ele>139.8</ele>
        <time>2026-09-04T12:33:11Z</time>
      </trkpt>
      <trkpt lat="34.58667" lon="112.558737">
        <ele>139.7</ele>
        <time>2026-09-04T12:33:14Z</time>
      </trkpt>
      <trkpt lat="34.586753" lon="112.55872">
        <ele>139.5</ele>
        <time>2026-09-04T12:33:17Z</time>
      </trkpt>
      <trkpt lat="34.586828" lon="112.558689">
        <ele>139.5</ele>
        <time>2026-09-04T12:33:20Z</time>
      </trkpt>
      <trkpt lat="34.586892" lon="112.558641">
        <ele>139.6</ele>
        <time>2026-09-04T12:33:23Z</time>
      </trkpt>
      <trkpt lat="34.586947" lon="112.558582">
        <ele>139.6</ele>
        <time>2026-09-04T12:33:26Z</time>
      </trkpt>
      <trkpt lat="34.58699" lon="112.558503">
        <ele>139.4</ele>
        <time>2026-09-04T12:33:29Z</time>
      </trkpt>
      <trkpt lat="34.587024" lon="112.558395">
        <ele>139.7</ele>
        <time>2026-09-04T12:33:32Z</time>
      </trkpt>
      <trkpt lat="34.587036" lon="112.55829">
        <ele>139.6</ele>
        <time>2026-09-04T12:33:35Z</time>
      </trkpt>
      <trkpt lat="34.587026" lon="112.558194">
        <ele>139.4</ele>
        <time>2026-09-04T12:33:38Z</time>
      </trkpt>
      <trkpt lat="34.587004" lon="112.558094">
        <ele>139.4</ele>
        <time>2026-09-04T12:33:40Z</time>
      </trkpt>
      <trkpt lat="34.586949" lon="112.557991">
        <ele>139.6</ele>
        <time>2026-09-04T12:33:43Z</time>
      </trkpt>
      <trkpt lat="34.586868" lon="112.5579">
        <ele>139.5</ele>
        <time>2026-09-04T12:33:46Z</time>
      </trkpt>
      <trkpt lat="34.586788" lon="112.557841">
        <ele>139.4</ele>
        <time>2026-09-04T12:33:49Z</time>
      </trkpt>
      <trkpt lat="34.586701" lon="112.557803">
        <ele>139.5</ele>
        <time>2026-09-04T12:33:52Z</time>
      </trkpt>
      <trkpt lat="34.586607" lon="112.557789">
        <ele>139.5</ele>
        <time>2026-09-04T12:33:56Z</time>
      </trkpt>
      <trkpt lat="34.586531" lon="112.557796">
        <ele>139.5</ele>
        <time>2026-09-04T12:33:59Z</time>
      </trkpt>
      <trkpt lat="34.586444" lon="112.557804">
        <ele>139.5</ele>
        <time>2026-09-04T12:34:02Z</time>
      </trkpt>
      <trkpt lat="34.586359" lon="112.55781">
        <ele>139.5</ele>
        <time>2026-09-04T12:34:05Z</time>
      </trkpt>
      <trkpt lat="34.586281" lon="112.557816">
        <ele>139.4</ele>
        <time>2026-09-04T12:34:07Z</time>
      </trkpt>
      <trkpt lat="34.586192" lon="112.557819">
        <ele>139.4</ele>
        <time>2026-09-04T12:34:10Z</time>
      </trkpt>
      <trkpt lat="34.586097" lon="112.557825">
        <ele>139.4</ele>
        <time>2026-09-04T12:34:13Z</time>
      </trkpt>
      <trkpt lat="34.586008" lon="112.557823">
        <ele>139.5</ele>
        <time>2026-09-04T12:34:16Z</time>
      </trkpt>
      <trkpt lat="34.58592" lon="112.557823">
        <ele>139.4</ele>
        <time>2026-09-04T12:34:19Z</time>
      </trkpt>
      <trkpt lat="34.58583" lon="112.557828">
        <ele>139.4</ele>
        <time>2026-09-04T12:34:22Z</time>
      </trkpt>
      <trkpt lat="34.585731" lon="112.557847">
        <ele>139.5</ele>
        <time>2026-09-04T12:34:25Z</time>
      </trkpt>
      <trkpt lat="34.58565" lon="112.557889">
        <ele>139.4</ele>
        <time>2026-09-04T12:34:28Z</time>
      </trkpt>
      <trkpt lat="34.58557" lon="112.557959">
        <ele>139.5</ele>
        <time>2026-09-04T12:34:31Z</time>
      </trkpt>
      <trkpt lat="34.585516" lon="112.558033">
        <ele>139.5</ele>
        <time>2026-09-04T12:34:34Z</time>
      </trkpt>
      <trkpt lat="34.585488" lon="112.558084">
        <ele>139.6</ele>
        <time>2026-09-04T12:34:37Z</time>
      </trkpt>
      <trkpt lat="34.585463" lon="112.558222">
        <ele>139.5</ele>
        <time>2026-09-04T12:34:40Z</time>
      </trkpt>
      <trkpt lat="34.585465" lon="112.55836">
        <ele>139.5</ele>
        <time>2026-09-04T12:34:45Z</time>
      </trkpt>
      <trkpt lat="34.58549" lon="112.558466">
        <ele>139.6</ele>
        <time>2026-09-04T12:34:48Z</time>
      </trkpt>
      <trkpt lat="34.585535" lon="112.558566">
        <ele>139.6</ele>
        <time>2026-09-04T12:34:51Z</time>
      </trkpt>
      <trkpt lat="34.585597" lon="112.558645">
        <ele>139.7</ele>
        <time>2026-09-04T12:34:54Z</time>
      </trkpt>
      <trkpt lat="34.585673" lon="112.558711">
        <ele>139.6</ele>
        <time>2026-09-04T12:34:56Z</time>
      </trkpt>
      <trkpt lat="34.585766" lon="112.558756">
        <ele>139.6</ele>
        <time>2026-09-04T12:34:59Z</time>
      </trkpt>
      <trkpt lat="34.585866" lon="112.558777">
        <ele>139.5</ele>
        <time>2026-09-04T12:35:02Z</time>
      </trkpt>
      <trkpt lat="34.585968" lon="112.558774">
        <ele>139.5</ele>
        <time>2026-09-04T12:35:05Z</time>
      </trkpt>
      <trkpt lat="34.586062" lon="112.558762">
        <ele>139.6</ele>
        <time>2026-09-04T12:35:08Z</time>
      </trkpt>
      <trkpt lat="34.586152" lon="112.558752">
        <ele>139.5</ele>
        <time>2026-09-04T12:35:11Z</time>
      </trkpt>
      <trkpt lat="34.586252" lon="112.558748">
        <ele>139.4</ele>
        <time>2026-09-04T12:35:14Z</time>
      </trkpt>
      <trkpt lat="34.586352" lon="112.558744">
        <ele>139.5</ele>
        <time>2026-09-04T12:35:17Z</time>
      </trkpt>
      <trkpt lat="34.586435" lon="112.558741">
        <ele>139.3</ele>
        <time>2026-09-04T12:35:20Z</time>
      </trkpt>
      <trkpt lat="34.586531" lon="112.55874">
        <ele>139.4</ele>
        <time>2026-09-04T12:35:23Z</time>
      </trkpt>
      <trkpt lat="34.58662" lon="112.558736">
        <ele>139.4</ele>
        <time>2026-09-04T12:35:26Z</time>
      </trkpt>
      <trkpt lat="34.586717" lon="112.558728">
        <ele>139.5</ele>
        <time>2026-09-04T12:35:29Z</time>
      </trkpt>
      <trkpt lat="34.586785" lon="112.558708">
        <ele>139.6</ele>
        <time>2026-09-04T12:35:32Z</time>
      </trkpt>
      <trkpt lat="34.586862" lon="112.558663">
        <ele>139.6</ele>
        <time>2026-09-04T12:35:35Z</time>
      </trkpt>
      <trkpt lat="34.586903" lon="112.558624">
        <ele>139.5</ele>
        <time>2026-09-04T12:35:38Z</time>
      </trkpt>
      <trkpt lat="34.58698" lon="112.558515">
        <ele>139.4</ele>
        <time>2026-09-04T12:35:41Z</time>
      </trkpt>
      <trkpt lat="34.587014" lon="112.558435">
        <ele>139.3</ele>
        <time>2026-09-04T12:35:44Z</time>
      </trkpt>
      <trkpt lat="34.587029" lon="112.558319">
        <ele>139.4</ele>
        <time>2026-09-04T12:35:47Z</time>
      </trkpt>
      <trkpt lat="34.587026" lon="112.558203">
        <ele>139.5</ele>
        <time>2026-09-04T12:35:50Z</time>
      </trkpt>
      <trkpt lat="34.586988" lon="112.558069">
        <ele>139.4</ele>
        <time>2026-09-04T12:35:53Z</time>
      </trkpt>
      <trkpt lat="34.586945" lon="112.557986">
        <ele>139.4</ele>
        <time>2026-09-04T12:35:56Z</time>
      </trkpt>
      <trkpt lat="34.586884" lon="112.557912">
        <ele>139.5</ele>
        <time>2026-09-04T12:35:59Z</time>
      </trkpt>
      <trkpt lat="34.586808" lon="112.557854">
        <ele>139.4</ele>
        <time>2026-09-04T12:36:02Z</time>
      </trkpt>
      <trkpt lat="34.586697" lon="112.557802">
        <ele>139.5</ele>
        <time>2026-09-04T12:36:05Z</time>
      </trkpt>
      <trkpt lat="34.586645" lon="112.557792">
        <ele>139.4</ele>
        <time>2026-09-04T12:36:08Z</time>
      </trkpt>
      <trkpt lat="34.58657" lon="112.55779">
        <ele>139.4</ele>
        <time>2026-09-04T12:36:11Z</time>
      </trkpt>
      <trkpt lat="34.586487" lon="112.557799">
        <ele>139.4</ele>
        <time>2026-09-04T12:36:14Z</time>
      </trkpt>
      <trkpt lat="34.5864" lon="112.557808">
        <ele>139.4</ele>
        <time>2026-09-04T12:36:17Z</time>
      </trkpt>
      <trkpt lat="34.586339" lon="112.557812">
        <ele>139.5</ele>
        <time>2026-09-04T12:36:20Z</time>
      </trkpt>
      <trkpt lat="34.586253" lon="112.557819">
        <ele>139.4</ele>
        <time>2026-09-04T12:36:23Z</time>
      </trkpt>
      <trkpt lat="34.586175" lon="112.55782">
        <ele>139.4</ele>
        <time>2026-09-04T12:36:26Z</time>
      </trkpt>
      <trkpt lat="34.586102" lon="112.557823">
        <ele>139.5</ele>
        <time>2026-09-04T12:36:29Z</time>
      </trkpt>
      <trkpt lat="34.586022" lon="112.557825">
        <ele>139.5</ele>
        <time>2026-09-04T12:36:32Z</time>
      </trkpt>
      <trkpt lat="34.585959" lon="112.557824">
        <ele>139.4</ele>
        <time>2026-09-04T12:36:35Z</time>
      </trkpt>
      <trkpt lat="34.585875" lon="112.557825">
        <ele>139.3</ele>
        <time>2026-09-04T12:36:38Z</time>
      </trkpt>
      <trkpt lat="34.585801" lon="112.557835">
        <ele>139.2</ele>
        <time>2026-09-04T12:36:41Z</time>
      </trkpt>
      <trkpt lat="34.585728" lon="112.55785">
        <ele>139.4</ele>
        <time>2026-09-04T12:36:43Z</time>
      </trkpt>
      <trkpt lat="34.585657" lon="112.557884">
        <ele>139.4</ele>
        <time>2026-09-04T12:36:46Z</time>
      </trkpt>
      <trkpt lat="34.585591" lon="112.557935">
        <ele>139.6</ele>
        <time>2026-09-04T12:36:49Z</time>
      </trkpt>
      <trkpt lat="34.585525" lon="112.558016">
        <ele>139.7</ele>
        <time>2026-09-04T12:36:52Z</time>
      </trkpt>
      <trkpt lat="34.585485" lon="112.558094">
        <ele>139.6</ele>
        <time>2026-09-04T12:36:55Z</time>
      </trkpt>
      <trkpt lat="34.585466" lon="112.558169">
        <ele>139.6</ele>
        <time>2026-09-04T12:36:58Z</time>
      </trkpt>
      <trkpt lat="34.585462" lon="112.558236">
        <ele>139.7</ele>
        <time>2026-09-04T12:37:01Z</time>
      </trkpt>
      <trkpt lat="34.585462" lon="112.558324">
        <ele>139.6</ele>
        <time>2026-09-04T12:37:04Z</time>
      </trkpt>
      <trkpt lat="34.585474" lon="112.558407">
        <ele>139.5</ele>
        <time>2026-09-04T12:37:07Z</time>
      </trkpt>
      <trkpt lat="34.585503" lon="112.558497">
        <ele>139.5</ele>
        <time>2026-09-04T12:37:10Z</time>
      </trkpt>
      <trkpt lat="34.585557" lon="112.558595">
        <ele>139.4</ele>
        <time>2026-09-04T12:37:13Z</time>
      </trkpt>
      <trkpt lat="34.58563" lon="112.558678">
        <ele>139.5</ele>
        <time>2026-09-04T12:37:16Z</time>
      </trkpt>
      <trkpt lat="34.585736" lon="112.558746">
        <ele>139.4</ele>
        <time>2026-09-04T12:37:20Z</time>
      </trkpt>
      <trkpt lat="34.585849" lon="112.558777">
        <ele>139.4</ele>
        <time>2026-09-04T12:37:24Z</time>
      </trkpt>
      <trkpt lat="34.585906" lon="112.558779">
        <ele>139.2</ele>
        <time>2026-09-04T12:37:27Z</time>
      </trkpt>
      <trkpt lat="34.585976" lon="112.558773">
        <ele>139.3</ele>
        <time>2026-09-04T12:37:30Z</time>
      </trkpt>
      <trkpt lat="34.586044" lon="112.558764">
        <ele>139.4</ele>
        <time>2026-09-04T12:37:33Z</time>
      </trkpt>
      <trkpt lat="34.586123" lon="112.558756">
        <ele>139.5</ele>
        <time>2026-09-04T12:37:35Z</time>
      </trkpt>
      <trkpt lat="34.586203" lon="112.558749">
        <ele>139.4</ele>
        <time>2026-09-04T12:37:38Z</time>
      </trkpt>
      <trkpt lat="34.586285" lon="112.558747">
        <ele>139.4</ele>
        <time>2026-09-04T12:37:41Z</time>
      </trkpt>
      <trkpt lat="34.586373" lon="112.558743">
        <ele>139.3</ele>
        <time>2026-09-04T12:37:44Z</time>
      </trkpt>
      <trkpt lat="34.586449" lon="112.558742">
        <ele>139.4</ele>
        <time>2026-09-04T12:37:47Z</time>
      </trkpt>
      <trkpt lat="34.586513" lon="112.558744">
        <ele>139.3</ele>
        <time>2026-09-04T12:37:50Z</time>
      </trkpt>
      <trkpt lat="34.586571" lon="112.558741">
        <ele>139.2</ele>
        <time>2026-09-04T12:37:53Z</time>
      </trkpt>
      <trkpt lat="34.586651" lon="112.558736">
        <ele>139.2</ele>
        <time>2026-09-04T12:37:56Z</time>
      </trkpt>
      <trkpt lat="34.586706" lon="112.558733">
        <ele>139.3</ele>
        <time>2026-09-04T12:37:59Z</time>
      </trkpt>
      <trkpt lat="34.586767" lon="112.558717">
        <ele>139.3</ele>
        <time>2026-09-04T12:38:02Z</time>
      </trkpt>
      <trkpt lat="34.586837" lon="112.558683">
        <ele>139.3</ele>
        <time>2026-09-04T12:38:05Z</time>
      </trkpt>
      <trkpt lat="34.5869" lon="112.558633">
        <ele>139.2</ele>
        <time>2026-09-04T12:38:08Z</time>
      </trkpt>
      <trkpt lat="34.58694" lon="112.558593">
        <ele>139.2</ele>
        <time>2026-09-04T12:38:11Z</time>
      </trkpt>
      <trkpt lat="34.586989" lon="112.558507">
        <ele>139.3</ele>
        <time>2026-09-04T12:38:14Z</time>
      </trkpt>
      <trkpt lat="34.587022" lon="112.558398">
        <ele>139.3</ele>
        <time>2026-09-04T12:38:17Z</time>
      </trkpt>
      <trkpt lat="34.587036" lon="112.558296">
        <ele>139.3</ele>
        <time>2026-09-04T12:38:20Z</time>
      </trkpt>
      <trkpt lat="34.587023" lon="112.558187">
        <ele>139.2</ele>
        <time>2026-09-04T12:38:23Z</time>
      </trkpt>
      <trkpt lat="34.586999" lon="112.558088">
        <ele>139.2</ele>
        <time>2026-09-04T12:38:26Z</time>
      </trkpt>
      <trkpt lat="34.586953" lon="112.557996">
        <ele>139.3</ele>
        <time>2026-09-04T12:38:29Z</time>
      </trkpt>
      <trkpt lat="34.586903" lon="112.557932">
        <ele>139.2</ele>
        <time>2026-09-04T12:38:32Z</time>
      </trkpt>
      <trkpt lat="34.586831" lon="112.557867">
        <ele>139.2</ele>
        <time>2026-09-04T12:38:35Z</time>
      </trkpt>
      <trkpt lat="34.586766" lon="112.557829">
        <ele>139.3</ele>
        <time>2026-09-04T12:38:38Z</time>
      </trkpt>
      <trkpt lat="34.586674" lon="112.557795">
        <ele>139.3</ele>
        <time>2026-09-04T12:38:41Z</time>
      </trkpt>
      <trkpt lat="34.586619" lon="112.557787">
        <ele>139.3</ele>
        <time>2026-09-04T12:38:44Z</time>
      </trkpt>
      <trkpt lat="34.586544" lon="112.557794">
        <ele>139.3</ele>
        <time>2026-09-04T12:38:47Z</time>
      </trkpt>
      <trkpt lat="34.586467" lon="112.5578">
        <ele>139.2</ele>
        <time>2026-09-04T12:38:50Z</time>
      </trkpt>
      <trkpt lat="34.586378" lon="112.557808">
        <ele>139.3</ele>
        <time>2026-09-04T12:38:53Z</time>
      </trkpt>
      <trkpt lat="34.586328" lon="112.557813">
        <ele>139.3</ele>
        <time>2026-09-04T12:38:56Z</time>
      </trkpt>
      <trkpt lat="34.586268" lon="112.557818">
        <ele>139.3</ele>
        <time>2026-09-04T12:38:59Z</time>
      </trkpt>
      <trkpt lat="34.586197" lon="112.557818">
        <ele>139.4</ele>
        <time>2026-09-04T12:39:02Z</time>
      </trkpt>
      <trkpt lat="34.586122" lon="112.557821">
        <ele>139.4</ele>
        <time>2026-09-04T12:39:05Z</time>
      </trkpt>
      <trkpt lat="34.586026" lon="112.557824">
        <ele>139.3</ele>
        <time>2026-09-04T12:39:08Z</time>
      </trkpt>
      <trkpt lat="34.585942" lon="112.557826">
        <ele>139.2</ele>
        <time>2026-09-04T12:39:11Z</time>
      </trkpt>
      <trkpt lat="34.585853" lon="112.557829">
        <ele>139.2</ele>
        <time>2026-09-04T12:39:14Z</time>
      </trkpt>
      <trkpt lat="34.585762" lon="112.557842">
        <ele>139.2</ele>
        <time>2026-09-04T12:39:16Z</time>
      </trkpt>
      <trkpt lat="34.585688" lon="112.557866">
        <ele>139</ele>
        <time>2026-09-04T12:39:19Z</time>
      </trkpt>
      <trkpt lat="34.585614" lon="112.557913">
        <ele>139</ele>
        <time>2026-09-04T12:39:22Z</time>
      </trkpt>
      <trkpt lat="34.585552" lon="112.557978">
        <ele>139.1</ele>
        <time>2026-09-04T12:39:25Z</time>
      </trkpt>
      <trkpt lat="34.5855" lon="112.55806">
        <ele>139.3</ele>
        <time>2026-09-04T12:39:28Z</time>
      </trkpt>
      <trkpt lat="34.58547" lon="112.558153">
        <ele>139.4</ele>
        <time>2026-09-04T12:39:31Z</time>
      </trkpt>
      <trkpt lat="34.585459" lon="112.558251">
        <ele>139.4</ele>
        <time>2026-09-04T12:39:34Z</time>
      </trkpt>
      <trkpt lat="34.585463" lon="112.558344">
        <ele>139.3</ele>
        <time>2026-09-04T12:39:37Z</time>
      </trkpt>
      <trkpt lat="34.585478" lon="112.558426">
        <ele>139.1</ele>
        <time>2026-09-04T12:39:40Z</time>
      </trkpt>
      <trkpt lat="34.585513" lon="112.558526">
        <ele>139.3</ele>
        <time>2026-09-04T12:39:43Z</time>
      </trkpt>
      <trkpt lat="34.585555" lon="112.5586">
        <ele>139.2</ele>
        <time>2026-09-04T12:39:46Z</time>
      </trkpt>
      <trkpt lat="34.585609" lon="112.558665">
        <ele>139.1</ele>
        <time>2026-09-04T12:39:49Z</time>
      </trkpt>
      <trkpt lat="34.585675" lon="112.558713">
        <ele>139.1</ele>
        <time>2026-09-04T12:39:53Z</time>
      </trkpt>
      <trkpt lat="34.585775" lon="112.558762">
        <ele>139.1</ele>
        <time>2026-09-04T12:39:57Z</time>
      </trkpt>
      <trkpt lat="34.585859" lon="112.558776">
        <ele>139.1</ele>
        <time>2026-09-04T12:40:00Z</time>
      </trkpt>
      <trkpt lat="34.585944" lon="112.558775">
        <ele>139.1</ele>
        <time>2026-09-04T12:40:03Z</time>
      </trkpt>
      <trkpt lat="34.586028" lon="112.558766">
        <ele>139.1</ele>
        <time>2026-09-04T12:40:06Z</time>
      </trkpt>
      <trkpt lat="34.586107" lon="112.558759">
        <ele>139.1</ele>
        <time>2026-09-04T12:40:08Z</time>
      </trkpt>
      <trkpt lat="34.586175" lon="112.558751">
        <ele>139.1</ele>
        <time>2026-09-04T12:40:12Z</time>
      </trkpt>
      <trkpt lat="34.586266" lon="112.558747">
        <ele>139.1</ele>
        <time>2026-09-04T12:40:14Z</time>
      </trkpt>
      <trkpt lat="34.586337" lon="112.558744">
        <ele>139.1</ele>
        <time>2026-09-04T12:40:17Z</time>
      </trkpt>
      <trkpt lat="34.586415" lon="112.55874">
        <ele>139</ele>
        <time>2026-09-04T12:40:20Z</time>
      </trkpt>
      <trkpt lat="34.5865" lon="112.558742">
        <ele>139.1</ele>
        <time>2026-09-04T12:40:23Z</time>
      </trkpt>
      <trkpt lat="34.586581" lon="112.558739">
        <ele>139.2</ele>
        <time>2026-09-04T12:40:26Z</time>
      </trkpt>
      <trkpt lat="34.586654" lon="112.558736">
        <ele>139.2</ele>
        <time>2026-09-04T12:40:29Z</time>
      </trkpt>
      <trkpt lat="34.586728" lon="112.558728">
        <ele>139.1</ele>
        <time>2026-09-04T12:40:32Z</time>
      </trkpt>
      <trkpt lat="34.586801" lon="112.558702">
        <ele>139.1</ele>
        <time>2026-09-04T12:40:35Z</time>
      </trkpt>
      <trkpt lat="34.586869" lon="112.558661">
        <ele>139.1</ele>
        <time>2026-09-04T12:40:38Z</time>
      </trkpt>
      <trkpt lat="34.586925" lon="112.558605">
        <ele>139</ele>
        <time>2026-09-04T12:40:41Z</time>
      </trkpt>
      <trkpt lat="34.586974" lon="112.558535">
        <ele>139</ele>
        <time>2026-09-04T12:40:44Z</time>
      </trkpt>
      <trkpt lat="34.58701" lon="112.558459">
        <ele>139.2</ele>
        <time>2026-09-04T12:40:47Z</time>
      </trkpt>
      <trkpt lat="34.587026" lon="112.55837">
        <ele>139</ele>
        <time>2026-09-04T12:40:50Z</time>
      </trkpt>
      <trkpt lat="34.587035" lon="112.55826">
        <ele>139</ele>
        <time>2026-09-04T12:40:53Z</time>
      </trkpt>
      <trkpt lat="34.587022" lon="112.558169">
        <ele>138.8</ele>
        <time>2026-09-04T12:40:56Z</time>
      </trkpt>
      <trkpt lat="34.586996" lon="112.558081">
        <ele>138.8</ele>
        <time>2026-09-04T12:40:59Z</time>
      </trkpt>
      <trkpt lat="34.586939" lon="112.557977">
        <ele>138.8</ele>
        <time>2026-09-04T12:41:02Z</time>
      </trkpt>
      <trkpt lat="34.586888" lon="112.557917">
        <ele>138.9</ele>
        <time>2026-09-04T12:41:05Z</time>
      </trkpt>
      <trkpt lat="34.586811" lon="112.557854">
        <ele>139</ele>
        <time>2026-09-04T12:41:08Z</time>
      </trkpt>
      <trkpt lat="34.586735" lon="112.557814">
        <ele>139.2</ele>
        <time>2026-09-04T12:41:11Z</time>
      </trkpt>
      <trkpt lat="34.586656" lon="112.557794">
        <ele>139.1</ele>
        <time>2026-09-04T12:41:14Z</time>
      </trkpt>
      <trkpt lat="34.586576" lon="112.557791">
        <ele>139.1</ele>
        <time>2026-09-04T12:41:17Z</time>
      </trkpt>
      <trkpt lat="34.586525" lon="112.557795">
        <ele>139.2</ele>
        <time>2026-09-04T12:41:20Z</time>
      </trkpt>
      <trkpt lat="34.586447" lon="112.557803">
        <ele>139.1</ele>
        <time>2026-09-04T12:41:23Z</time>
      </trkpt>
      <trkpt lat="34.586361" lon="112.557811">
        <ele>139</ele>
        <time>2026-09-04T12:41:26Z</time>
      </trkpt>
      <trkpt lat="34.586262" lon="112.55782">
        <ele>139.2</ele>
        <time>2026-09-04T12:41:29Z</time>
      </trkpt>
      <trkpt lat="34.586214" lon="112.557819">
        <ele>139.2</ele>
        <time>2026-09-04T12:41:32Z</time>
      </trkpt>
      <trkpt lat="34.586134" lon="112.557822">
        <ele>139.1</ele>
        <time>2026-09-04T12:41:35Z</time>
      </trkpt>
      <trkpt lat="34.58606" lon="112.557827">
        <ele>139.2</ele>
        <time>2026-09-04T12:41:38Z</time>
      </trkpt>
      <trkpt lat="34.585979" lon="112.557821">
        <ele>139.1</ele>
        <time>2026-09-04T12:41:41Z</time>
      </trkpt>
      <trkpt lat="34.585902" lon="112.557826">
        <ele>139.1</ele>
        <time>2026-09-04T12:41:44Z</time>
      </trkpt>
      <trkpt lat="34.58581" lon="112.557834">
        <ele>139.2</ele>
        <time>2026-09-04T12:41:47Z</time>
      </trkpt>
      <trkpt lat="34.585724" lon="112.557852">
        <ele>139.2</ele>
        <time>2026-09-04T12:41:50Z</time>
      </trkpt>
      <trkpt lat="34.585644" lon="112.557894">
        <ele>139.3</ele>
        <time>2026-09-04T12:41:53Z</time>
      </trkpt>
      <trkpt lat="34.585586" lon="112.557939">
        <ele>139.2</ele>
        <time>2026-09-04T12:41:56Z</time>
      </trkpt>
      <trkpt lat="34.585533" lon="112.558001">
        <ele>139.1</ele>
        <time>2026-09-04T12:41:59Z</time>
      </trkpt>
      <trkpt lat="34.585493" lon="112.558076">
        <ele>139.2</ele>
        <time>2026-09-04T12:42:02Z</time>
      </trkpt>
      <trkpt lat="34.585466" lon="112.558176">
        <ele>139.1</ele>
        <time>2026-09-04T12:42:05Z</time>
      </trkpt>
      <trkpt lat="34.58546" lon="112.558274">
        <ele>139.1</ele>
        <time>2026-09-04T12:42:08Z</time>
      </trkpt>
      <trkpt lat="34.585468" lon="112.558377">
        <ele>139.2</ele>
        <time>2026-09-04T12:42:11Z</time>
      </trkpt>
      <trkpt lat="34.585501" lon="112.558499">
        <ele>139.1</ele>
        <time>2026-09-04T12:42:14Z</time>
      </trkpt>
      <trkpt lat="34.585538" lon="112.558571">
        <ele>139.1</ele>
        <time>2026-09-04T12:42:17Z</time>
      </trkpt>
      <trkpt lat="34.585591" lon="112.558641">
        <ele>139</ele>
        <time>2026-09-04T12:42:20Z</time>
      </trkpt>
      <trkpt lat="34.585665" lon="112.558707">
        <ele>139</ele>
        <time>2026-09-04T12:42:23Z</time>
      </trkpt>
      <trkpt lat="34.585755" lon="112.558752">
        <ele>139.1</ele>
        <time>2026-09-04T12:42:25Z</time>
      </trkpt>
      <trkpt lat="34.585833" lon="112.558775">
        <ele>139</ele>
        <time>2026-09-04T12:42:28Z</time>
      </trkpt>
      <trkpt lat="34.585912" lon="112.558778">
        <ele>138.9</ele>
        <time>2026-09-04T12:42:31Z</time>
      </trkpt>
      <trkpt lat="34.585992" lon="112.558774">
        <ele>138.9</ele>
        <time>2026-09-04T12:42:34Z</time>
      </trkpt>
      <trkpt lat="34.586068" lon="112.558762">
        <ele>138.9</ele>
        <time>2026-09-04T12:42:37Z</time>
      </trkpt>
      <trkpt lat="34.586143" lon="112.558753">
        <ele>138.9</ele>
        <time>2026-09-04T12:42:40Z</time>
      </trkpt>
      <trkpt lat="34.586221" lon="112.558748">
        <ele>138.8</ele>
        <time>2026-09-04T12:42:43Z</time>
      </trkpt>
      <trkpt lat="34.586302" lon="112.558746">
        <ele>139</ele>
        <time>2026-09-04T12:42:46Z</time>
      </trkpt>
      <trkpt lat="34.586382" lon="112.558744">
        <ele>139</ele>
        <time>2026-09-04T12:42:49Z</time>
      </trkpt>
      <trkpt lat="34.586464" lon="112.558742">
        <ele>139</ele>
        <time>2026-09-04T12:42:52Z</time>
      </trkpt>
      <trkpt lat="34.586551" lon="112.558743">
        <ele>138.9</ele>
        <time>2026-09-04T12:42:55Z</time>
      </trkpt>
      <trkpt lat="34.586618" lon="112.558738">
        <ele>139</ele>
        <time>2026-09-04T12:42:58Z</time>
      </trkpt>
      <trkpt lat="34.586688" lon="112.558733">
        <ele>138.9</ele>
        <time>2026-09-04T12:43:01Z</time>
      </trkpt>
      <trkpt lat="34.586779" lon="112.558714">
        <ele>139</ele>
        <time>2026-09-04T12:43:06Z</time>
      </trkpt>
      <trkpt lat="34.586862" lon="112.558681">
        <ele>139</ele>
        <time>2026-09-04T12:43:09Z</time>
      </trkpt>
      <trkpt lat="34.586927" lon="112.558629">
        <ele>138.9</ele>
        <time>2026-09-04T12:43:12Z</time>
      </trkpt>
      <trkpt lat="34.586985" lon="112.558556">
        <ele>138.9</ele>
        <time>2026-09-04T12:43:14Z</time>
      </trkpt>
      <trkpt lat="34.587025" lon="112.558467">
        <ele>138.9</ele>
        <time>2026-09-04T12:43:17Z</time>
      </trkpt>
      <trkpt lat="34.587045" lon="112.558373">
        <ele>138.8</ele>
        <time>2026-09-04T12:43:20Z</time>
      </trkpt>
      <trkpt lat="34.58705" lon="112.558273">
        <ele>138.9</ele>
        <time>2026-09-04T12:43:23Z</time>
      </trkpt>
      <trkpt lat="34.587037" lon="112.558164">
        <ele>138.9</ele>
        <time>2026-09-04T12:43:26Z</time>
      </trkpt>
      <trkpt lat="34.587007" lon="112.558062">
        <ele>138.9</ele>
        <time>2026-09-04T12:43:29Z</time>
      </trkpt>
      <trkpt lat="34.586967" lon="112.557979">
        <ele>138.8</ele>
        <time>2026-09-04T12:43:32Z</time>
      </trkpt>
      <trkpt lat="34.586911" lon="112.557913">
        <ele>138.8</ele>
        <time>2026-09-04T12:43:35Z</time>
      </trkpt>
      <trkpt lat="34.586843" lon="112.557863">
        <ele>138.9</ele>
        <time>2026-09-04T12:43:38Z</time>
      </trkpt>
      <trkpt lat="34.586763" lon="112.557828">
        <ele>139</ele>
        <time>2026-09-04T12:43:41Z</time>
      </trkpt>
      <trkpt lat="34.586705" lon="112.557811">
        <ele>138.9</ele>
        <time>2026-09-04T12:43:44Z</time>
      </trkpt>
      <trkpt lat="34.586594" lon="112.5578">
        <ele>138.9</ele>
        <time>2026-09-04T12:43:47Z</time>
      </trkpt>
      <trkpt lat="34.586516" lon="112.557806">
        <ele>139</ele>
        <time>2026-09-04T12:43:50Z</time>
      </trkpt>
      <trkpt lat="34.586437" lon="112.557816">
        <ele>139</ele>
        <time>2026-09-04T12:43:53Z</time>
      </trkpt>
      <trkpt lat="34.586387" lon="112.557821">
        <ele>139</ele>
        <time>2026-09-04T12:43:56Z</time>
      </trkpt>
      <trkpt lat="34.586317" lon="112.557822">
        <ele>138.9</ele>
        <time>2026-09-04T12:43:59Z</time>
      </trkpt>
      <trkpt lat="34.586245" lon="112.557823">
        <ele>139</ele>
        <time>2026-09-04T12:44:02Z</time>
      </trkpt>
      <trkpt lat="34.58614" lon="112.557819">
        <ele>139.1</ele>
        <time>2026-09-04T12:44:05Z</time>
      </trkpt>
      <trkpt lat="34.586084" lon="112.55782">
        <ele>139</ele>
        <time>2026-09-04T12:44:08Z</time>
      </trkpt>
      <trkpt lat="34.586005" lon="112.557824">
        <ele>139.1</ele>
        <time>2026-09-04T12:44:11Z</time>
      </trkpt>
      <trkpt lat="34.585931" lon="112.557832">
        <ele>139.2</ele>
        <time>2026-09-04T12:44:14Z</time>
      </trkpt>
      <trkpt lat="34.585829" lon="112.557843">
        <ele>139.2</ele>
        <time>2026-09-04T12:44:17Z</time>
      </trkpt>
      <trkpt lat="34.585771" lon="112.55785">
        <ele>139.2</ele>
        <time>2026-09-04T12:44:19Z</time>
      </trkpt>
      <trkpt lat="34.585686" lon="112.557877">
        <ele>139.2</ele>
        <time>2026-09-04T12:44:23Z</time>
      </trkpt>
      <trkpt lat="34.585601" lon="112.557921">
        <ele>139.2</ele>
        <time>2026-09-04T12:44:26Z</time>
      </trkpt>
      <trkpt lat="34.585528" lon="112.557987">
        <ele>139.3</ele>
        <time>2026-09-04T12:44:29Z</time>
      </trkpt>
      <trkpt lat="34.585474" lon="112.558064">
        <ele>139.2</ele>
        <time>2026-09-04T12:44:32Z</time>
      </trkpt>
    </trkseg>
  </trk>
</gpx>