<?xml version="1.0" encoding="UTF-8"?>
<gpx xmlns="http://www.topografix.com/GPX/1/1" xmlns:gpxtpx="http://www.garmin.com/xmlschemas/TrackPointExtension/v1" xmlns:xsi="http://www.w3.org/2001/XMLSchema-instance" xsi:schemaLocation="http://www.topografix.com/GPX/1/1 http://www.topografix.com/GPX/1/1/gpx.xsd" version="1.1" creator="gpx.py -- https://github.com/tkrajina/gpxpy">
  <trk>
    <name>晚上跑步</name>
    <type>running</type>
    <trkseg>
      <trkpt lat="34.58553" lon="112.558145">
        <ele>180.1</ele>
        <time>2026-09-07T12:15:57Z</time>
      </trkpt>
      <trkpt lat="34.58551" lon="112.55827">
        <ele>180</ele>
        <time>2026-09-07T12:16:00Z</time>
      </trkpt>
      <trkpt lat="34.585502" lon="112.55834">
        <ele>180.1</ele>
        <time>2026-09-07T12:16:03Z</time>
      </trkpt>
      <trkpt lat="34.585505" lon="112.558431">
        <ele>180.3</ele>
        <time>2026-09-07T12:16:06Z</time>
      </trkpt>
      <trkpt lat="34.585521" lon="112.558523">
        <ele>180.2</ele>
        <time>2026-09-07T12:16:09Z</time>
      </trkpt>
      <trkpt lat="34.585573" lon="112.558639">
        <ele>180.1</ele>
        <time>2026-09-07T12:16:12Z</time>
      </trkpt>
      <trkpt lat="34.585611" lon="112.55869">
        <ele>180.2</ele>
        <time>2026-09-07T12:16:15Z</time>
      </trkpt>
      <trkpt lat="34.585722" lon="112.558759">
        <ele>180</ele>
        <time>2026-09-07T12:16:18Z</time>
      </trkpt>
      <trkpt lat="34.585811" lon="112.558782">
        <ele>180</ele>
        <time>2026-09-07T12:16:21Z</time>
      </trkpt>
      <trkpt lat="34.585892" lon="112.558784">
        <ele>180</ele>
        <time>2026-09-07T12:16:24Z</time>
      </trkpt>
      <trkpt lat="34.585947" lon="112.55877">
        <ele>180</ele>
        <time>2026-09-07T12:16:27Z</time>
      </trkpt>
      <trkpt lat="34.586058" lon="112.558745">
        <ele>180</ele>
        <time>2026-09-07T12:16:30Z</time>
      </trkpt>
      <trkpt lat="34.586141" lon="112.558737">
        <ele>180.1</ele>
        <time>2026-09-07T12:16:33Z</time>
      </trkpt>
      <trkpt lat="34.586199" lon="112.558734">
        <ele>180</ele>
        <time>2026-09-07T12:16:36Z</time>
      </trkpt>
      <trkpt lat="34.586286" lon="112.558724">
        <ele>179.9</ele>
        <time>2026-09-07T12:16:39Z</time>
      </trkpt>
      <trkpt lat="34.586396" lon="112.558706">
        <ele>179.8</ele>
        <time>2026-09-07T12:16:42Z</time>
      </trkpt>
      <trkpt lat="34.586479" lon="112.558693">
        <ele>180</ele>
        <time>2026-09-07T12:16:45Z</time>
      </trkpt>
      <trkpt lat="34.586538" lon="112.558685">
        <ele>180</ele>
        <time>2026-09-07T12:16:48Z</time>
      </trkpt>
      <trkpt lat="34.586625" lon="112.558679">
        <ele>180.1</ele>
        <time>2026-09-07T12:16:51Z</time>
      </trkpt>
      <trkpt lat="34.586742" lon="112.55866">
        <ele>179.9</ele>
        <time>2026-09-07T12:16:54Z</time>
      </trkpt>
      <trkpt lat="34.586828" lon="112.558627">
        <ele>180</ele>
        <time>2026-09-07T12:16:57Z</time>
      </trkpt>
      <trkpt lat="34.586881" lon="112.558592">
        <ele>180</ele>
        <time>2026-09-07T12:17:00Z</time>
      </trkpt>
      <trkpt lat="34.586959" lon="112.558498">
        <ele>180</ele>
        <time>2026-09-07T12:17:03Z</time>
      </trkpt>
      <trkpt lat="34.586996" lon="112.558404">
        <ele>179.9</ele>
        <time>2026-09-07T12:17:06Z</time>
      </trkpt>
      <trkpt lat="34.587013" lon="112.558285">
        <ele>179.8</ele>
        <time>2026-09-07T12:17:09Z</time>
      </trkpt>
      <trkpt lat="34.587012" lon="112.5582">
        <ele>179.9</ele>
        <time>2026-09-07T12:17:12Z</time>
      </trkpt>
      <trkpt lat="34.586975" lon="112.558047">
        <ele>180</ele>
        <time>2026-09-07T12:17:15Z</time>
      </trkpt>
      <trkpt lat="34.58692" lon="112.557961">
        <ele>179.9</ele>
        <time>2026-09-07T12:17:18Z</time>
      </trkpt>
      <trkpt lat="34.586875" lon="112.557914">
        <ele>179.9</ele>
        <time>2026-09-07T12:17:21Z</time>
      </trkpt>
      <trkpt lat="34.586804" lon="112.557854">
        <ele>179.9</ele>
        <time>2026-09-07T12:17:24Z</time>
      </trkpt>
      <trkpt lat="34.586701" lon="112.557809">
        <ele>179.8</ele>
        <time>2026-09-07T12:17:27Z</time>
      </trkpt>
      <trkpt lat="34.586612" lon="112.557805">
        <ele>180</ele>
        <time>2026-09-07T12:17:30Z</time>
      </trkpt>
      <trkpt lat="34.586551" lon="112.557813">
        <ele>180.1</ele>
        <time>2026-09-07T12:17:33Z</time>
      </trkpt>
      <trkpt lat="34.586456" lon="112.557832">
        <ele>180</ele>
        <time>2026-09-07T12:17:36Z</time>
      </trkpt>
      <trkpt lat="34.586333" lon="112.557862">
        <ele>180</ele>
        <time>2026-09-07T12:17:39Z</time>
      </trkpt>
      <trkpt lat="34.586236" lon="112.55788">
        <ele>180</ele>
        <time>2026-09-07T12:17:42Z</time>
      </trkpt>
      <trkpt lat="34.58617" lon="112.557886">
        <ele>180</ele>
        <time>2026-09-07T12:17:45Z</time>
      </trkpt>
      <trkpt lat="34.586071" lon="112.557891">
        <ele>179.8</ele>
        <time>2026-09-07T12:17:48Z</time>
      </trkpt>
      <trkpt lat="34.585942" lon="112.557887">
        <ele>180</ele>
        <time>2026-09-07T12:17:51Z</time>
      </trkpt>
      <trkpt lat="34.58585" lon="112.557885">
        <ele>180</ele>
        <time>2026-09-07T12:17:54Z</time>
      </trkpt>
      <trkpt lat="34.585791" lon="112.55789">
        <ele>180</ele>
        <time>2026-09-07T12:17:57Z</time>
      </trkpt>
      <trkpt lat="34.585712" lon="112.557905">
        <ele>179.9</ele>
        <time>2026-09-07T12:18:00Z</time>
      </trkpt>
      <trkpt lat="34.585699" lon="112.557903">
        <ele>179.7</ele>
        <time>2026-09-07T12:18:03Z</time>
      </trkpt>
      <trkpt lat="34.585727" lon="112.557889">
        <ele>179.6</ele>
        <time>2026-09-07T12:18:06Z</time>
      </trkpt>
      <trkpt lat="34.585768" lon="112.557867">
        <ele>179.6</ele>
        <time>2026-09-07T12:18:09Z</time>
      </trkpt>
      <trkpt lat="34.585815" lon="112.557858">
        <ele>179.6</ele>
        <time>2026-09-07T12:18:12Z</time>
      </trkpt>
      <trkpt lat="34.585878" lon="112.557851">
        <ele>179.6</ele>
        <time>2026-09-07T12:18:15Z</time>
      </trkpt>
      <trkpt lat="34.585883" lon="112.557847">
        <ele>179.7</ele>
        <time>2026-09-07T12:18:18Z</time>
      </trkpt>
      <trkpt lat="34.585853" lon="112.557854">
        <ele>179.7</ele>
        <time>2026-09-07T12:18:21Z</time>
      </trkpt>
      <trkpt lat="34.585813" lon="112.557862">
        <ele>179.7</ele>
        <time>2026-09-07T12:18:24Z</time>
      </trkpt>
      <trkpt lat="34.585696" lon="112.557898">
        <ele>180</ele>
        <time>2026-09-07T12:18:30Z</time>
      </trkpt>
      <trkpt lat="34.585614" lon="112.557959">
        <ele>180</ele>
        <time>2026-09-07T12:18:33Z</time>
      </trkpt>
      <trkpt lat="34.585546" lon="112.558047">
        <ele>179.9</ele>
        <time>2026-09-07T12:18:36Z</time>
      </trkpt>
      <trkpt lat="34.585492" lon="112.558201">
        <ele>179.9</ele>
        <time>2026-09-07T12:18:39Z</time>
      </trkpt>
      <trkpt lat="34.585476" lon="112.558289">
        <ele>179.9</ele>
        <time>2026-09-07T12:18:42Z</time>
      </trkpt>
      <trkpt lat="34.585469" lon="112.558418">
        <ele>180</ele>
        <time>2026-09-07T12:18:45Z</time>
      </trkpt>
      <trkpt lat="34.585503" lon="112.55856">
        <ele>179.8</ele>
        <time>2026-09-07T12:18:48Z</time>
      </trkpt>
      <trkpt lat="34.585545" lon="112.558619">
        <ele>179.7</ele>
        <time>2026-09-07T12:18:51Z</time>
      </trkpt>
      <trkpt lat="34.585651" lon="112.558715">
        <ele>179.7</ele>
        <time>2026-09-07T12:18:54Z</time>
      </trkpt>
      <trkpt lat="34.585749" lon="112.558743">
        <ele>179.8</ele>
        <time>2026-09-07T12:18:57Z</time>
      </trkpt>
      <trkpt lat="34.58585" lon="112.558743">
        <ele>179.7</ele>
        <time>2026-09-07T12:19:00Z</time>
      </trkpt>
      <trkpt lat="34.585917" lon="112.558739">
        <ele>179.8</ele>
        <time>2026-09-07T12:19:03Z</time>
      </trkpt>
      <trkpt lat="34.586047" lon="112.558717">
        <ele>179.7</ele>
        <time>2026-09-07T12:19:06Z</time>
      </trkpt>
      <trkpt lat="34.586141" lon="112.558703">
        <ele>179.7</ele>
        <time>2026-09-07T12:19:09Z</time>
      </trkpt>
      <trkpt lat="34.586228" lon="112.558693">
        <ele>179.7</ele>
        <time>2026-09-07T12:19:12Z</time>
      </trkpt>
      <trkpt lat="34.586284" lon="112.558691">
        <ele>179.7</ele>
        <time>2026-09-07T12:19:15Z</time>
      </trkpt>
      <trkpt lat="34.586388" lon="112.558687">
        <ele>179.7</ele>
        <time>2026-09-07T12:19:18Z</time>
      </trkpt>
      <trkpt lat="34.586461" lon="112.558689">
        <ele>179.6</ele>
        <time>2026-09-07T12:19:21Z</time>
      </trkpt>
      <trkpt lat="34.586511" lon="112.558688">
        <ele>179.7</ele>
        <time>2026-09-07T12:19:24Z</time>
      </trkpt>
      <trkpt lat="34.586591" lon="112.558688">
        <ele>179.8</ele>
        <time>2026-09-07T12:19:27Z</time>
      </trkpt>
      <trkpt lat="34.586699" lon="112.558676">
        <ele>179.7</ele>
        <time>2026-09-07T12:19:30Z</time>
      </trkpt>
      <trkpt lat="34.586774" lon="112.558643">
        <ele>179.7</ele>
        <time>2026-09-07T12:19:33Z</time>
      </trkpt>
      <trkpt lat="34.586822" lon="112.558606">
        <ele>179.8</ele>
        <time>2026-09-07T12:19:36Z</time>
      </trkpt>
      <trkpt lat="34.586907" lon="112.558517">
        <ele>179.9</ele>
        <time>2026-09-07T12:19:39Z</time>
      </trkpt>
      <trkpt lat="34.586948" lon="112.558423">
        <ele>179.8</ele>
        <time>2026-09-07T12:19:42Z</time>
      </trkpt>
      <trkpt lat="34.586967" lon="112.558316">
        <ele>179.8</ele>
        <time>2026-09-07T12:19:45Z</time>
      </trkpt>
      <trkpt lat="34.586965" lon="112.55824">
        <ele>179.8</ele>
        <time>2026-09-07T12:19:48Z</time>
      </trkpt>
      <trkpt lat="34.58693" lon="112.558109">
        <ele>179.8</ele>
        <time>2026-09-07T12:19:51Z</time>
      </trkpt>
      <trkpt lat="34.586881" lon="112.558019">
        <ele>179.7</ele>
        <time>2026-09-07T12:19:54Z</time>
      </trkpt>
      <trkpt lat="34.586816" lon="112.557937">
        <ele>179.6</ele>
        <time>2026-09-07T12:19:57Z</time>
      </trkpt>
      <trkpt lat="34.586765" lon="112.557893">
        <ele>179.6</ele>
        <time>2026-09-07T12:20:00Z</time>
      </trkpt>
      <trkpt lat="34.586658" lon="112.557826">
        <ele>179.7</ele>
        <time>2026-09-07T12:20:03Z</time>
      </trkpt>
      <trkpt lat="34.586574" lon="112.557813">
        <ele>179.7</ele>
        <time>2026-09-07T12:20:06Z</time>
      </trkpt>
      <trkpt lat="34.586525" lon="112.557814">
        <ele>179.7</ele>
        <time>2026-09-07T12:20:09Z</time>
      </trkpt>
      <trkpt lat="34.586465" lon="112.557828">
        <ele>179.6</ele>
        <time>2026-09-07T12:20:12Z</time>
      </trkpt>
      <trkpt lat="34.586405" lon="112.557846">
        <ele>179.8</ele>
        <time>2026-09-07T12:20:15Z</time>
      </trkpt>
      <trkpt lat="34.586346" lon="112.557854">
        <ele>179.8</ele>
        <time>2026-09-07T12:20:18Z</time>
      </trkpt>
      <trkpt lat="34.586301" lon="112.557857">
        <ele>180</ele>
        <time>2026-09-07T12:20:21Z</time>
      </trkpt>
      <trkpt lat="34.586224" lon="112.557865">
        <ele>179.9</ele>
        <time>2026-09-07T12:20:24Z</time>
      </trkpt>
      <trkpt lat="34.58611" lon="112.557874">
        <ele>179.8</ele>
        <time>2026-09-07T12:20:27Z</time>
      </trkpt>
      <trkpt lat="34.586022" lon="112.557878">
        <ele>179.9</ele>
        <time>2026-09-07T12:20:30Z</time>
      </trkpt>
      <trkpt lat="34.585964" lon="112.55788">
        <ele>179.9</ele>
        <time>2026-09-07T12:20:33Z</time>
      </trkpt>
      <trkpt lat="34.585879" lon="112.557879">
        <ele>179.7</ele>
        <time>2026-09-07T12:20:36Z</time>
      </trkpt>
      <trkpt lat="34.585777" lon="112.557873">
        <ele>179.6</ele>
        <time>2026-09-07T12:20:39Z</time>
      </trkpt>
      <trkpt lat="34.585706" lon="112.557887">
        <ele>179.7</ele>
        <time>2026-09-07T12:20:42Z</time>
      </trkpt>
      <trkpt lat="34.585658" lon="112.557912">
        <ele>179.8</ele>
        <time>2026-09-07T12:20:45Z</time>
      </trkpt>
      <trkpt lat="34.585589" lon="112.557971">
        <ele>179.9</ele>
        <time>2026-09-07T12:20:48Z</time>
      </trkpt>
      <trkpt lat="34.585511" lon="112.558081">
        <ele>179.9</ele>
        <time>2026-09-07T12:20:51Z</time>
      </trkpt>
      <trkpt lat="34.585484" lon="112.558152">
        <ele>179.8</ele>
        <time>2026-09-07T12:20:54Z</time>
      </trkpt>
      <trkpt lat="34.585462" lon="112.558261">
        <ele>179.6</ele>
        <time>2026-09-07T12:20:57Z</time>
      </trkpt>
      <trkpt lat="34.585468" lon="112.55837">
        <ele>179.7</ele>
        <time>2026-09-07T12:21:00Z</time>
      </trkpt>
      <trkpt lat="34.585502" lon="112.558511">
        <ele>179.7</ele>
        <time>2026-09-07T12:21:03Z</time>
      </trkpt>
      <trkpt lat="34.585533" lon="112.558576">
        <ele>179.6</ele>
        <time>2026-09-07T12:21:06Z</time>
      </trkpt>
      <trkpt lat="34.5856" lon="112.558659">
        <ele>179.8</ele>
        <time>2026-09-07T12:21:09Z</time>
      </trkpt>
      <trkpt lat="34.58569" lon="112.558711">
        <ele>179.8</ele>
        <time>2026-09-07T12:21:12Z</time>
      </trkpt>
      <trkpt lat="34.585831" lon="112.558731">
        <ele>179.7</ele>
        <time>2026-09-07T12:21:15Z</time>
      </trkpt>
      <trkpt lat="34.585901" lon="112.558725">
        <ele>179.6</ele>
        <time>2026-09-07T12:21:18Z</time>
      </trkpt>
      <trkpt lat="34.586008" lon="112.558707">
        <ele>179.6</ele>
        <time>2026-09-07T12:21:21Z</time>
      </trkpt>
      <trkpt lat="34.586146" lon="112.558682">
        <ele>179.7</ele>
        <time>2026-09-07T12:21:24Z</time>
      </trkpt>
      <trkpt lat="34.586245" lon="112.558674">
        <ele>179.8</ele>
        <time>2026-09-07T12:21:27Z</time>
      </trkpt>
      <trkpt lat="34.58631" lon="112.558671">
        <ele>179.6</ele>
        <time>2026-09-07T12:21:30Z</time>
      </trkpt>
      <trkpt lat="34.586407" lon="112.558669">
        <ele>179.7</ele>
        <time>2026-09-07T12:21:33Z</time>
      </trkpt>
      <trkpt lat="34.586536" lon="112.558669">
        <ele>179.6</ele>
        <time>2026-09-07T12:21:36Z</time>
      </trkpt>
      <trkpt lat="34.586595" lon="112.558671">
        <ele>179.6</ele>
        <time>2026-09-07T12:21:39Z</time>
      </trkpt>
      <trkpt lat="34.586681" lon="112.558672">
        <ele>179.5</ele>
        <time>2026-09-07T12:21:42Z</time>
      </trkpt>
      <trkpt lat="34.586772" lon="112.558661">
        <ele>179.6</ele>
        <time>2026-09-07T12:21:45Z</time>
      </trkpt>
      <trkpt lat="34.586893" lon="112.558616">
        <ele>179.8</ele>
        <time>2026-09-07T12:21:48Z</time>
      </trkpt>
      <trkpt lat="34.586944" lon="112.558579">
        <ele>179.7</ele>
        <time>2026-09-07T12:21:51Z</time>
      </trkpt>
      <trkpt lat="34.586999" lon="112.558495">
        <ele>179.8</ele>
        <time>2026-09-07T12:21:54Z</time>
      </trkpt>
      <trkpt lat="34.587025" lon="112.558378">
        <ele>179.7</ele>
        <time>2026-09-07T12:21:57Z</time>
      </trkpt>
      <trkpt lat="34.587021" lon="112.558202">
        <ele>179.8</ele>
        <time>2026-09-07T12:22:00Z</time>
      </trkpt>
      <trkpt lat="34.587002" lon="112.558116">
        <ele>179.7</ele>
        <time>2026-09-07T12:22:03Z</time>
      </trkpt>
      <trkpt lat="34.586939" lon="112.557963">
        <ele>179.8</ele>
        <time>2026-09-07T12:22:06Z</time>
      </trkpt>
      <trkpt lat="34.58686" lon="112.557871">
        <ele>179.7</ele>
        <time>2026-09-07T12:22:09Z</time>
      </trkpt>
      <trkpt lat="34.586765" lon="112.557808">
        <ele>179.7</ele>
        <time>2026-09-07T12:22:12Z</time>
      </trkpt>
      <trkpt lat="34.586697" lon="112.557788">
        <ele>179.6</ele>
        <time>2026-09-07T12:22:15Z</time>
      </trkpt>
      <trkpt lat="34.586558" lon="112.557792">
        <ele>179.6</ele>
        <time>2026-09-07T12:22:18Z</time>
      </trkpt>
      <trkpt lat="34.586455" lon="112.557813">
        <ele>179.7</ele>
        <time>2026-09-07T12:22:21Z</time>
      </trkpt>
      <trkpt lat="34.586393" lon="112.557827">
        <ele>179.7</ele>
        <time>2026-09-07T12:22:24Z</time>
      </trkpt>
      <trkpt lat="34.586269" lon="112.557848">
        <ele>179.6</ele>
        <time>2026-09-07T12:22:27Z</time>
      </trkpt>
      <trkpt lat="34.586173" lon="112.557854">
        <ele>179.3</ele>
        <time>2026-09-07T12:22:30Z</time>
      </trkpt>
      <trkpt lat="34.586075" lon="112.557854">
        <ele>179.3</ele>
        <time>2026-09-07T12:22:33Z</time>
      </trkpt>
      <trkpt lat="34.58601" lon="112.557853">
        <ele>179.4</ele>
        <time>2026-09-07T12:22:36Z</time>
      </trkpt>
      <trkpt lat="34.585887" lon="112.557856">
        <ele>179.5</ele>
        <time>2026-09-07T12:22:39Z</time>
      </trkpt>
      <trkpt lat="34.585792" lon="112.557867">
        <ele>179.5</ele>
        <time>2026-09-07T12:22:42Z</time>
      </trkpt>
      <trkpt lat="34.585695" lon="112.557895">
        <ele>179.6</ele>
        <time>2026-09-07T12:22:45Z</time>
      </trkpt>
      <trkpt lat="34.585632" lon="112.557931">
        <ele>179.6</ele>
        <time>2026-09-07T12:22:48Z</time>
      </trkpt>
      <trkpt lat="34.585526" lon="112.558049">
        <ele>179.5</ele>
        <time>2026-09-07T12:22:51Z</time>
      </trkpt>
      <trkpt lat="34.585474" lon="112.558171">
        <ele>179.4</ele>
        <time>2026-09-07T12:22:54Z</time>
      </trkpt>
      <trkpt lat="34.58546" lon="112.55826">
        <ele>179.4</ele>
        <time>2026-09-07T12:22:57Z</time>
      </trkpt>
      <trkpt lat="34.585466" lon="112.55839">
        <ele>179.5</ele>
        <time>2026-09-07T12:23:00Z</time>
      </trkpt>
      <trkpt lat="34.585513" lon="112.558544">
        <ele>179.4</ele>
        <time>2026-09-07T12:23:03Z</time>
      </trkpt>
      <trkpt lat="34.585577" lon="112.558639">
        <ele>179.4</ele>
        <time>2026-09-07T12:23:06Z</time>
      </trkpt>
      <trkpt lat="34.585632" lon="112.558685">
        <ele>179.3</ele>
        <time>2026-09-07T12:23:09Z</time>
      </trkpt>
      <trkpt lat="34.585735" lon="112.558729">
        <ele>179.5</ele>
        <time>2026-09-07T12:23:12Z</time>
      </trkpt>
      <trkpt lat="34.585881" lon="112.558746">
        <ele>179.5</ele>
        <time>2026-09-07T12:23:15Z</time>
      </trkpt>
      <trkpt lat="34.585987" lon="112.558738">
        <ele>179.5</ele>
        <time>2026-09-07T12:23:18Z</time>
      </trkpt>
      <trkpt lat="34.586053" lon="112.558727">
        <ele>179.4</ele>
        <time>2026-09-07T12:23:21Z</time>
      </trkpt>
      <trkpt lat="34.58615" lon="112.558707">
        <ele>179.3</ele>
        <time>2026-09-07T12:23:24Z</time>
      </trkpt>
      <trkpt lat="34.586278" lon="112.558684">
        <ele>179.3</ele>
        <time>2026-09-07T12:23:27Z</time>
      </trkpt>
      <trkpt lat="34.586368" lon="112.55868">
        <ele>179.3</ele>
        <time>2026-09-07T12:23:30Z</time>
      </trkpt>
      <trkpt lat="34.586426" lon="112.558677">
        <ele>179.3</ele>
        <time>2026-09-07T12:23:33Z</time>
      </trkpt>
      <trkpt lat="34.586512" lon="112.558678">
        <ele>179.2</ele>
        <time>2026-09-07T12:23:36Z</time>
      </trkpt>
      <trkpt lat="34.58662" lon="112.558683">
        <ele>179.2</ele>
        <time>2026-09-07T12:23:39Z</time>
      </trkpt>
      <trkpt lat="34.586672" lon="112.558685">
        <ele>179.3</ele>
        <time>2026-09-07T12:23:42Z</time>
      </trkpt>
      <trkpt lat="34.586747" lon="112.558683">
        <ele>179.3</ele>
        <time>2026-09-07T12:23:45Z</time>
      </trkpt>
      <trkpt lat="34.586815" lon="112.558667">
        <ele>179.4</ele>
        <time>2026-09-07T12:23:48Z</time>
      </trkpt>
      <trkpt lat="34.586896" lon="112.558612">
        <ele>179.3</ele>
        <time>2026-09-07T12:23:51Z</time>
      </trkpt>
      <trkpt lat="34.586931" lon="112.558574">
        <ele>179.1</ele>
        <time>2026-09-07T12:23:54Z</time>
      </trkpt>
      <trkpt lat="34.586973" lon="112.558503">
        <ele>179.1</ele>
        <time>2026-09-07T12:23:57Z</time>
      </trkpt>
      <trkpt lat="34.587" lon="112.558413">
        <ele>179.1</ele>
        <time>2026-09-07T12:24:00Z</time>
      </trkpt>
      <trkpt lat="34.587005" lon="112.558275">
        <ele>179.1</ele>
        <time>2026-09-07T12:24:03Z</time>
      </trkpt>
      <trkpt lat="34.586995" lon="112.558209">
        <ele>179.1</ele>
        <time>2026-09-07T12:24:06Z</time>
      </trkpt>
      <trkpt lat="34.586969" lon="112.558121">
        <ele>179.1</ele>
        <time>2026-09-07T12:24:09Z</time>
      </trkpt>
      <trkpt lat="34.586929" lon="112.558038">
        <ele>179.1</ele>
        <time>2026-09-07T12:24:12Z</time>
      </trkpt>
      <trkpt lat="34.586849" lon="112.557945">
        <ele>179.1</ele>
        <time>2026-09-07T12:24:15Z</time>
      </trkpt>
      <trkpt lat="34.586799" lon="112.55791">
        <ele>179.2</ele>
        <time>2026-09-07T12:24:18Z</time>
      </trkpt>
      <trkpt lat="34.586718" lon="112.557864">
        <ele>179</ele>
        <time>2026-09-07T12:24:21Z</time>
      </trkpt>
      <trkpt lat="34.586603" lon="112.557829">
        <ele>179.1</ele>
        <time>2026-09-07T12:24:24Z</time>
      </trkpt>
      <trkpt lat="34.586544" lon="112.557828">
        <ele>179.1</ele>
        <time>2026-09-07T12:24:27Z</time>
      </trkpt>
      <trkpt lat="34.586458" lon="112.557835">
        <ele>179.2</ele>
        <time>2026-09-07T12:24:30Z</time>
      </trkpt>
      <trkpt lat="34.586383" lon="112.557849">
        <ele>179.2</ele>
        <time>2026-09-07T12:24:33Z</time>
      </trkpt>
      <trkpt lat="34.586286" lon="112.557864">
        <ele>179.1</ele>
        <time>2026-09-07T12:24:36Z</time>
      </trkpt>
      <trkpt lat="34.586231" lon="112.557872">
        <ele>179</ele>
        <time>2026-09-07T12:24:39Z</time>
      </trkpt>
      <trkpt lat="34.586146" lon="112.557876">
        <ele>179.1</ele>
        <time>2026-09-07T12:24:42Z</time>
      </trkpt>
      <trkpt lat="34.586028" lon="112.557869">
        <ele>179.1</ele>
        <time>2026-09-07T12:24:45Z</time>
      </trkpt>
      <trkpt lat="34.585944" lon="112.557858">
        <ele>179.3</ele>
        <time>2026-09-07T12:24:48Z</time>
      </trkpt>
      <trkpt lat="34.585886" lon="112.557854">
        <ele>179.2</ele>
        <time>2026-09-07T12:24:51Z</time>
      </trkpt>
      <trkpt lat="34.585769" lon="112.557863">
        <ele>179.2</ele>
        <time>2026-09-07T12:24:54Z</time>
      </trkpt>
      <trkpt lat="34.585684" lon="112.557886">
        <ele>179.2</ele>
        <time>2026-09-07T12:24:57Z</time>
      </trkpt>
      <trkpt lat="34.585601" lon="112.557937">
        <ele>179</ele>
        <time>2026-09-07T12:25:00Z</time>
      </trkpt>
      <trkpt lat="34.585552" lon="112.557986">
        <ele>179</ele>
        <time>2026-09-07T12:25:03Z</time>
      </trkpt>
      <trkpt lat="34.585478" lon="112.558106">
        <ele>179.1</ele>
        <time>2026-09-07T12:25:06Z</time>
      </trkpt>
      <trkpt lat="34.585457" lon="112.558201">
        <ele>179.1</ele>
        <time>2026-09-07T12:25:09Z</time>
      </trkpt>
      <trkpt lat="34.585458" lon="112.558269">
        <ele>179</ele>
        <time>2026-09-07T12:25:12Z</time>
      </trkpt>
      <trkpt lat="34.585481" lon="112.558377">
        <ele>179.1</ele>
        <time>2026-09-07T12:25:15Z</time>
      </trkpt>
      <trkpt lat="34.585528" lon="112.558517">
        <ele>179</ele>
        <time>2026-09-07T12:25:18Z</time>
      </trkpt>
      <trkpt lat="34.585585" lon="112.558621">
        <ele>178.9</ele>
        <time>2026-09-07T12:25:21Z</time>
      </trkpt>
      <trkpt lat="34.585636" lon="112.558682">
        <ele>179</ele>
        <time>2026-09-07T12:25:24Z</time>
      </trkpt>
      <trkpt lat="34.585772" lon="112.55876">
        <ele>179</ele>
        <time>2026-09-07T12:25:27Z</time>
      </trkpt>
      <trkpt lat="34.585888" lon="112.558772">
        <ele>178.9</ele>
        <time>2026-09-07T12:25:30Z</time>
      </trkpt>
      <trkpt lat="34.585999" lon="112.558757">
        <ele>178.9</ele>
        <time>2026-09-07T12:25:33Z</time>
      </trkpt>
      <trkpt lat="34.58607" lon="112.558744">
        <ele>178.8</ele>
        <time>2026-09-07T12:25:36Z</time>
      </trkpt>
      <trkpt lat="34.586205" lon="112.558719">
        <ele>178.8</ele>
        <time>2026-09-07T12:25:39Z</time>
      </trkpt>
      <trkpt lat="34.5863" lon="112.558706">
        <ele>178.9</ele>
        <time>2026-09-07T12:25:42Z</time>
      </trkpt>
      <trkpt lat="34.58636" lon="112.558703">
        <ele>178.9</ele>
        <time>2026-09-07T12:25:45Z</time>
      </trkpt>
      <trkpt lat="34.58645" lon="112.558702">
        <ele>179</ele>
        <time>2026-09-07T12:25:48Z</time>
      </trkpt>
      <trkpt lat="34.586573" lon="112.558701">
        <ele>178.9</ele>
        <time>2026-09-07T12:25:51Z</time>
      </trkpt>
      <trkpt lat="34.586667" lon="112.558697">
        <ele>178.9</ele>
        <time>2026-09-07T12:25:54Z</time>
      </trkpt>
      <trkpt lat="34.586727" lon="112.558693">
        <ele>178.9</ele>
        <time>2026-09-07T12:25:57Z</time>
      </trkpt>
      <trkpt lat="34.586814" lon="112.558672">
        <ele>178.9</ele>
        <time>2026-09-07T12:26:00Z</time>
      </trkpt>
      <trkpt lat="34.586903" lon="112.55862">
        <ele>178.8</ele>
        <time>2026-09-07T12:26:03Z</time>
      </trkpt>
      <trkpt lat="34.586942" lon="112.558596">
        <ele>178.3</ele>
        <time>2026-09-07T12:26:06Z</time>
      </trkpt>
      <trkpt lat="34.58694" lon="112.558575">
        <ele>178.6</ele>
        <time>2026-09-07T12:26:09Z</time>
      </trkpt>
      <trkpt lat="34.586963" lon="112.558518">
        <ele>178.7</ele>
        <time>2026-09-07T12:26:12Z</time>
      </trkpt>
      <trkpt lat="34.587001" lon="112.558395">
        <ele>178.7</ele>
        <time>2026-09-07T12:26:15Z</time>
      </trkpt>
      <trkpt lat="34.587009" lon="112.558276">
        <ele>178.8</ele>
        <time>2026-09-07T12:26:18Z</time>
      </trkpt>
      <trkpt lat="34.587003" lon="112.558202">
        <ele>178.8</ele>
        <time>2026-09-07T12:26:21Z</time>
      </trkpt>
      <trkpt lat="34.586976" lon="112.558098">
        <ele>178.8</ele>
        <time>2026-09-07T12:26:24Z</time>
      </trkpt>
      <trkpt lat="34.586908" lon="112.557978">
        <ele>178.8</ele>
        <time>2026-09-07T12:26:27Z</time>
      </trkpt>
      <trkpt lat="34.586862" lon="112.557929">
        <ele>178.8</ele>
        <time>2026-09-07T12:26:30Z</time>
      </trkpt>
      <trkpt lat="34.586785" lon="112.55787">
        <ele>178.9</ele>
        <time>2026-09-07T12:26:33Z</time>
      </trkpt>
      <trkpt lat="34.58671" lon="112.557827">
        <ele>178.7</ele>
        <time>2026-09-07T12:26:36Z</time>
      </trkpt>
      <trkpt lat="34.5866" lon="112.557804">
        <ele>178.7</ele>
        <time>2026-09-07T12:26:39Z</time>
      </trkpt>
      <trkpt lat="34.586541" lon="112.557804">
        <ele>178.8</ele>
        <time>2026-09-07T12:26:42Z</time>
      </trkpt>
      <trkpt lat="34.586449" lon="112.557809">
        <ele>179</ele>
        <time>2026-09-07T12:26:45Z</time>
      </trkpt>
      <trkpt lat="34.586354" lon="112.557812">
        <ele>178.9</ele>
        <time>2026-09-07T12:26:48Z</time>
      </trkpt>
      <trkpt lat="34.586224" lon="112.557817">
        <ele>178.9</ele>
        <time>2026-09-07T12:26:51Z</time>
      </trkpt>
      <trkpt lat="34.586161" lon="112.557819">
        <ele>178.9</ele>
        <time>2026-09-07T12:26:54Z</time>
      </trkpt>
      <trkpt lat="34.586067" lon="112.557824">
        <ele>178.9</ele>
        <time>2026-09-07T12:26:57Z</time>
      </trkpt>
      <trkpt lat="34.585977" lon="112.557832">
        <ele>178.8</ele>
        <time>2026-09-07T12:27:00Z</time>
      </trkpt>
      <trkpt lat="34.585857" lon="112.557837">
        <ele>178.8</ele>
        <time>2026-09-07T12:27:03Z</time>
      </trkpt>
      <trkpt lat="34.585795" lon="112.557845">
        <ele>178.7</ele>
        <time>2026-09-07T12:27:06Z</time>
      </trkpt>
      <trkpt lat="34.585703" lon="112.557868">
        <ele>178.6</ele>
        <time>2026-09-07T12:27:09Z</time>
      </trkpt>
      <trkpt lat="34.585619" lon="112.55791">
        <ele>178.7</ele>
        <time>2026-09-07T12:27:12Z</time>
      </trkpt>
      <trkpt lat="34.585547" lon="112.557971">
        <ele>178.7</ele>
        <time>2026-09-07T12:27:15Z</time>
      </trkpt>
      <trkpt lat="34.585481" lon="112.558095">
        <ele>178.9</ele>
        <time>2026-09-07T12:27:18Z</time>
      </trkpt>
      <trkpt lat="34.585456" lon="112.558223">
        <ele>178.7</ele>
        <time>2026-09-07T12:27:21Z</time>
      </trkpt>
      <trkpt lat="34.585463" lon="112.558374">
        <ele>178.9</ele>
        <time>2026-09-07T12:27:24Z</time>
      </trkpt>
      <trkpt lat="34.585484" lon="112.558475">
        <ele>178.6</ele>
        <time>2026-09-07T12:27:27Z</time>
      </trkpt>
      <trkpt lat="34.585555" lon="112.558646">
        <ele>178.7</ele>
        <time>2026-09-07T12:27:30Z</time>
      </trkpt>
      <trkpt lat="34.585635" lon="112.558738">
        <ele>178.7</ele>
        <time>2026-09-07T12:27:33Z</time>
      </trkpt>
      <trkpt lat="34.58574" lon="112.558785">
        <ele>178.7</ele>
        <time>2026-09-07T12:27:36Z</time>
      </trkpt>
      <trkpt lat="34.585819" lon="112.558796">
        <ele>178.7</ele>
        <time>2026-09-07T12:27:39Z</time>
      </trkpt>
      <trkpt lat="34.585991" lon="112.558772">
        <ele>178.6</ele>
        <time>2026-09-07T12:27:42Z</time>
      </trkpt>
      <trkpt lat="34.586104" lon="112.558756">
        <ele>178.8</ele>
        <time>2026-09-07T12:27:45Z</time>
      </trkpt>
      <trkpt lat="34.586172" lon="112.558746">
        <ele>178.8</ele>
        <time>2026-09-07T12:27:48Z</time>
      </trkpt>
      <trkpt lat="34.586258" lon="112.558738">
        <ele>178.8</ele>
        <time>2026-09-07T12:27:51Z</time>
      </trkpt>
      <trkpt lat="34.58636" lon="112.558734">
        <ele>178.7</ele>
        <time>2026-09-07T12:27:54Z</time>
      </trkpt>
      <trkpt lat="34.586447" lon="112.558727">
        <ele>178.6</ele>
        <time>2026-09-07T12:27:57Z</time>
      </trkpt>
      <trkpt lat="34.586505" lon="112.558723">
        <ele>178.6</ele>
        <time>2026-09-07T12:28:00Z</time>
      </trkpt>
      <trkpt lat="34.586588" lon="112.558715">
        <ele>178.7</ele>
        <time>2026-09-07T12:28:03Z</time>
      </trkpt>
      <trkpt lat="34.586693" lon="112.558708">
        <ele>178.7</ele>
        <time>2026-09-07T12:28:06Z</time>
      </trkpt>
      <trkpt lat="34.586766" lon="112.558694">
        <ele>178.5</ele>
        <time>2026-09-07T12:28:09Z</time>
      </trkpt>
      <trkpt lat="34.586814" lon="112.558678">
        <ele>178.7</ele>
        <time>2026-09-07T12:28:12Z</time>
      </trkpt>
      <trkpt lat="34.586894" lon="112.558627">
        <ele>178.7</ele>
        <time>2026-09-07T12:28:15Z</time>
      </trkpt>
      <trkpt lat="34.586944" lon="112.558558">
        <ele>178.6</ele>
        <time>2026-09-07T12:28:18Z</time>
      </trkpt>
      <trkpt lat="34.586988" lon="112.55847">
        <ele>178.6</ele>
        <time>2026-09-07T12:28:21Z</time>
      </trkpt>
      <trkpt lat="34.587012" lon="112.558406">
        <ele>178.6</ele>
        <time>2026-09-07T12:28:24Z</time>
      </trkpt>
      <trkpt lat="34.587037" lon="112.558268">
        <ele>178.7</ele>
        <time>2026-09-07T12:28:27Z</time>
      </trkpt>
      <trkpt lat="34.587035" lon="112.558172">
        <ele>178.6</ele>
        <time>2026-09-07T12:28:30Z</time>
      </trkpt>
      <trkpt lat="34.587019" lon="112.558107">
        <ele>178.6</ele>
        <time>2026-09-07T12:28:33Z</time>
      </trkpt>
      <trkpt lat="34.586975" lon="112.558019">
        <ele>178.6</ele>
        <time>2026-09-07T12:28:36Z</time>
      </trkpt>
      <trkpt lat="34.586891" lon="112.557927">
        <ele>178.7</ele>
        <time>2026-09-07T12:28:39Z</time>
      </trkpt>
      <trkpt lat="34.586817" lon="112.557879">
        <ele>178.6</ele>
        <time>2026-09-07T12:28:42Z</time>
      </trkpt>
      <trkpt lat="34.586765" lon="112.557853">
        <ele>178.8</ele>
        <time>2026-09-07T12:28:45Z</time>
      </trkpt>
      <trkpt lat="34.586685" lon="112.557825">
        <ele>178.9</ele>
        <time>2026-09-07T12:28:48Z</time>
      </trkpt>
      <trkpt lat="34.586574" lon="112.557816">
        <ele>178.7</ele>
        <time>2026-09-07T12:28:51Z</time>
      </trkpt>
      <trkpt lat="34.586485" lon="112.557827">
        <ele>178.7</ele>
        <time>2026-09-07T12:28:54Z</time>
      </trkpt>
      <trkpt lat="34.586424" lon="112.557834">
        <ele>178.6</ele>
        <time>2026-09-07T12:28:57Z</time>
      </trkpt>
      <trkpt lat="34.586329" lon="112.557843">
        <ele>178.6</ele>
        <time>2026-09-07T12:29:00Z</time>
      </trkpt>
      <trkpt lat="34.586205" lon="112.55784">
        <ele>178.5</ele>
        <time>2026-09-07T12:29:03Z</time>
      </trkpt>
      <trkpt lat="34.586112" lon="112.557832">
        <ele>178.6</ele>
        <time>2026-09-07T12:29:06Z</time>
      </trkpt>
      <trkpt lat="34.586048" lon="112.557826">
        <ele>178.6</ele>
        <time>2026-09-07T12:29:09Z</time>
      </trkpt>
      <trkpt lat="34.585951" lon="112.55782">
        <ele>178.6</ele>
        <time>2026-09-07T12:29:12Z</time>
      </trkpt>
      <trkpt lat="34.585831" lon="112.55782">
        <ele>178.5</ele>
        <time>2026-09-07T12:29:15Z</time>
      </trkpt>
      <trkpt lat="34.585773" lon="112.557826">
        <ele>178.5</ele>
        <time>2026-09-07T12:29:18Z</time>
      </trkpt>
      <trkpt lat="34.585686" lon="112.557851">
        <ele>178.6</ele>
        <time>2026-09-07T12:29:21Z</time>
      </trkpt>
      <trkpt lat="34.585605" lon="112.557908">
        <ele>178.5</ele>
        <time>2026-09-07T12:29:24Z</time>
      </trkpt>
      <trkpt lat="34.585516" lon="112.558015">
        <ele>178.5</ele>
        <time>2026-09-07T12:29:27Z</time>
      </trkpt>
      <trkpt lat="34.585487" lon="112.55808">
        <ele>178.4</ele>
        <time>2026-09-07T12:29:30Z</time>
      </trkpt>
      <trkpt lat="34.585464" lon="112.558188">
        <ele>178.4</ele>
        <time>2026-09-07T12:29:33Z</time>
      </trkpt>
      <trkpt lat="34.58547" lon="112.558309">
        <ele>178.4</ele>
        <time>2026-09-07T12:29:36Z</time>
      </trkpt>
      <trkpt lat="34.585508" lon="112.558482">
        <ele>178.5</ele>
        <time>2026-09-07T12:29:39Z</time>
      </trkpt>
      <trkpt lat="34.585536" lon="112.558565">
        <ele>178.5</ele>
        <time>2026-09-07T12:29:42Z</time>
      </trkpt>
      <trkpt lat="34.585595" lon="112.558678">
        <ele>178.3</ele>
        <time>2026-09-07T12:29:45Z</time>
      </trkpt>
      <trkpt lat="34.585681" lon="112.558765">
        <ele>178.3</ele>
        <time>2026-09-07T12:29:48Z</time>
      </trkpt>
      <trkpt lat="34.585816" lon="112.558824">
        <ele>178.3</ele>
        <time>2026-09-07T12:29:51Z</time>
      </trkpt>
      <trkpt lat="34.585899" lon="112.558824">
        <ele>178.5</ele>
        <time>2026-09-07T12:29:54Z</time>
      </trkpt>
      <trkpt lat="34.586019" lon="112.558811">
        <ele>178.6</ele>
        <time>2026-09-07T12:29:57Z</time>
      </trkpt>
      <trkpt lat="34.586128" lon="112.558792">
        <ele>178.6</ele>
        <time>2026-09-07T12:30:00Z</time>
      </trkpt>
      <trkpt lat="34.586231" lon="112.558775">
        <ele>178.6</ele>
        <time>2026-09-07T12:30:03Z</time>
      </trkpt>
      <trkpt lat="34.586368" lon="112.558752">
        <ele>178.7</ele>
        <time>2026-09-07T12:30:06Z</time>
      </trkpt>
      <trkpt lat="34.586471" lon="112.558741">
        <ele>178.8</ele>
        <time>2026-09-07T12:30:09Z</time>
      </trkpt>
      <trkpt lat="34.586566" lon="112.558739">
        <ele>178.6</ele>
        <time>2026-09-07T12:30:12Z</time>
      </trkpt>
      <trkpt lat="34.586628" lon="112.558738">
        <ele>178.6</ele>
        <time>2026-09-07T12:30:15Z</time>
      </trkpt>
      <trkpt lat="34.586742" lon="112.558736">
        <ele>178.6</ele>
        <time>2026-09-07T12:30:18Z</time>
      </trkpt>
      <trkpt lat="34.586814" lon="112.558719">
        <ele>178.6</ele>
        <time>2026-09-07T12:30:21Z</time>
      </trkpt>
      <trkpt lat="34.586883" lon="112.558676">
        <ele>178.5</ele>
        <time>2026-09-07T12:30:24Z</time>
      </trkpt>
      <trkpt lat="34.586927" lon="112.558635">
        <ele>178.5</ele>
        <time>2026-09-07T12:30:27Z</time>
      </trkpt>
      <trkpt lat="34.586995" lon="112.558541">
        <ele>178.5</ele>
        <time>2026-09-07T12:30:30Z</time>
      </trkpt>
      <trkpt lat="34.587017" lon="112.558463">
        <ele>178.5</ele>
        <time>2026-09-07T12:30:33Z</time>
      </trkpt>
      <trkpt lat="34.587023" lon="112.558406">
        <ele>178.4</ele>
        <time>2026-09-07T12:30:36Z</time>
      </trkpt>
      <trkpt lat="34.587023" lon="112.558315">
        <ele>178.6</ele>
        <time>2026-09-07T12:30:39Z</time>
      </trkpt>
      <trkpt lat="34.587016" lon="112.558195">
        <ele>178.5</ele>
        <time>2026-09-07T12:30:42Z</time>
      </trkpt>
      <trkpt lat="34.587001" lon="112.558109">
        <ele>178.4</ele>
        <time>2026-09-07T12:30:45Z</time>
      </trkpt>
      <trkpt lat="34.586984" lon="112.558055">
        <ele>178.5</ele>
        <time>2026-09-07T12:30:48Z</time>
      </trkpt>
      <trkpt lat="34.586949" lon="112.557979">
        <ele>178.5</ele>
        <time>2026-09-07T12:30:51Z</time>
      </trkpt>
      <trkpt lat="34.586866" lon="112.557886">
        <ele>178.6</ele>
        <time>2026-09-07T12:30:54Z</time>
      </trkpt>
      <trkpt lat="34.586785" lon="112.557835">
        <ele>178.7</ele>
        <time>2026-09-07T12:30:57Z</time>
      </trkpt>
      <trkpt lat="34.586727" lon="112.557812">
        <ele>178.5</ele>
        <time>2026-09-07T12:31:00Z</time>
      </trkpt>
      <trkpt lat="34.58664" lon="112.557798">
        <ele>178.4</ele>
        <time>2026-09-07T12:31:03Z</time>
      </trkpt>
      <trkpt lat="34.586528" lon="112.55781">
        <ele>178.8</ele>
        <time>2026-09-07T12:31:06Z</time>
      </trkpt>
      <trkpt lat="34.586433" lon="112.557826">
        <ele>178.6</ele>
        <time>2026-09-07T12:31:09Z</time>
      </trkpt>
      <trkpt lat="34.586371" lon="112.557835">
        <ele>178.6</ele>
        <time>2026-09-07T12:31:12Z</time>
      </trkpt>
      <trkpt lat="34.586278" lon="112.557845">
        <ele>178.7</ele>
        <time>2026-09-07T12:31:15Z</time>
      </trkpt>
      <trkpt lat="34.586158" lon="112.557849">
        <ele>178.6</ele>
        <time>2026-09-07T12:31:18Z</time>
      </trkpt>
      <trkpt lat="34.586096" lon="112.557849">
        <ele>178.4</ele>
        <time>2026-09-07T12:31:21Z</time>
      </trkpt>
      <trkpt lat="34.586002" lon="112.557853">
        <ele>178.4</ele>
        <time>2026-09-07T12:31:24Z</time>
      </trkpt>
      <trkpt lat="34.585875" lon="112.557862">
        <ele>178.3</ele>
        <time>2026-09-07T12:31:27Z</time>
      </trkpt>
      <trkpt lat="34.585782" lon="112.557874">
        <ele>178.4</ele>
        <time>2026-09-07T12:31:30Z</time>
      </trkpt>
      <trkpt lat="34.585722" lon="112.55789">
        <ele>178.4</ele>
        <time>2026-09-07T12:31:33Z</time>
      </trkpt>
      <trkpt lat="34.585634" lon="112.557936">
        <ele>178.4</ele>
        <time>2026-09-07T12:31:36Z</time>
      </trkpt>
      <trkpt lat="34.585528" lon="112.558049">
        <ele>178.5</ele>
        <time>2026-09-07T12:31:39Z</time>
      </trkpt>
      <trkpt lat="34.585473" lon="112.558148">
        <ele>178.5</ele>
        <time>2026-09-07T12:31:42Z</time>
      </trkpt>
      <trkpt lat="34.585449" lon="112.558226">
        <ele>178.5</ele>
        <time>2026-09-07T12:31:45Z</time>
      </trkpt>
      <trkpt lat="34.58544" lon="112.558349">
        <ele>178.5</ele>
        <time>2026-09-07T12:31:48Z</time>
      </trkpt>
      <trkpt lat="34.585467" lon="112.558504">
        <ele>178.6</ele>
        <time>2026-09-07T12:31:51Z</time>
      </trkpt>
      <trkpt lat="34.585507" lon="112.558599">
        <ele>178.5</ele>
        <time>2026-09-07T12:31:54Z</time>
      </trkpt>
      <trkpt lat="34.585546" lon="112.558653">
        <ele>178.4</ele>
        <time>2026-09-07T12:31:57Z</time>
      </trkpt>
      <trkpt lat="34.58562" lon="112.558717">
        <ele>178.3</ele>
        <time>2026-09-07T12:32:00Z</time>
      </trkpt>
      <trkpt lat="34.585725" lon="112.558778">
        <ele>178.4</ele>
        <time>2026-09-07T12:32:03Z</time>
      </trkpt>
      <trkpt lat="34.585781" lon="112.558795">
        <ele>178.5</ele>
        <time>2026-09-07T12:32:06Z</time>
      </trkpt>
      <trkpt lat="34.585868" lon="112.558804">
        <ele>178.5</ele>
        <time>2026-09-07T12:32:09Z</time>
      </trkpt>
      <trkpt lat="34.585959" lon="112.558799">
        <ele>178.5</ele>
        <time>2026-09-07T12:32:12Z</time>
      </trkpt>
      <trkpt lat="34.586081" lon="112.558784">
        <ele>178.4</ele>
        <time>2026-09-07T12:32:15Z</time>
      </trkpt>
      <trkpt lat="34.586146" lon="112.558777">
        <ele>178.4</ele>
        <time>2026-09-07T12:32:18Z</time>
      </trkpt>
      <trkpt lat="34.586239" lon="112.558767">
        <ele>178.3</ele>
        <time>2026-09-07T12:32:21Z</time>
      </trkpt>
      <trkpt lat="34.586334" lon="112.558761">
        <ele>178.3</ele>
        <time>2026-09-07T12:32:24Z</time>
      </trkpt>
      <trkpt lat="34.58646" lon="112.558755">
        <ele>178.2</ele>
        <time>2026-09-07T12:32:27Z</time>
      </trkpt>
      <trkpt lat="34.586518" lon="112.558752">
        <ele>178.3</ele>
        <time>2026-09-07T12:32:30Z</time>
      </trkpt>
      <trkpt lat="34.586593" lon="112.558756">
        <ele>178.3</ele>
        <time>2026-09-07T12:32:33Z</time>
      </trkpt>
      <trkpt lat="34.586663" lon="112.558762">
        <ele>178.3</ele>
        <time>2026-09-07T12:32:36Z</time>
      </trkpt>
      <trkpt lat="34.586738" lon="112.55876">
        <ele>178.5</ele>
        <time>2026-09-07T12:32:39Z</time>
      </trkpt>
      <trkpt lat="34.58681" lon="112.558742">
        <ele>178.4</ele>
        <time>2026-09-07T12:32:42Z</time>
      </trkpt>
      <trkpt lat="34.586877" lon="112.5587">
        <ele>178.5</ele>
        <time>2026-09-07T12:32:45Z</time>
      </trkpt>
      <trkpt lat="34.586944" lon="112.558636">
        <ele>178.5</ele>
        <time>2026-09-07T12:32:48Z</time>
      </trkpt>
      <trkpt lat="34.586997" lon="112.55855">
        <ele>178.4</ele>
        <time>2026-09-07T12:32:51Z</time>
      </trkpt>
      <trkpt lat="34.587045" lon="112.558433">
        <ele>178.4</ele>
        <time>2026-09-07T12:32:54Z</time>
      </trkpt>
      <trkpt lat="34.587066" lon="112.558339">
        <ele>178.5</ele>
        <time>2026-09-07T12:32:57Z</time>
      </trkpt>
      <trkpt lat="34.587069" lon="112.558251">
        <ele>178.4</ele>
        <time>2026-09-07T12:33:00Z</time>
      </trkpt>
      <trkpt lat="34.587058" lon="112.558196">
        <ele>178.5</ele>
        <time>2026-09-07T12:33:03Z</time>
      </trkpt>
      <trkpt lat="34.587013" lon="112.558078">
        <ele>178.4</ele>
        <time>2026-09-07T12:33:06Z</time>
      </trkpt>
      <trkpt lat="34.586962" lon="112.557994">
        <ele>178.2</ele>
        <time>2026-09-07T12:33:09Z</time>
      </trkpt>
      <trkpt lat="34.586893" lon="112.55792">
        <ele>178.3</ele>
        <time>2026-09-07T12:33:12Z</time>
      </trkpt>
      <trkpt lat="34.586843" lon="112.557876">
        <ele>178.3</ele>
        <time>2026-09-07T12:33:15Z</time>
      </trkpt>
      <trkpt lat="34.586746" lon="112.557811">
        <ele>178.4</ele>
        <time>2026-09-07T12:33:18Z</time>
      </trkpt>
      <trkpt lat="34.586673" lon="112.557789">
        <ele>178.4</ele>
        <time>2026-09-07T12:33:21Z</time>
      </trkpt>
      <trkpt lat="34.586621" lon="112.557786">
        <ele>178.5</ele>
        <time>2026-09-07T12:33:24Z</time>
      </trkpt>
      <trkpt lat="34.586541" lon="112.557794">
        <ele>178.4</ele>
        <time>2026-09-07T12:33:27Z</time>
      </trkpt>
      <trkpt lat="34.586441" lon="112.557812">
        <ele>178.3</ele>
        <time>2026-09-07T12:33:30Z</time>
      </trkpt>
      <trkpt lat="34.58638" lon="112.557836">
        <ele>178.3</ele>
        <time>2026-09-07T12:33:33Z</time>
      </trkpt>
      <trkpt lat="34.586343" lon="112.557845">
        <ele>178.3</ele>
        <time>2026-09-07T12:33:36Z</time>
      </trkpt>
      <trkpt lat="34.58628" lon="112.557851">
        <ele>178.3</ele>
        <time>2026-09-07T12:33:39Z</time>
      </trkpt>
      <trkpt lat="34.586179" lon="112.557846">
        <ele>178.4</ele>
        <time>2026-09-07T12:33:42Z</time>
      </trkpt>
      <trkpt lat="34.586094" lon="112.557843">
        <ele>178.2</ele>
        <time>2026-09-07T12:33:45Z</time>
      </trkpt>
      <trkpt lat="34.586037" lon="112.557842">
        <ele>178.2</ele>
        <time>2026-09-07T12:33:48Z</time>
      </trkpt>
      <trkpt lat="34.585952" lon="112.557843">
        <ele>178.2</ele>
        <time>2026-09-07T12:33:51Z</time>
      </trkpt>
      <trkpt lat="34.585842" lon="112.557855">
        <ele>178.2</ele>
        <time>2026-09-07T12:33:54Z</time>
      </trkpt>
      <trkpt lat="34.585762" lon="112.557871">
        <ele>178.2</ele>
        <time>2026-09-07T12:33:57Z</time>
      </trkpt>
      <trkpt lat="34.58571" lon="112.557886">
        <ele>178.3</ele>
        <time>2026-09-07T12:34:00Z</time>
      </trkpt>
      <trkpt lat="34.585634" lon="112.557918">
        <ele>178.4</ele>
        <time>2026-09-07T12:34:03Z</time>
      </trkpt>
      <trkpt lat="34.585544" lon="112.55799">
        <ele>178.4</ele>
        <time>2026-09-07T12:34:06Z</time>
      </trkpt>
      <trkpt lat="34.585508" lon="112.558037">
        <ele>178.4</ele>
        <time>2026-09-07T12:34:09Z</time>
      </trkpt>
      <trkpt lat="34.585468" lon="112.55812">
        <ele>178.1</ele>
        <time>2026-09-07T12:34:12Z</time>
      </trkpt>
      <trkpt lat="34.585444" lon="112.558247">
        <ele>178.2</ele>
        <time>2026-09-07T12:34:15Z</time>
      </trkpt>
      <trkpt lat="34.585443" lon="112.558347">
        <ele>178.3</ele>
        <time>2026-09-07T12:34:18Z</time>
      </trkpt>
      <trkpt lat="34.585452" lon="112.558411">
        <ele>178.3</ele>
        <time>2026-09-07T12:34:21Z</time>
      </trkpt>
      <trkpt lat="34.585479" lon="112.558503">
        <ele>178.2</ele>
        <time>2026-09-07T12:34:24Z</time>
      </trkpt>
      <trkpt lat="34.585544" lon="112.558613">
        <ele>178.2</ele>
        <time>2026-09-07T12:34:27Z</time>
      </trkpt>
      <trkpt lat="34.585601" lon="112.558684">
        <ele>178.2</ele>
        <time>2026-09-07T12:34:30Z</time>
      </trkpt>
      <trkpt lat="34.585641" lon="112.558724">
        <ele>178.2</ele>
        <time>2026-09-07T12:34:33Z</time>
      </trkpt>
      <trkpt lat="34.585712" lon="112.558763">
        <ele>178.2</ele>
        <time>2026-09-07T12:34:36Z</time>
      </trkpt>
      <trkpt lat="34.58582" lon="112.558786">
        <ele>178.2</ele>
        <time>2026-09-07T12:34:39Z</time>
      </trkpt>
      <trkpt lat="34.585911" lon="112.558789">
        <ele>178.2</ele>
        <time>2026-09-07T12:34:42Z</time>
      </trkpt>
      <trkpt lat="34.585974" lon="112.558785">
        <ele>178.1</ele>
        <time>2026-09-07T12:34:45Z</time>
      </trkpt>
      <trkpt lat="34.586073" lon="112.558775">
        <ele>178.2</ele>
        <time>2026-09-07T12:34:48Z</time>
      </trkpt>
      <trkpt lat="34.586205" lon="112.558754">
        <ele>178.4</ele>
        <time>2026-09-07T12:34:51Z</time>
      </trkpt>
      <trkpt lat="34.586268" lon="112.558748">
        <ele>178.1</ele>
        <time>2026-09-07T12:34:54Z</time>
      </trkpt>
      <trkpt lat="34.586358" lon="112.558741">
        <ele>178.1</ele>
        <time>2026-09-07T12:34:57Z</time>
      </trkpt>
      <trkpt lat="34.586443" lon="112.558738">
        <ele>178</ele>
        <time>2026-09-07T12:35:00Z</time>
      </trkpt>
      <trkpt lat="34.586557" lon="112.558729">
        <ele>178.1</ele>
        <time>2026-09-07T12:35:03Z</time>
      </trkpt>
      <trkpt lat="34.586616" lon="112.558725">
        <ele>178.1</ele>
        <time>2026-09-07T12:35:06Z</time>
      </trkpt>
      <trkpt lat="34.586707" lon="112.558721">
        <ele>178.1</ele>
        <time>2026-09-07T12:35:09Z</time>
      </trkpt>
      <trkpt lat="34.586788" lon="112.55871">
        <ele>178.1</ele>
        <time>2026-09-07T12:35:12Z</time>
      </trkpt>
      <trkpt lat="34.586881" lon="112.558662">
        <ele>178.1</ele>
        <time>2026-09-07T12:35:15Z</time>
      </trkpt>
      <trkpt lat="34.586921" lon="112.558625">
        <ele>178.1</ele>
        <time>2026-09-07T12:35:18Z</time>
      </trkpt>
      <trkpt lat="34.586976" lon="112.558551">
        <ele>178.1</ele>
        <time>2026-09-07T12:35:21Z</time>
      </trkpt>
      <trkpt lat="34.587024" lon="112.558461">
        <ele>178</ele>
        <time>2026-09-07T12:35:24Z</time>
      </trkpt>
      <trkpt lat="34.587053" lon="112.558355">
        <ele>178</ele>
        <time>2026-09-07T12:35:27Z</time>
      </trkpt>
      <trkpt lat="34.58706" lon="112.558245">
        <ele>178.1</ele>
        <time>2026-09-07T12:35:30Z</time>
      </trkpt>
      <trkpt lat="34.587032" lon="112.558146">
        <ele>178</ele>
        <time>2026-09-07T12:35:33Z</time>
      </trkpt>
      <trkpt lat="34.586956" lon="112.558018">
        <ele>178.1</ele>
        <time>2026-09-07T12:35:36Z</time>
      </trkpt>
      <trkpt lat="34.586917" lon="112.557964">
        <ele>178</ele>
        <time>2026-09-07T12:35:39Z</time>
      </trkpt>
      <trkpt lat="34.586852" lon="112.557892">
        <ele>178</ele>
        <time>2026-09-07T12:35:42Z</time>
      </trkpt>
      <trkpt lat="34.586765" lon="112.557843">
        <ele>178.1</ele>
        <time>2026-09-07T12:35:45Z</time>
      </trkpt>
      <trkpt lat="34.586624" lon="112.557821">
        <ele>178</ele>
        <time>2026-09-07T12:35:48Z</time>
      </trkpt>
      <trkpt lat="34.586546" lon="112.557829">
        <ele>178</ele>
        <time>2026-09-07T12:35:51Z</time>
      </trkpt>
      <trkpt lat="34.586391" lon="112.557852">
        <ele>178.1</ele>
        <time>2026-09-07T12:35:54Z</time>
      </trkpt>
      <trkpt lat="34.586283" lon="112.557869">
        <ele>178.1</ele>
        <time>2026-09-07T12:35:57Z</time>
      </trkpt>
      <trkpt lat="34.586181" lon="112.557883">
        <ele>178.1</ele>
        <time>2026-09-07T12:36:00Z</time>
      </trkpt>
      <trkpt lat="34.586113" lon="112.557888">
        <ele>178.2</ele>
        <time>2026-09-07T12:36:03Z</time>
      </trkpt>
      <trkpt lat="34.585981" lon="112.557897">
        <ele>178.3</ele>
        <time>2026-09-07T12:36:06Z</time>
      </trkpt>
      <trkpt lat="34.585886" lon="112.557892">
        <ele>178.2</ele>
        <time>2026-09-07T12:36:09Z</time>
      </trkpt>
      <trkpt lat="34.585826" lon="112.55789">
        <ele>178.2</ele>
        <time>2026-09-07T12:36:12Z</time>
      </trkpt>
      <trkpt lat="34.585741" lon="112.55789">
        <ele>178</ele>
        <time>2026-09-07T12:36:15Z</time>
      </trkpt>
      <trkpt lat="34.585637" lon="112.557922">
        <ele>178.1</ele>
        <time>2026-09-07T12:36:18Z</time>
      </trkpt>
      <trkpt lat="34.585569" lon="112.557973">
        <ele>178.2</ele>
        <time>2026-09-07T12:36:21Z</time>
      </trkpt>
      <trkpt lat="34.585526" lon="112.558023">
        <ele>178.1</ele>
        <time>2026-09-07T12:36:24Z</time>
      </trkpt>
      <trkpt lat="34.585477" lon="112.558121">
        <ele>178.1</ele>
        <time>2026-09-07T12:36:27Z</time>
      </trkpt>
      <trkpt lat="34.585439" lon="112.558257">
        <ele>178.1</ele>
        <time>2026-09-07T12:36:30Z</time>
      </trkpt>
      <trkpt lat="34.585439" lon="112.558366">
        <ele>178.1</ele>
        <time>2026-09-07T12:36:33Z</time>
      </trkpt>
      <trkpt lat="34.585454" lon="112.558437">
        <ele>178</ele>
        <time>2026-09-07T12:36:36Z</time>
      </trkpt>
      <trkpt lat="34.585511" lon="112.558571">
        <ele>178</ele>
        <time>2026-09-07T12:36:39Z</time>
      </trkpt>
      <trkpt lat="34.585581" lon="112.558658">
        <ele>178</ele>
        <time>2026-09-07T12:36:42Z</time>
      </trkpt>
      <trkpt lat="34.585666" lon="112.558722">
        <ele>178</ele>
        <time>2026-09-07T12:36:45Z</time>
      </trkpt>
      <trkpt lat="34.585734" lon="112.558751">
        <ele>178.1</ele>
        <time>2026-09-07T12:36:48Z</time>
      </trkpt>
      <trkpt lat="34.585896" lon="112.558775">
        <ele>178</ele>
        <time>2026-09-07T12:36:51Z</time>
      </trkpt>
      <trkpt lat="34.586017" lon="112.558767">
        <ele>178</ele>
        <time>2026-09-07T12:36:54Z</time>
      </trkpt>
      <trkpt lat="34.586095" lon="112.558759">
        <ele>177.9</ele>
        <time>2026-09-07T12:36:57Z</time>
      </trkpt>
      <trkpt lat="34.586202" lon="112.558748">
        <ele>177.9</ele>
        <time>2026-09-07T12:37:00Z</time>
      </trkpt>
      <trkpt lat="34.586326" lon="112.558739">
        <ele>177.8</ele>
        <time>2026-09-07T12:37:03Z</time>
      </trkpt>
      <trkpt lat="34.586411" lon="112.558729">
        <ele>178</ele>
        <time>2026-09-07T12:37:06Z</time>
      </trkpt>
      <trkpt lat="34.586468" lon="112.558726">
        <ele>177.9</ele>
        <time>2026-09-07T12:37:09Z</time>
      </trkpt>
      <trkpt lat="34.586555" lon="112.558721">
        <ele>177.8</ele>
        <time>2026-09-07T12:37:12Z</time>
      </trkpt>
      <trkpt lat="34.586662" lon="112.558718">
        <ele>177.8</ele>
        <time>2026-09-07T12:37:15Z</time>
      </trkpt>
      <trkpt lat="34.586743" lon="112.558697">
        <ele>177.9</ele>
        <time>2026-09-07T12:37:18Z</time>
      </trkpt>
      <trkpt lat="34.586796" lon="112.558672">
        <ele>177.8</ele>
        <time>2026-09-07T12:37:21Z</time>
      </trkpt>
      <trkpt lat="34.586869" lon="112.558618">
        <ele>177.9</ele>
        <time>2026-09-07T12:37:24Z</time>
      </trkpt>
      <trkpt lat="34.586946" lon="112.55852">
        <ele>177.9</ele>
        <time>2026-09-07T12:37:27Z</time>
      </trkpt>
      <trkpt lat="34.586984" lon="112.558431">
        <ele>177.9</ele>
        <time>2026-09-07T12:37:30Z</time>
      </trkpt>
      <trkpt lat="34.587" lon="112.558368">
        <ele>177.8</ele>
        <time>2026-09-07T12:37:33Z</time>
      </trkpt>
      <trkpt lat="34.587007" lon="112.558278">
        <ele>177.8</ele>
        <time>2026-09-07T12:37:36Z</time>
      </trkpt>
      <trkpt lat="34.586986" lon="112.558163">
        <ele>177.8</ele>
        <time>2026-09-07T12:37:39Z</time>
      </trkpt>
      <trkpt lat="34.58697" lon="112.558108">
        <ele>177.7</ele>
        <time>2026-09-07T12:37:42Z</time>
      </trkpt>
      <trkpt lat="34.586937" lon="112.558032">
        <ele>177.8</ele>
        <time>2026-09-07T12:37:45Z</time>
      </trkpt>
      <trkpt lat="34.58689" lon="112.557962">
        <ele>177.9</ele>
        <time>2026-09-07T12:37:48Z</time>
      </trkpt>
      <trkpt lat="34.5868" lon="112.557883">
        <ele>177.8</ele>
        <time>2026-09-07T12:37:51Z</time>
      </trkpt>
      <trkpt lat="34.586748" lon="112.557854">
        <ele>177.8</ele>
        <time>2026-09-07T12:37:54Z</time>
      </trkpt>
      <trkpt lat="34.586662" lon="112.557829">
        <ele>177.8</ele>
        <time>2026-09-07T12:37:57Z</time>
      </trkpt>
      <trkpt lat="34.586566" lon="112.557828">
        <ele>177.7</ele>
        <time>2026-09-07T12:38:00Z</time>
      </trkpt>
      <trkpt lat="34.58644" lon="112.557849">
        <ele>177.6</ele>
        <time>2026-09-07T12:38:03Z</time>
      </trkpt>
      <trkpt lat="34.586379" lon="112.557859">
        <ele>177.6</ele>
        <time>2026-09-07T12:38:06Z</time>
      </trkpt>
      <trkpt lat="34.586294" lon="112.557865">
        <ele>177.5</ele>
        <time>2026-09-07T12:38:09Z</time>
      </trkpt>
      <trkpt lat="34.586184" lon="112.557867">
        <ele>177.5</ele>
        <time>2026-09-07T12:38:12Z</time>
      </trkpt>
      <trkpt lat="34.586128" lon="112.557866">
        <ele>177.5</ele>
        <time>2026-09-07T12:38:15Z</time>
      </trkpt>
      <trkpt lat="34.586046" lon="112.557863">
        <ele>177.6</ele>
        <time>2026-09-07T12:38:18Z</time>
      </trkpt>
      <trkpt lat="34.585963" lon="112.557865">
        <ele>177.7</ele>
        <time>2026-09-07T12:38:21Z</time>
      </trkpt>
      <trkpt lat="34.585854" lon="112.557875">
        <ele>177.6</ele>
        <time>2026-09-07T12:38:24Z</time>
      </trkpt>
      <trkpt lat="34.585802" lon="112.557879">
        <ele>177.5</ele>
        <time>2026-09-07T12:38:27Z</time>
      </trkpt>
      <trkpt lat="34.585728" lon="112.55789">
        <ele>177.5</ele>
        <time>2026-09-07T12:38:30Z</time>
      </trkpt>
      <trkpt lat="34.585654" lon="112.557921">
        <ele>177.4</ele>
        <time>2026-09-07T12:38:33Z</time>
      </trkpt>
      <trkpt lat="34.585568" lon="112.557997">
        <ele>177.5</ele>
        <time>2026-09-07T12:38:36Z</time>
      </trkpt>
      <trkpt lat="34.585534" lon="112.558045">
        <ele>177.6</ele>
        <time>2026-09-07T12:38:39Z</time>
      </trkpt>
      <trkpt lat="34.585492" lon="112.558122">
        <ele>177.6</ele>
        <time>2026-09-07T12:38:42Z</time>
      </trkpt>
      <trkpt lat="34.585467" lon="112.558207">
        <ele>177.5</ele>
        <time>2026-09-07T12:38:45Z</time>
      </trkpt>
      <trkpt lat="34.585462" lon="112.558327">
        <ele>177.4</ele>
        <time>2026-09-07T12:38:48Z</time>
      </trkpt>
      <trkpt lat="34.585471" lon="112.558387">
        <ele>177.5</ele>
        <time>2026-09-07T12:38:51Z</time>
      </trkpt>
      <trkpt lat="34.585511" lon="112.558496">
        <ele>177.5</ele>
        <time>2026-09-07T12:38:54Z</time>
      </trkpt>
      <trkpt lat="34.585551" lon="112.558571">
        <ele>177.5</ele>
        <time>2026-09-07T12:38:57Z</time>
      </trkpt>
      <trkpt lat="34.585579" lon="112.558622">
        <ele>177.5</ele>
        <time>2026-09-07T12:39:00Z</time>
      </trkpt>
      <trkpt lat="34.585646" lon="112.558705">
        <ele>177.5</ele>
        <time>2026-09-07T12:39:03Z</time>
      </trkpt>
      <trkpt lat="34.585714" lon="112.558742">
        <ele>177.4</ele>
        <time>2026-09-07T12:39:06Z</time>
      </trkpt>
      <trkpt lat="34.585794" lon="112.558757">
        <ele>177.5</ele>
        <time>2026-09-07T12:39:09Z</time>
      </trkpt>
      <trkpt lat="34.585859" lon="112.558757">
        <ele>177.5</ele>
        <time>2026-09-07T12:39:12Z</time>
      </trkpt>
      <trkpt lat="34.585991" lon="112.558744">
        <ele>177.6</ele>
        <time>2026-09-07T12:39:15Z</time>
      </trkpt>
      <trkpt lat="34.586073" lon="112.558729">
        <ele>177.5</ele>
        <time>2026-09-07T12:39:18Z</time>
      </trkpt>
      <trkpt lat="34.586143" lon="112.558717">
        <ele>177.5</ele>
        <time>2026-09-07T12:39:21Z</time>
      </trkpt>
      <trkpt lat="34.586194" lon="112.558713">
        <ele>177.6</ele>
        <time>2026-09-07T12:39:24Z</time>
      </trkpt>
      <trkpt lat="34.586303" lon="112.558719">
        <ele>177.6</ele>
        <time>2026-09-07T12:39:27Z</time>
      </trkpt>
      <trkpt lat="34.586397" lon="112.558717">
        <ele>177.6</ele>
        <time>2026-09-07T12:39:30Z</time>
      </trkpt>
      <trkpt lat="34.586492" lon="112.558713">
        <ele>177.5</ele>
        <time>2026-09-07T12:39:33Z</time>
      </trkpt>
      <trkpt lat="34.586554" lon="112.558711">
        <ele>177.5</ele>
        <time>2026-09-07T12:39:36Z</time>
      </trkpt>
      <trkpt lat="34.586678" lon="112.558701">
        <ele>177.5</ele>
        <time>2026-09-07T12:39:39Z</time>
      </trkpt>
      <trkpt lat="34.586765" lon="112.558682">
        <ele>177.6</ele>
        <time>2026-09-07T12:39:42Z</time>
      </trkpt>
      <trkpt lat="34.586818" lon="112.558659">
        <ele>177.6</ele>
        <time>2026-09-07T12:39:45Z</time>
      </trkpt>
      <trkpt lat="34.586887" lon="112.558608">
        <ele>177.5</ele>
        <time>2026-09-07T12:39:48Z</time>
      </trkpt>
      <trkpt lat="34.586961" lon="112.558501">
        <ele>177.3</ele>
        <time>2026-09-07T12:39:51Z</time>
      </trkpt>
      <trkpt lat="34.586995" lon="112.558403">
        <ele>177.3</ele>
        <time>2026-09-07T12:39:54Z</time>
      </trkpt>
      <trkpt lat="34.587006" lon="112.558335">
        <ele>177.4</ele>
        <time>2026-09-07T12:39:57Z</time>
      </trkpt>
      <trkpt lat="34.587004" lon="112.558234">
        <ele>177.3</ele>
        <time>2026-09-07T12:40:00Z</time>
      </trkpt>
      <trkpt lat="34.586974" lon="112.558117">
        <ele>177.3</ele>
        <time>2026-09-07T12:40:03Z</time>
      </trkpt>
      <trkpt lat="34.586935" lon="112.558037">
        <ele>177.2</ele>
        <time>2026-09-07T12:40:06Z</time>
      </trkpt>
      <trkpt lat="34.586898" lon="112.557986">
        <ele>177.2</ele>
        <time>2026-09-07T12:40:09Z</time>
      </trkpt>
      <trkpt lat="34.586827" lon="112.557921">
        <ele>177.3</ele>
        <time>2026-09-07T12:40:12Z</time>
      </trkpt>
      <trkpt lat="34.586721" lon="112.557867">
        <ele>177.1</ele>
        <time>2026-09-07T12:40:15Z</time>
      </trkpt>
      <trkpt lat="34.586642" lon="112.557852">
        <ele>177.3</ele>
        <time>2026-09-07T12:40:18Z</time>
      </trkpt>
      <trkpt lat="34.586591" lon="112.557849">
        <ele>177.3</ele>
        <time>2026-09-07T12:40:21Z</time>
      </trkpt>
      <trkpt lat="34.586515" lon="112.557852">
        <ele>177.4</ele>
        <time>2026-09-07T12:40:24Z</time>
      </trkpt>
      <trkpt lat="34.586417" lon="112.557854">
        <ele>177.4</ele>
        <time>2026-09-07T12:40:27Z</time>
      </trkpt>
      <trkpt lat="34.586372" lon="112.557855">
        <ele>177.4</ele>
        <time>2026-09-07T12:40:30Z</time>
      </trkpt>
      <trkpt lat="34.586311" lon="112.557854">
        <ele>177.5</ele>
        <time>2026-09-07T12:40:33Z</time>
      </trkpt>
      <trkpt lat="34.586249" lon="112.557855">
        <ele>177.3</ele>
        <time>2026-09-07T12:40:36Z</time>
      </trkpt>
      <trkpt lat="34.586163" lon="112.557862">
        <ele>177.4</ele>
        <time>2026-09-07T12:40:39Z</time>
      </trkpt>
      <trkpt lat="34.586117" lon="112.557865">
        <ele>177.4</ele>
        <time>2026-09-07T12:40:42Z</time>
      </trkpt>
      <trkpt lat="34.586043" lon="112.557866">
        <ele>177.5</ele>
        <time>2026-09-07T12:40:45Z</time>
      </trkpt>
      <trkpt lat="34.585965" lon="112.557851">
        <ele>177.4</ele>
        <time>2026-09-07T12:40:48Z</time>
      </trkpt>
      <trkpt lat="34.585852" lon="112.557837">
        <ele>177.5</ele>
        <time>2026-09-07T12:40:51Z</time>
      </trkpt>
      <trkpt lat="34.585796" lon="112.557837">
        <ele>177.5</ele>
        <time>2026-09-07T12:40:54Z</time>
      </trkpt>
      <trkpt lat="34.585712" lon="112.557847">
        <ele>177.3</ele>
        <time>2026-09-07T12:40:57Z</time>
      </trkpt>
      <trkpt lat="34.585629" lon="112.557892">
        <ele>177.3</ele>
        <time>2026-09-07T12:41:00Z</time>
      </trkpt>
      <trkpt lat="34.585528" lon="112.558001">
        <ele>177.4</ele>
        <time>2026-09-07T12:41:03Z</time>
      </trkpt>
      <trkpt lat="34.585488" lon="112.55807">
        <ele>177.4</ele>
        <time>2026-09-07T12:41:06Z</time>
      </trkpt>
      <trkpt lat="34.585448" lon="112.558185">
        <ele>177.4</ele>
        <time>2026-09-07T12:41:09Z</time>
      </trkpt>
      <trkpt lat="34.585438" lon="112.55831">
        <ele>177.4</ele>
        <time>2026-09-07T12:41:12Z</time>
      </trkpt>
      <trkpt lat="34.585466" lon="112.558437">
        <ele>177.3</ele>
        <time>2026-09-07T12:41:15Z</time>
      </trkpt>
      <trkpt lat="34.585509" lon="112.558553">
        <ele>177.2</ele>
        <time>2026-09-07T12:41:18Z</time>
      </trkpt>
      <trkpt lat="34.585566" lon="112.558652">
        <ele>177.1</ele>
        <time>2026-09-07T12:41:21Z</time>
      </trkpt>
      <trkpt lat="34.585662" lon="112.558741">
        <ele>177</ele>
        <time>2026-09-07T12:41:24Z</time>
      </trkpt>
      <trkpt lat="34.585712" lon="112.55877">
        <ele>177.1</ele>
        <time>2026-09-07T12:41:27Z</time>
      </trkpt>
      <trkpt lat="34.585827" lon="112.558784">
        <ele>177</ele>
        <time>2026-09-07T12:41:30Z</time>
      </trkpt>
      <trkpt lat="34.585932" lon="112.558775">
        <ele>177</ele>
        <time>2026-09-07T12:41:33Z</time>
      </trkpt>
      <trkpt lat="34.586037" lon="112.558759">
        <ele>177</ele>
        <time>2026-09-07T12:41:36Z</time>
      </trkpt>
      <trkpt lat="34.586104" lon="112.558752">
        <ele>177</ele>
        <time>2026-09-07T12:41:39Z</time>
      </trkpt>
      <trkpt lat="34.586226" lon="112.558745">
        <ele>177.2</ele>
        <time>2026-09-07T12:41:42Z</time>
      </trkpt>
      <trkpt lat="34.58632" lon="112.558741">
        <ele>177.2</ele>
        <time>2026-09-07T12:41:45Z</time>
      </trkpt>
      <trkpt lat="34.586382" lon="112.558739">
        <ele>177.3</ele>
        <time>2026-09-07T12:41:48Z</time>
      </trkpt>
      <trkpt lat="34.586476" lon="112.55874">
        <ele>177.1</ele>
        <time>2026-09-07T12:41:51Z</time>
      </trkpt>
      <trkpt lat="34.586606" lon="112.558735">
        <ele>177.2</ele>
        <time>2026-09-07T12:41:54Z</time>
      </trkpt>
      <trkpt lat="34.586704" lon="112.558725">
        <ele>177.2</ele>
        <time>2026-09-07T12:41:57Z</time>
      </trkpt>
      <trkpt lat="34.586766" lon="112.558709">
        <ele>177.1</ele>
        <time>2026-09-07T12:42:00Z</time>
      </trkpt>
      <trkpt lat="34.586849" lon="112.558663">
        <ele>177.2</ele>
        <time>2026-09-07T12:42:03Z</time>
      </trkpt>
      <trkpt lat="34.586943" lon="112.558555">
        <ele>177</ele>
        <time>2026-09-07T12:42:06Z</time>
      </trkpt>
      <trkpt lat="34.586992" lon="112.558445">
        <ele>177</ele>
        <time>2026-09-07T12:42:09Z</time>
      </trkpt>
      <trkpt lat="34.587009" lon="112.558367">
        <ele>177.1</ele>
        <time>2026-09-07T12:42:12Z</time>
      </trkpt>
      <trkpt lat="34.587015" lon="112.558247">
        <ele>177</ele>
        <time>2026-09-07T12:42:15Z</time>
      </trkpt>
      <trkpt lat="34.586993" lon="112.558097">
        <ele>177.1</ele>
        <time>2026-09-07T12:42:18Z</time>
      </trkpt>
      <trkpt lat="34.586954" lon="112.558003">
        <ele>177</ele>
        <time>2026-09-07T12:42:21Z</time>
      </trkpt>
      <trkpt lat="34.586916" lon="112.55795">
        <ele>177</ele>
        <time>2026-09-07T12:42:24Z</time>
      </trkpt>
      <trkpt lat="34.586829" lon="112.557867">
        <ele>177</ele>
        <time>2026-09-07T12:42:27Z</time>
      </trkpt>
      <trkpt lat="34.586747" lon="112.557823">
        <ele>176.9</ele>
        <time>2026-09-07T12:42:30Z</time>
      </trkpt>
      <trkpt lat="34.586687" lon="112.557806">
        <ele>176.9</ele>
        <time>2026-09-07T12:42:33Z</time>
      </trkpt>
      <trkpt lat="34.586595" lon="112.5578">
        <ele>176.8</ele>
        <time>2026-09-07T12:42:36Z</time>
      </trkpt>
      <trkpt lat="34.586479" lon="112.55781">
        <ele>176.8</ele>
        <time>2026-09-07T12:42:39Z</time>
      </trkpt>
      <trkpt lat="34.586396" lon="112.557818">
        <ele>176.8</ele>
        <time>2026-09-07T12:42:42Z</time>
      </trkpt>
      <trkpt lat="34.586337" lon="112.557822">
        <ele>177</ele>
        <time>2026-09-07T12:42:45Z</time>
      </trkpt>
      <trkpt lat="34.586247" lon="112.557826">
        <ele>176.9</ele>
        <time>2026-09-07T12:42:48Z</time>
      </trkpt>
      <trkpt lat="34.586129" lon="112.557834">
        <ele>176.9</ele>
        <time>2026-09-07T12:42:51Z</time>
      </trkpt>
      <trkpt lat="34.586043" lon="112.557842">
        <ele>176.9</ele>
        <time>2026-09-07T12:42:54Z</time>
      </trkpt>
      <trkpt lat="34.585985" lon="112.557851">
        <ele>176.9</ele>
        <time>2026-09-07T12:42:57Z</time>
      </trkpt>
      <trkpt lat="34.5859" lon="112.557859">
        <ele>176.9</ele>
        <time>2026-09-07T12:43:00Z</time>
      </trkpt>
      <trkpt lat="34.585788" lon="112.557869">
        <ele>177</ele>
        <time>2026-09-07T12:43:03Z</time>
      </trkpt>
      <trkpt lat="34.585705" lon="112.557891">
        <ele>176.9</ele>
        <time>2026-09-07T12:43:06Z</time>
      </trkpt>
      <trkpt lat="34.585655" lon="112.557919">
        <ele>176.9</ele>
        <time>2026-09-07T12:43:09Z</time>
      </trkpt>
      <trkpt lat="34.585584" lon="112.557983">
        <ele>177</ele>
        <time>2026-09-07T12:43:12Z</time>
      </trkpt>
      <trkpt lat="34.58551" lon="112.55809">
        <ele>177.1</ele>
        <time>2026-09-07T12:43:15Z</time>
      </trkpt>
      <trkpt lat="34.585486" lon="112.558146">
        <ele>177.1</ele>
        <time>2026-09-07T12:43:18Z</time>
      </trkpt>
      <trkpt lat="34.585467" lon="112.558235">
        <ele>177</ele>
        <time>2026-09-07T12:43:21Z</time>
      </trkpt>
      <trkpt lat="34.585471" lon="112.558329">
        <ele>176.9</ele>
        <time>2026-09-07T12:43:24Z</time>
      </trkpt>
      <trkpt lat="34.585511" lon="112.558463">
        <ele>176.9</ele>
        <time>2026-09-07T12:43:27Z</time>
      </trkpt>
      <trkpt lat="34.585542" lon="112.558531">
        <ele>176.9</ele>
        <time>2026-09-07T12:43:30Z</time>
      </trkpt>
      <trkpt lat="34.585589" lon="112.558624">
        <ele>176.8</ele>
        <time>2026-09-07T12:43:33Z</time>
      </trkpt>
      <trkpt lat="34.585643" lon="112.558693">
        <ele>176.8</ele>
        <time>2026-09-07T12:43:36Z</time>
      </trkpt>
      <trkpt lat="34.585742" lon="112.558743">
        <ele>176.7</ele>
        <time>2026-09-07T12:43:39Z</time>
      </trkpt>
      <trkpt lat="34.585804" lon="112.558751">
        <ele>176.9</ele>
        <time>2026-09-07T12:43:42Z</time>
      </trkpt>
      <trkpt lat="34.585901" lon="112.558751">
        <ele>176.8</ele>
        <time>2026-09-07T12:43:45Z</time>
      </trkpt>
      <trkpt lat="34.585999" lon="112.55874">
        <ele>176.9</ele>
        <time>2026-09-07T12:43:48Z</time>
      </trkpt>
      <trkpt lat="34.586123" lon="112.558726">
        <ele>176.6</ele>
        <time>2026-09-07T12:43:51Z</time>
      </trkpt>
      <trkpt lat="34.586186" lon="112.558719">
        <ele>176.7</ele>
        <time>2026-09-07T12:43:54Z</time>
      </trkpt>
      <trkpt lat="34.586285" lon="112.55871">
        <ele>176.8</ele>
        <time>2026-09-07T12:43:57Z</time>
      </trkpt>
      <trkpt lat="34.586419" lon="112.558705">
        <ele>176.8</ele>
        <time>2026-09-07T12:44:00Z</time>
      </trkpt>
      <trkpt lat="34.586487" lon="112.558707">
        <ele>176.8</ele>
        <time>2026-09-07T12:44:03Z</time>
      </trkpt>
      <trkpt lat="34.586609" lon="112.558716">
        <ele>176.9</ele>
        <time>2026-09-07T12:44:06Z</time>
      </trkpt>
      <trkpt lat="34.586695" lon="112.558722">
        <ele>176.7</ele>
        <time>2026-09-07T12:44:09Z</time>
      </trkpt>
      <trkpt lat="34.586775" lon="112.55871">
        <ele>176.8</ele>
        <time>2026-09-07T12:44:12Z</time>
      </trkpt>
      <trkpt lat="34.586825" lon="112.558688">
        <ele>176.8</ele>
        <time>2026-09-07T12:44:15Z</time>
      </trkpt>
      <trkpt lat="34.586914" lon="112.558611">
        <ele>176.8</ele>
        <time>2026-09-07T12:44:18Z</time>
      </trkpt>
      <trkpt lat="34.586966" lon="112.558525">
        <ele>176.8</ele>
        <time>2026-09-07T12:44:21Z</time>
      </trkpt>
      <trkpt lat="34.586995" lon="112.558424">
        <ele>176.7</ele>
        <time>2026-09-07T12:44:24Z</time>
      </trkpt>
      <trkpt lat="34.587003" lon="112.55835">
        <ele>176.6</ele>
        <time>2026-09-07T12:44:27Z</time>
      </trkpt>
      <trkpt lat="34.586996" lon="112.558211">
        <ele>176.6</ele>
        <time>2026-09-07T12:44:30Z</time>
      </trkpt>
      <trkpt lat="34.586972" lon="112.558109">
        <ele>176.6</ele>
        <time>2026-09-07T12:44:33Z</time>
      </trkpt>
      <trkpt lat="34.586948" lon="112.558046">
        <ele>176.6</ele>
        <time>2026-09-07T12:44:36Z</time>
      </trkpt>
      <trkpt lat="34.586895" lon="112.557962">
        <ele>176.6</ele>
        <time>2026-09-07T12:44:39Z</time>
      </trkpt>
      <trkpt lat="34.586786" lon="112.557873">
        <ele>176.8</ele>
        <time>2026-09-07T12:44:42Z</time>
      </trkpt>
      <trkpt lat="34.58669" lon="112.557833">
        <ele>176.8</ele>
        <time>2026-09-07T12:44:45Z</time>
      </trkpt>
      <trkpt lat="34.586627" lon="112.557816">
        <ele>176.8</ele>
        <time>2026-09-07T12:44:48Z</time>
      </trkpt>
      <trkpt lat="34.586527" lon="112.557812">
        <ele>176.8</ele>
        <time>2026-09-07T12:44:51Z</time>
      </trkpt>
      <trkpt lat="34.586382" lon="112.557822">
        <ele>176.6</ele>
        <time>2026-09-07T12:44:54Z</time>
      </trkpt>
      <trkpt lat="34.586274" lon="112.557833">
        <ele>176.5</ele>
        <time>2026-09-07T12:44:57Z</time>
      </trkpt>
      <trkpt lat="34.586205" lon="112.557839">
        <ele>176.5</ele>
        <time>2026-09-07T12:45:00Z</time>
      </trkpt>
      <trkpt lat="34.586102" lon="112.557845">
        <ele>176.7</ele>
        <time>2026-09-07T12:45:03Z</time>
      </trkpt>
      <trkpt lat="34.585965" lon="112.557846">
        <ele>176.8</ele>
        <time>2026-09-07T12:45:06Z</time>
      </trkpt>
      <trkpt lat="34.585863" lon="112.557847">
        <ele>176.7</ele>
        <time>2026-09-07T12:45:09Z</time>
      </trkpt>
      <trkpt lat="34.585797" lon="112.557852">
        <ele>176.5</ele>
        <time>2026-09-07T12:45:12Z</time>
      </trkpt>
      <trkpt lat="34.5857" lon="112.557871">
        <ele>176.4</ele>
        <time>2026-09-07T12:45:15Z</time>
      </trkpt>
      <trkpt lat="34.58558" lon="112.557936">
        <ele>176.6</ele>
        <time>2026-09-07T12:45:18Z</time>
      </trkpt>
      <trkpt lat="34.58553" lon="112.557983">
        <ele>176.7</ele>
        <time>2026-09-07T12:45:21Z</time>
      </trkpt>
      <trkpt lat="34.585468" lon="112.558067">
        <ele>176.6</ele>
        <time>2026-09-07T12:45:24Z</time>
      </trkpt>
      <trkpt lat="34.58543" lon="112.558163">
        <ele>176.6</ele>
        <time>2026-09-07T12:45:27Z</time>
      </trkpt>
      <trkpt lat="34.585419" lon="112.558311">
        <ele>176.7</ele>
        <time>2026-09-07T12:45:30Z</time>
      </trkpt>
      <trkpt lat="34.58543" lon="112.55839">
        <ele>176.7</ele>
        <time>2026-09-07T12:45:33Z</time>
      </trkpt>
      <trkpt lat="34.585468" lon="112.558502">
        <ele>176.7</ele>
        <time>2026-09-07T12:45:36Z</time>
      </trkpt>
      <trkpt lat="34.585524" lon="112.558604">
        <ele>176.7</ele>
        <time>2026-09-07T12:45:39Z</time>
      </trkpt>
      <trkpt lat="34.585639" lon="112.558715">
        <ele>176.5</ele>
        <time>2026-09-07T12:45:42Z</time>
      </trkpt>
      <trkpt lat="34.585707" lon="112.558755">
        <ele>176.4</ele>
        <time>2026-09-07T12:45:45Z</time>
      </trkpt>
      <trkpt lat="34.585816" lon="112.558792">
        <ele>176.5</ele>
        <time>2026-09-07T12:45:48Z</time>
      </trkpt>
      <trkpt lat="34.585926" lon="112.558801">
        <ele>176.5</ele>
        <time>2026-09-07T12:45:51Z</time>
      </trkpt>
      <trkpt lat="34.58603" lon="112.558787">
        <ele>176.4</ele>
        <time>2026-09-07T12:45:54Z</time>
      </trkpt>
      <trkpt lat="34.586125" lon="112.558769">
        <ele>176.5</ele>
        <time>2026-09-07T12:45:57Z</time>
      </trkpt>
      <trkpt lat="34.586215" lon="112.558747">
        <ele>176.5</ele>
        <time>2026-09-07T12:46:00Z</time>
      </trkpt>
      <trkpt lat="34.586332" lon="112.558725">
        <ele>176.4</ele>
        <time>2026-09-07T12:46:03Z</time>
      </trkpt>
      <trkpt lat="34.586391" lon="112.558717">
        <ele>176.4</ele>
        <time>2026-09-07T12:46:06Z</time>
      </trkpt>
      <trkpt lat="34.586473" lon="112.558709">
        <ele>176.4</ele>
        <time>2026-09-07T12:46:09Z</time>
      </trkpt>
      <trkpt lat="34.586554" lon="112.558709">
        <ele>176.4</ele>
        <time>2026-09-07T12:46:12Z</time>
      </trkpt>
      <trkpt lat="34.586661" lon="112.55871">
        <ele>176.3</ele>
        <time>2026-09-07T12:46:15Z</time>
      </trkpt>
      <trkpt lat="34.586714" lon="112.558711">
        <ele>176.3</ele>
        <time>2026-09-07T12:46:18Z</time>
      </trkpt>
      <trkpt lat="34.586788" lon="112.558702">
        <ele>176.2</ele>
        <time>2026-09-07T12:46:21Z</time>
      </trkpt>
      <trkpt lat="34.586853" lon="112.558672">
        <ele>176.2</ele>
        <time>2026-09-07T12:46:24Z</time>
      </trkpt>
      <trkpt lat="34.586925" lon="112.55859">
        <ele>176.2</ele>
        <time>2026-09-07T12:46:27Z</time>
      </trkpt>
      <trkpt lat="34.586956" lon="112.558531">
        <ele>176.4</ele>
        <time>2026-09-07T12:46:30Z</time>
      </trkpt>
      <trkpt lat="34.586993" lon="112.558426">
        <ele>176.3</ele>
        <time>2026-09-07T12:46:33Z</time>
      </trkpt>
      <trkpt lat="34.587011" lon="112.558319">
        <ele>176.3</ele>
        <time>2026-09-07T12:46:36Z</time>
      </trkpt>
      <trkpt lat="34.587015" lon="112.558188">
        <ele>176.2</ele>
        <time>2026-09-07T12:46:39Z</time>
      </trkpt>
      <trkpt lat="34.587008" lon="112.558123">
        <ele>176.1</ele>
        <time>2026-09-07T12:46:42Z</time>
      </trkpt>
      <trkpt lat="34.58698" lon="112.558037">
        <ele>176.2</ele>
        <time>2026-09-07T12:46:45Z</time>
      </trkpt>
      <trkpt lat="34.586931" lon="112.557962">
        <ele>176.2</ele>
        <time>2026-09-07T12:46:48Z</time>
      </trkpt>
      <trkpt lat="34.586857" lon="112.557902">
        <ele>176.1</ele>
        <time>2026-09-07T12:46:51Z</time>
      </trkpt>
      <trkpt lat="34.586779" lon="112.557858">
        <ele>176</ele>
        <time>2026-09-07T12:46:54Z</time>
      </trkpt>
      <trkpt lat="34.586714" lon="112.557816">
        <ele>176.2</ele>
        <time>2026-09-07T12:46:57Z</time>
      </trkpt>
      <trkpt lat="34.586661" lon="112.557766">
        <ele>176</ele>
        <time>2026-09-07T12:47:00Z</time>
      </trkpt>
      <trkpt lat="34.586645" lon="112.557749">
        <ele>176</ele>
        <time>2026-09-07T12:47:03Z</time>
      </trkpt>
      <trkpt lat="34.586625" lon="112.557719">
        <ele>175.8</ele>
        <time>2026-09-07T12:47:09Z</time>
      </trkpt>
      <trkpt lat="34.586636" lon="112.55772">
        <ele>175.7</ele>
        <time>2026-09-07T12:47:12Z</time>
      </trkpt>
      <trkpt lat="34.586642" lon="112.557722">
        <ele>175.8</ele>
        <time>2026-09-07T12:47:15Z</time>
      </trkpt>
      <trkpt lat="34.586647" lon="112.557732">
        <ele>175.7</ele>
        <time>2026-09-07T12:47:18Z</time>
      </trkpt>
      <trkpt lat="34.58664" lon="112.557735">
        <ele>175.6</ele>
        <time>2026-09-07T12:47:21Z</time>
      </trkpt>
      <trkpt lat="34.586633" lon="112.557739">
        <ele>175.7</ele>
        <time>2026-09-07T12:47:24Z</time>
      </trkpt>
      <trkpt lat="34.586626" lon="112.557741">
        <ele>175.5</ele>
        <time>2026-09-07T12:47:27Z</time>
      </trkpt>
      <trkpt lat="34.586618" lon="112.557728">
        <ele>175.4</ele>
        <time>2026-09-07T12:47:30Z</time>
      </trkpt>
      <trkpt lat="34.586624" lon="112.557716">
        <ele>175.3</ele>
        <time>2026-09-07T12:47:33Z</time>
      </trkpt>
      <trkpt lat="34.586625" lon="112.557723">
        <ele>175.5</ele>
        <time>2026-09-07T12:47:39Z</time>
      </trkpt>
      <trkpt lat="34.586621" lon="112.55774">
        <ele>175.5</ele>
        <time>2026-09-07T12:47:42Z</time>
      </trkpt>
      <trkpt lat="34.586627" lon="112.557743">
        <ele>175.5</ele>
        <time>2026-09-07T12:47:45Z</time>
      </trkpt>
      <trkpt lat="34.586635" lon="112.557726">
        <ele>175.6</ele>
        <time>2026-09-07T12:47:51Z</time>
      </trkpt>
      <trkpt lat="34.586642" lon="112.557714">
        <ele>175.7</ele>
        <time>2026-09-07T12:47:54Z</time>
      </trkpt>
      <trkpt lat="34.586645" lon="112.557709">
        <ele>175.6</ele>
        <time>2026-09-07T12:47:57Z</time>
      </trkpt>
      <trkpt lat="34.586645" lon="112.557708">
        <ele>175.6</ele>
        <time>2026-09-07T12:48:00Z</time>
      </trkpt>
      <trkpt lat="34.586646" lon="112.557707">
        <ele>175.5</ele>
        <time>2026-09-07T12:48:03Z</time>
      </trkpt>
      <trkpt lat="34.586648" lon="112.557712">
        <ele>175.3</ele>
        <time>2026-09-07T12:48:06Z</time>
      </trkpt>
      <trkpt lat="34.586644" lon="112.557723">
        <ele>175.3</ele>
        <time>2026-09-07T12:48:09Z</time>
      </trkpt>
      <trkpt lat="34.97773" lon="112.929555">
        <ele>175.2</ele>
        <time>2026-09-07T12:48:12Z</time>
      </trkpt>
      <trkpt lat="34.586643" lon="112.557722">
        <ele>175.2</ele>
        <time>2026-09-07T12:48:15Z</time>
      </trkpt>
    </trkseg>
  </trk>
</gpx>