<?xml version="1.0" encoding="UTF-8"?>
<gpx xmlns="http://www.topografix.com/GPX/1/1" xmlns:gpxtpx="http://www.garmin.com/xmlschemas/TrackPointExtension/v1" xmlns:xsi="http://www.w3.org/2001/XMLSchema-instance" xsi:schemaLocation="http://www.topografix.com/GPX/1/1 http://www.topografix.com/GPX/1/1/gpx.xsd" version="1.1" creator="gpx.py -- https://github.com/tkrajina/gpxpy">
  <trk>
    <name>下午跑步</name>
    <type>running</type>
    <trkseg>
      <trkpt lat="34.586255" lon="112.558797">
        <ele>144.1</ele>
        <time>2026-09-25T07:14:41Z</time>
      </trkpt>
      <trkpt lat="34.58631" lon="112.558835">
        <ele>144.1</ele>
        <time>2026-09-25T07:14:44Z</time>
      </trkpt>
      <trkpt lat="34.586357" lon="112.558843">
        <ele>144.3</ele>
        <time>2026-09-25T07:14:47Z</time>
      </trkpt>
      <trkpt lat="34.586629" lon="112.558823">
        <ele>144.3</ele>
        <time>2026-09-25T07:14:53Z</time>
      </trkpt>
      <trkpt lat="34.586761" lon="112.558803">
        <ele>144.4</ele>
        <time>2026-09-25T07:14:56Z</time>
      </trkpt>
      <trkpt lat="34.586776" lon="112.558727">
        <ele>144.3</ele>
        <time>2026-09-25T07:14:59Z</time>
      </trkpt>
      <trkpt lat="34.586877" lon="112.558674">
        <ele>144.3</ele>
        <time>2026-09-25T07:15:02Z</time>
      </trkpt>
      <trkpt lat="34.586935" lon="112.558601">
        <ele>144.2</ele>
        <time>2026-09-25T07:15:06Z</time>
      </trkpt>
      <trkpt lat="34.586976" lon="112.558505">
        <ele>144.3</ele>
        <time>2026-09-25T07:15:09Z</time>
      </trkpt>
      <trkpt lat="34.586996" lon="112.558406">
        <ele>144.3</ele>
        <time>2026-09-25T07:15:11Z</time>
      </trkpt>
      <trkpt lat="34.58699" lon="112.558238">
        <ele>144.3</ele>
        <time>2026-09-25T07:15:14Z</time>
      </trkpt>
      <trkpt lat="34.586965" lon="112.558116">
        <ele>144.2</ele>
        <time>2026-09-25T07:15:17Z</time>
      </trkpt>
      <trkpt lat="34.586923" lon="112.558029">
        <ele>144.2</ele>
        <time>2026-09-25T07:15:20Z</time>
      </trkpt>
      <trkpt lat="34.586854" lon="112.557945">
        <ele>144.2</ele>
        <time>2026-09-25T07:15:23Z</time>
      </trkpt>
      <trkpt lat="34.586761" lon="112.557866">
        <ele>144.1</ele>
        <time>2026-09-25T07:15:26Z</time>
      </trkpt>
      <trkpt lat="34.586679" lon="112.557821">
        <ele>144</ele>
        <time>2026-09-25T07:15:29Z</time>
      </trkpt>
      <trkpt lat="34.586603" lon="112.557809">
        <ele>144</ele>
        <time>2026-09-25T07:15:32Z</time>
      </trkpt>
      <trkpt lat="34.586493" lon="112.557813">
        <ele>144.2</ele>
        <time>2026-09-25T07:15:35Z</time>
      </trkpt>
      <trkpt lat="34.586377" lon="112.55782">
        <ele>144.1</ele>
        <time>2026-09-25T07:15:38Z</time>
      </trkpt>
      <trkpt lat="34.586276" lon="112.55783">
        <ele>144.2</ele>
        <time>2026-09-25T07:15:41Z</time>
      </trkpt>
      <trkpt lat="34.586201" lon="112.557837">
        <ele>144.2</ele>
        <time>2026-09-25T07:15:44Z</time>
      </trkpt>
      <trkpt lat="34.586092" lon="112.55784">
        <ele>144.2</ele>
        <time>2026-09-25T07:15:47Z</time>
      </trkpt>
      <trkpt lat="34.585961" lon="112.55784">
        <ele>144.1</ele>
        <time>2026-09-25T07:15:50Z</time>
      </trkpt>
      <trkpt lat="34.585888" lon="112.55784">
        <ele>144.1</ele>
        <time>2026-09-25T07:15:53Z</time>
      </trkpt>
      <trkpt lat="34.585791" lon="112.557846">
        <ele>144</ele>
        <time>2026-09-25T07:15:56Z</time>
      </trkpt>
      <trkpt lat="34.585698" lon="112.557874">
        <ele>144</ele>
        <time>2026-09-25T07:15:59Z</time>
      </trkpt>
      <trkpt lat="34.585579" lon="112.557977">
        <ele>144.1</ele>
        <time>2026-09-25T07:16:02Z</time>
      </trkpt>
      <trkpt lat="34.585543" lon="112.558042">
        <ele>144.1</ele>
        <time>2026-09-25T07:16:05Z</time>
      </trkpt>
      <trkpt lat="34.585514" lon="112.558164">
        <ele>144</ele>
        <time>2026-09-25T07:16:08Z</time>
      </trkpt>
      <trkpt lat="34.585509" lon="112.558296">
        <ele>143.9</ele>
        <time>2026-09-25T07:16:11Z</time>
      </trkpt>
      <trkpt lat="34.585547" lon="112.55845">
        <ele>143.9</ele>
        <time>2026-09-25T07:16:14Z</time>
      </trkpt>
      <trkpt lat="34.585568" lon="112.558512">
        <ele>143.9</ele>
        <time>2026-09-25T07:16:17Z</time>
      </trkpt>
      <trkpt lat="34.585671" lon="112.558634">
        <ele>144.1</ele>
        <time>2026-09-25T07:16:20Z</time>
      </trkpt>
      <trkpt lat="34.585796" lon="112.558717">
        <ele>143.9</ele>
        <time>2026-09-25T07:16:23Z</time>
      </trkpt>
      <trkpt lat="34.58586" lon="112.55874">
        <ele>143.8</ele>
        <time>2026-09-25T07:16:26Z</time>
      </trkpt>
      <trkpt lat="34.585984" lon="112.558736">
        <ele>144</ele>
        <time>2026-09-25T07:16:29Z</time>
      </trkpt>
      <trkpt lat="34.58609" lon="112.558729">
        <ele>143.9</ele>
        <time>2026-09-25T07:16:32Z</time>
      </trkpt>
      <trkpt lat="34.586218" lon="112.558752">
        <ele>143.8</ele>
        <time>2026-09-25T07:16:35Z</time>
      </trkpt>
      <trkpt lat="34.586304" lon="112.558747">
        <ele>143.8</ele>
        <time>2026-09-25T07:16:38Z</time>
      </trkpt>
      <trkpt lat="34.586408" lon="112.558757">
        <ele>143.8</ele>
        <time>2026-09-25T07:16:41Z</time>
      </trkpt>
      <trkpt lat="34.586519" lon="112.558756">
        <ele>143.8</ele>
        <time>2026-09-25T07:16:44Z</time>
      </trkpt>
      <trkpt lat="34.586648" lon="112.558745">
        <ele>143.8</ele>
        <time>2026-09-25T07:16:47Z</time>
      </trkpt>
      <trkpt lat="34.586709" lon="112.558735">
        <ele>143.7</ele>
        <time>2026-09-25T07:16:50Z</time>
      </trkpt>
      <trkpt lat="34.586796" lon="112.558708">
        <ele>143.6</ele>
        <time>2026-09-25T07:16:53Z</time>
      </trkpt>
      <trkpt lat="34.586881" lon="112.558655">
        <ele>143.7</ele>
        <time>2026-09-25T07:16:56Z</time>
      </trkpt>
      <trkpt lat="34.586955" lon="112.558533">
        <ele>143.7</ele>
        <time>2026-09-25T07:16:59Z</time>
      </trkpt>
      <trkpt lat="34.586984" lon="112.558455">
        <ele>143.8</ele>
        <time>2026-09-25T07:17:02Z</time>
      </trkpt>
      <trkpt lat="34.586989" lon="112.558332">
        <ele>143.8</ele>
        <time>2026-09-25T07:17:05Z</time>
      </trkpt>
      <trkpt lat="34.586969" lon="112.558202">
        <ele>143.7</ele>
        <time>2026-09-25T07:17:08Z</time>
      </trkpt>
      <trkpt lat="34.58694" lon="112.558111">
        <ele>143.7</ele>
        <time>2026-09-25T07:17:11Z</time>
      </trkpt>
      <trkpt lat="34.586834" lon="112.557941">
        <ele>143.6</ele>
        <time>2026-09-25T07:17:14Z</time>
      </trkpt>
      <trkpt lat="34.586744" lon="112.557859">
        <ele>143.7</ele>
        <time>2026-09-25T07:17:17Z</time>
      </trkpt>
      <trkpt lat="34.586664" lon="112.557818">
        <ele>143.7</ele>
        <time>2026-09-25T07:17:20Z</time>
      </trkpt>
      <trkpt lat="34.586592" lon="112.557806">
        <ele>143.6</ele>
        <time>2026-09-25T07:17:23Z</time>
      </trkpt>
      <trkpt lat="34.586479" lon="112.55781">
        <ele>143.8</ele>
        <time>2026-09-25T07:17:26Z</time>
      </trkpt>
      <trkpt lat="34.586373" lon="112.557819">
        <ele>143.9</ele>
        <time>2026-09-25T07:17:29Z</time>
      </trkpt>
      <trkpt lat="34.586287" lon="112.55783">
        <ele>143.9</ele>
        <time>2026-09-25T07:17:32Z</time>
      </trkpt>
      <trkpt lat="34.586224" lon="112.557835">
        <ele>144</ele>
        <time>2026-09-25T07:17:35Z</time>
      </trkpt>
      <trkpt lat="34.586083" lon="112.55784">
        <ele>143.8</ele>
        <time>2026-09-25T07:17:38Z</time>
      </trkpt>
      <trkpt lat="34.585979" lon="112.557841">
        <ele>143.8</ele>
        <time>2026-09-25T07:17:41Z</time>
      </trkpt>
      <trkpt lat="34.585912" lon="112.55784">
        <ele>143.9</ele>
        <time>2026-09-25T07:17:44Z</time>
      </trkpt>
      <trkpt lat="34.585805" lon="112.557847">
        <ele>143.9</ele>
        <time>2026-09-25T07:17:47Z</time>
      </trkpt>
      <trkpt lat="34.585661" lon="112.557901">
        <ele>143.8</ele>
        <time>2026-09-25T07:17:50Z</time>
      </trkpt>
      <trkpt lat="34.585574" lon="112.557987">
        <ele>143.6</ele>
        <time>2026-09-25T07:17:53Z</time>
      </trkpt>
      <trkpt lat="34.585522" lon="112.55812">
        <ele>143.7</ele>
        <time>2026-09-25T07:17:57Z</time>
      </trkpt>
      <trkpt lat="34.585509" lon="112.558258">
        <ele>143.7</ele>
        <time>2026-09-25T07:18:00Z</time>
      </trkpt>
      <trkpt lat="34.585531" lon="112.558397">
        <ele>143.7</ele>
        <time>2026-09-25T07:18:02Z</time>
      </trkpt>
      <trkpt lat="34.585561" lon="112.558498">
        <ele>143.7</ele>
        <time>2026-09-25T07:18:05Z</time>
      </trkpt>
      <trkpt lat="34.585583" lon="112.558539">
        <ele>143.7</ele>
        <time>2026-09-25T07:18:08Z</time>
      </trkpt>
      <trkpt lat="34.585695" lon="112.558656">
        <ele>143.6</ele>
        <time>2026-09-25T07:18:11Z</time>
      </trkpt>
      <trkpt lat="34.58581" lon="112.558725">
        <ele>143.6</ele>
        <time>2026-09-25T07:18:14Z</time>
      </trkpt>
      <trkpt lat="34.585883" lon="112.558743">
        <ele>143.5</ele>
        <time>2026-09-25T07:18:17Z</time>
      </trkpt>
      <trkpt lat="34.585994" lon="112.558745">
        <ele>143.6</ele>
        <time>2026-09-25T07:18:20Z</time>
      </trkpt>
      <trkpt lat="34.586114" lon="112.558734">
        <ele>143.6</ele>
        <time>2026-09-25T07:18:23Z</time>
      </trkpt>
      <trkpt lat="34.586203" lon="112.558752">
        <ele>143.6</ele>
        <time>2026-09-25T07:18:26Z</time>
      </trkpt>
      <trkpt lat="34.586276" lon="112.558762">
        <ele>143.5</ele>
        <time>2026-09-25T07:18:29Z</time>
      </trkpt>
      <trkpt lat="34.586368" lon="112.558757">
        <ele>143.6</ele>
        <time>2026-09-25T07:18:32Z</time>
      </trkpt>
      <trkpt lat="34.586466" lon="112.558755">
        <ele>143.7</ele>
        <time>2026-09-25T07:18:35Z</time>
      </trkpt>
      <trkpt lat="34.586556" lon="112.558767">
        <ele>143.5</ele>
        <time>2026-09-25T07:18:38Z</time>
      </trkpt>
      <trkpt lat="34.586623" lon="112.558764">
        <ele>143.6</ele>
        <time>2026-09-25T07:18:41Z</time>
      </trkpt>
      <trkpt lat="34.586694" lon="112.558737">
        <ele>143.6</ele>
        <time>2026-09-25T07:18:44Z</time>
      </trkpt>
      <trkpt lat="34.58683" lon="112.55869">
        <ele>143.6</ele>
        <time>2026-09-25T07:18:47Z</time>
      </trkpt>
      <trkpt lat="34.586907" lon="112.558622">
        <ele>143.6</ele>
        <time>2026-09-25T07:18:50Z</time>
      </trkpt>
      <trkpt lat="34.586944" lon="112.558561">
        <ele>143.5</ele>
        <time>2026-09-25T07:18:53Z</time>
      </trkpt>
      <trkpt lat="34.586984" lon="112.558444">
        <ele>143.8</ele>
        <time>2026-09-25T07:18:56Z</time>
      </trkpt>
      <trkpt lat="34.586983" lon="112.558281">
        <ele>143.8</ele>
        <time>2026-09-25T07:18:59Z</time>
      </trkpt>
      <trkpt lat="34.586963" lon="112.558176">
        <ele>143.8</ele>
        <time>2026-09-25T07:19:02Z</time>
      </trkpt>
      <trkpt lat="34.586896" lon="112.55803">
        <ele>143.7</ele>
        <time>2026-09-25T07:19:05Z</time>
      </trkpt>
      <trkpt lat="34.586806" lon="112.557911">
        <ele>143.8</ele>
        <time>2026-09-25T07:19:08Z</time>
      </trkpt>
      <trkpt lat="34.586652" lon="112.557814">
        <ele>143.8</ele>
        <time>2026-09-25T07:19:11Z</time>
      </trkpt>
      <trkpt lat="34.586572" lon="112.557804">
        <ele>143.8</ele>
        <time>2026-09-25T07:19:14Z</time>
      </trkpt>
      <trkpt lat="34.58649" lon="112.557806">
        <ele>143.8</ele>
        <time>2026-09-25T07:19:17Z</time>
      </trkpt>
      <trkpt lat="34.586397" lon="112.557813">
        <ele>143.6</ele>
        <time>2026-09-25T07:19:20Z</time>
      </trkpt>
      <trkpt lat="34.586273" lon="112.557829">
        <ele>143.8</ele>
        <time>2026-09-25T07:19:23Z</time>
      </trkpt>
      <trkpt lat="34.586213" lon="112.557835">
        <ele>143.8</ele>
        <time>2026-09-25T07:19:26Z</time>
      </trkpt>
      <trkpt lat="34.586124" lon="112.55784">
        <ele>143.8</ele>
        <time>2026-09-25T07:19:29Z</time>
      </trkpt>
      <trkpt lat="34.58601" lon="112.557842">
        <ele>143.9</ele>
        <time>2026-09-25T07:19:32Z</time>
      </trkpt>
      <trkpt lat="34.585947" lon="112.55784">
        <ele>143.8</ele>
        <time>2026-09-25T07:19:35Z</time>
      </trkpt>
      <trkpt lat="34.585852" lon="112.557843">
        <ele>143.9</ele>
        <time>2026-09-25T07:19:38Z</time>
      </trkpt>
      <trkpt lat="34.585756" lon="112.557856">
        <ele>143.9</ele>
        <time>2026-09-25T07:19:41Z</time>
      </trkpt>
      <trkpt lat="34.585647" lon="112.557908">
        <ele>143.8</ele>
        <time>2026-09-25T07:19:44Z</time>
      </trkpt>
      <trkpt lat="34.585594" lon="112.557956">
        <ele>143.7</ele>
        <time>2026-09-25T07:19:47Z</time>
      </trkpt>
      <trkpt lat="34.58554" lon="112.558048">
        <ele>143.7</ele>
        <time>2026-09-25T07:19:50Z</time>
      </trkpt>
      <trkpt lat="34.585513" lon="112.558171">
        <ele>143.7</ele>
        <time>2026-09-25T07:19:53Z</time>
      </trkpt>
      <trkpt lat="34.585519" lon="112.558349">
        <ele>143.7</ele>
        <time>2026-09-25T07:19:56Z</time>
      </trkpt>
      <trkpt lat="34.585547" lon="112.558443">
        <ele>143.6</ele>
        <time>2026-09-25T07:19:59Z</time>
      </trkpt>
      <trkpt lat="34.58561" lon="112.558559">
        <ele>143.7</ele>
        <time>2026-09-25T07:20:02Z</time>
      </trkpt>
      <trkpt lat="34.585694" lon="112.558653">
        <ele>143.7</ele>
        <time>2026-09-25T07:20:05Z</time>
      </trkpt>
      <trkpt lat="34.585832" lon="112.558728">
        <ele>143.7</ele>
        <time>2026-09-25T07:20:08Z</time>
      </trkpt>
      <trkpt lat="34.585901" lon="112.558743">
        <ele>143.6</ele>
        <time>2026-09-25T07:20:11Z</time>
      </trkpt>
      <trkpt lat="34.586041" lon="112.558741">
        <ele>143.5</ele>
        <time>2026-09-25T07:20:14Z</time>
      </trkpt>
      <trkpt lat="34.586132" lon="112.558737">
        <ele>143.7</ele>
        <time>2026-09-25T07:20:17Z</time>
      </trkpt>
      <trkpt lat="34.586182" lon="112.558743">
        <ele>143.7</ele>
        <time>2026-09-25T07:20:20Z</time>
      </trkpt>
      <trkpt lat="34.58633" lon="112.558758">
        <ele>143.8</ele>
        <time>2026-09-25T07:20:23Z</time>
      </trkpt>
      <trkpt lat="34.586432" lon="112.558755">
        <ele>143.9</ele>
        <time>2026-09-25T07:20:26Z</time>
      </trkpt>
      <trkpt lat="34.586542" lon="112.558761">
        <ele>143.9</ele>
        <time>2026-09-25T07:20:29Z</time>
      </trkpt>
      <trkpt lat="34.586614" lon="112.55876">
        <ele>143.8</ele>
        <time>2026-09-25T07:20:32Z</time>
      </trkpt>
      <trkpt lat="34.58673" lon="112.558733">
        <ele>143.8</ele>
        <time>2026-09-25T07:20:35Z</time>
      </trkpt>
      <trkpt lat="34.586817" lon="112.558702">
        <ele>143.9</ele>
        <time>2026-09-25T07:20:38Z</time>
      </trkpt>
      <trkpt lat="34.58689" lon="112.558645">
        <ele>143.8</ele>
        <time>2026-09-25T07:20:41Z</time>
      </trkpt>
      <trkpt lat="34.586933" lon="112.55858">
        <ele>143.6</ele>
        <time>2026-09-25T07:20:44Z</time>
      </trkpt>
      <trkpt lat="34.586982" lon="112.55846">
        <ele>143.8</ele>
        <time>2026-09-25T07:20:47Z</time>
      </trkpt>
      <trkpt lat="34.58699" lon="112.558356">
        <ele>143.8</ele>
        <time>2026-09-25T07:20:50Z</time>
      </trkpt>
      <trkpt lat="34.586983" lon="112.558288">
        <ele>144</ele>
        <time>2026-09-25T07:20:53Z</time>
      </trkpt>
      <trkpt lat="34.586939" lon="112.55812">
        <ele>143.9</ele>
        <time>2026-09-25T07:20:57Z</time>
      </trkpt>
      <trkpt lat="34.586857" lon="112.557972">
        <ele>144</ele>
        <time>2026-09-25T07:21:00Z</time>
      </trkpt>
      <trkpt lat="34.586763" lon="112.557874">
        <ele>144</ele>
        <time>2026-09-25T07:21:02Z</time>
      </trkpt>
      <trkpt lat="34.586702" lon="112.557834">
        <ele>144</ele>
        <time>2026-09-25T07:21:05Z</time>
      </trkpt>
      <trkpt lat="34.586597" lon="112.557806">
        <ele>144.2</ele>
        <time>2026-09-25T07:21:08Z</time>
      </trkpt>
      <trkpt lat="34.58647" lon="112.557812">
        <ele>144.1</ele>
        <time>2026-09-25T07:21:11Z</time>
      </trkpt>
      <trkpt lat="34.58636" lon="112.557827">
        <ele>144.1</ele>
        <time>2026-09-25T07:21:14Z</time>
      </trkpt>
      <trkpt lat="34.586285" lon="112.557835">
        <ele>144.2</ele>
        <time>2026-09-25T07:21:17Z</time>
      </trkpt>
      <trkpt lat="34.586189" lon="112.557842">
        <ele>144</ele>
        <time>2026-09-25T07:21:20Z</time>
      </trkpt>
      <trkpt lat="34.586056" lon="112.557844">
        <ele>144.1</ele>
        <time>2026-09-25T07:21:23Z</time>
      </trkpt>
      <trkpt lat="34.585995" lon="112.557844">
        <ele>144.3</ele>
        <time>2026-09-25T07:21:26Z</time>
      </trkpt>
      <trkpt lat="34.585891" lon="112.557843">
        <ele>144.3</ele>
        <time>2026-09-25T07:21:29Z</time>
      </trkpt>
      <trkpt lat="34.585793" lon="112.557848">
        <ele>144.3</ele>
        <time>2026-09-25T07:21:32Z</time>
      </trkpt>
      <trkpt lat="34.585685" lon="112.557881">
        <ele>144.4</ele>
        <time>2026-09-25T07:21:35Z</time>
      </trkpt>
      <trkpt lat="34.585635" lon="112.557916">
        <ele>144.2</ele>
        <time>2026-09-25T07:21:38Z</time>
      </trkpt>
      <trkpt lat="34.585565" lon="112.557999">
        <ele>144.2</ele>
        <time>2026-09-25T07:21:41Z</time>
      </trkpt>
      <trkpt lat="34.585525" lon="112.558096">
        <ele>144.3</ele>
        <time>2026-09-25T07:21:44Z</time>
      </trkpt>
      <trkpt lat="34.585508" lon="112.558275">
        <ele>144.3</ele>
        <time>2026-09-25T07:21:47Z</time>
      </trkpt>
      <trkpt lat="34.58552" lon="112.558359">
        <ele>144.3</ele>
        <time>2026-09-25T07:21:50Z</time>
      </trkpt>
      <trkpt lat="34.585552" lon="112.558464">
        <ele>144.3</ele>
        <time>2026-09-25T07:21:53Z</time>
      </trkpt>
      <trkpt lat="34.585632" lon="112.558593">
        <ele>144.2</ele>
        <time>2026-09-25T07:21:56Z</time>
      </trkpt>
      <trkpt lat="34.585708" lon="112.558663">
        <ele>144.4</ele>
        <time>2026-09-25T07:21:59Z</time>
      </trkpt>
      <trkpt lat="34.585773" lon="112.558703">
        <ele>144.3</ele>
        <time>2026-09-25T07:22:02Z</time>
      </trkpt>
      <trkpt lat="34.585852" lon="112.558728">
        <ele>144.4</ele>
        <time>2026-09-25T07:22:05Z</time>
      </trkpt>
      <trkpt lat="34.585996" lon="112.558727">
        <ele>144.4</ele>
        <time>2026-09-25T07:22:08Z</time>
      </trkpt>
      <trkpt lat="34.586082" lon="112.558723">
        <ele>144.4</ele>
        <time>2026-09-25T07:22:11Z</time>
      </trkpt>
      <trkpt lat="34.586178" lon="112.558727">
        <ele>144.4</ele>
        <time>2026-09-25T07:22:14Z</time>
      </trkpt>
      <trkpt lat="34.586289" lon="112.558747">
        <ele>144.4</ele>
        <time>2026-09-25T07:22:17Z</time>
      </trkpt>
      <trkpt lat="34.586444" lon="112.558747">
        <ele>144.5</ele>
        <time>2026-09-25T07:22:20Z</time>
      </trkpt>
      <trkpt lat="34.58653" lon="112.558755">
        <ele>144.4</ele>
        <time>2026-09-25T07:22:23Z</time>
      </trkpt>
      <trkpt lat="34.586637" lon="112.558746">
        <ele>144.5</ele>
        <time>2026-09-25T07:22:26Z</time>
      </trkpt>
      <trkpt lat="34.586732" lon="112.55873">
        <ele>144.3</ele>
        <time>2026-09-25T07:22:29Z</time>
      </trkpt>
      <trkpt lat="34.58681" lon="112.558705">
        <ele>144.4</ele>
        <time>2026-09-25T07:22:32Z</time>
      </trkpt>
      <trkpt lat="34.586854" lon="112.558676">
        <ele>144.5</ele>
        <time>2026-09-25T07:22:35Z</time>
      </trkpt>
      <trkpt lat="34.586907" lon="112.558627">
        <ele>144.4</ele>
        <time>2026-09-25T07:22:38Z</time>
      </trkpt>
      <trkpt lat="34.586953" lon="112.558546">
        <ele>144.6</ele>
        <time>2026-09-25T07:22:41Z</time>
      </trkpt>
      <trkpt lat="34.586986" lon="112.558449">
        <ele>144.5</ele>
        <time>2026-09-25T07:22:44Z</time>
      </trkpt>
      <trkpt lat="34.58699" lon="112.55835">
        <ele>144.7</ele>
        <time>2026-09-25T07:22:47Z</time>
      </trkpt>
      <trkpt lat="34.586976" lon="112.558241">
        <ele>144.6</ele>
        <time>2026-09-25T07:22:50Z</time>
      </trkpt>
      <trkpt lat="34.586917" lon="112.558066">
        <ele>144.7</ele>
        <time>2026-09-25T07:22:53Z</time>
      </trkpt>
      <trkpt lat="34.586865" lon="112.557981">
        <ele>144.7</ele>
        <time>2026-09-25T07:22:56Z</time>
      </trkpt>
      <trkpt lat="34.586783" lon="112.557888">
        <ele>144.6</ele>
        <time>2026-09-25T07:22:59Z</time>
      </trkpt>
      <trkpt lat="34.58669" lon="112.557828">
        <ele>144.7</ele>
        <time>2026-09-25T07:23:02Z</time>
      </trkpt>
      <trkpt lat="34.586561" lon="112.557804">
        <ele>144.7</ele>
        <time>2026-09-25T07:23:05Z</time>
      </trkpt>
      <trkpt lat="34.586495" lon="112.557807">
        <ele>144.8</ele>
        <time>2026-09-25T07:23:08Z</time>
      </trkpt>
      <trkpt lat="34.586358" lon="112.557822">
        <ele>144.9</ele>
        <time>2026-09-25T07:23:11Z</time>
      </trkpt>
      <trkpt lat="34.586259" lon="112.55783">
        <ele>144.9</ele>
        <time>2026-09-25T07:23:14Z</time>
      </trkpt>
      <trkpt lat="34.586196" lon="112.557837">
        <ele>144.8</ele>
        <time>2026-09-25T07:23:17Z</time>
      </trkpt>
      <trkpt lat="34.586109" lon="112.557839">
        <ele>144.8</ele>
        <time>2026-09-25T07:23:20Z</time>
      </trkpt>
      <trkpt lat="34.585994" lon="112.557841">
        <ele>144.7</ele>
        <time>2026-09-25T07:23:23Z</time>
      </trkpt>
      <trkpt lat="34.585896" lon="112.557839">
        <ele>144.8</ele>
        <time>2026-09-25T07:23:26Z</time>
      </trkpt>
      <trkpt lat="34.585832" lon="112.557842">
        <ele>144.7</ele>
        <time>2026-09-25T07:23:29Z</time>
      </trkpt>
      <trkpt lat="34.585708" lon="112.55787">
        <ele>144.8</ele>
        <time>2026-09-25T07:23:32Z</time>
      </trkpt>
      <trkpt lat="34.585615" lon="112.557933">
        <ele>144.9</ele>
        <time>2026-09-25T07:23:35Z</time>
      </trkpt>
      <trkpt lat="34.585545" lon="112.558034">
        <ele>144.9</ele>
        <time>2026-09-25T07:23:38Z</time>
      </trkpt>
      <trkpt lat="34.585519" lon="112.558125">
        <ele>144.9</ele>
        <time>2026-09-25T07:23:41Z</time>
      </trkpt>
      <trkpt lat="34.585508" lon="112.558286">
        <ele>145</ele>
        <time>2026-09-25T07:23:44Z</time>
      </trkpt>
      <trkpt lat="34.585533" lon="112.558404">
        <ele>145.1</ele>
        <time>2026-09-25T07:23:47Z</time>
      </trkpt>
      <trkpt lat="34.58556" lon="112.558494">
        <ele>145.1</ele>
        <time>2026-09-25T07:23:50Z</time>
      </trkpt>
      <trkpt lat="34.585646" lon="112.558609">
        <ele>145</ele>
        <time>2026-09-25T07:23:54Z</time>
      </trkpt>
      <trkpt lat="34.58573" lon="112.55868">
        <ele>145</ele>
        <time>2026-09-25T07:23:57Z</time>
      </trkpt>
      <trkpt lat="34.58582" lon="112.558726">
        <ele>145</ele>
        <time>2026-09-25T07:23:59Z</time>
      </trkpt>
      <trkpt lat="34.585873" lon="112.558738">
        <ele>145</ele>
        <time>2026-09-25T07:24:02Z</time>
      </trkpt>
      <trkpt lat="34.585972" lon="112.558736">
        <ele>144.9</ele>
        <time>2026-09-25T07:24:05Z</time>
      </trkpt>
      <trkpt lat="34.586097" lon="112.558729">
        <ele>144.8</ele>
        <time>2026-09-25T07:24:08Z</time>
      </trkpt>
      <trkpt lat="34.586178" lon="112.558734">
        <ele>144.9</ele>
        <time>2026-09-25T07:24:11Z</time>
      </trkpt>
      <trkpt lat="34.586243" lon="112.558783">
        <ele>145</ele>
        <time>2026-09-25T07:24:14Z</time>
      </trkpt>
      <trkpt lat="34.586344" lon="112.55876">
        <ele>144.9</ele>
        <time>2026-09-25T07:24:17Z</time>
      </trkpt>
      <trkpt lat="34.586462" lon="112.558752">
        <ele>144.8</ele>
        <time>2026-09-25T07:24:20Z</time>
      </trkpt>
      <trkpt lat="34.586578" lon="112.558765">
        <ele>144.8</ele>
        <time>2026-09-25T07:24:23Z</time>
      </trkpt>
      <trkpt lat="34.586639" lon="112.558753">
        <ele>144.7</ele>
        <time>2026-09-25T07:24:26Z</time>
      </trkpt>
      <trkpt lat="34.58675" lon="112.558725">
        <ele>144.8</ele>
        <time>2026-09-25T07:24:29Z</time>
      </trkpt>
      <trkpt lat="34.58687" lon="112.558662">
        <ele>144.7</ele>
        <time>2026-09-25T07:24:32Z</time>
      </trkpt>
      <trkpt lat="34.586914" lon="112.558613">
        <ele>144.9</ele>
        <time>2026-09-25T07:24:35Z</time>
      </trkpt>
      <trkpt lat="34.586958" lon="112.558528">
        <ele>145</ele>
        <time>2026-09-25T07:24:38Z</time>
      </trkpt>
      <trkpt lat="34.586986" lon="112.558431">
        <ele>144.8</ele>
        <time>2026-09-25T07:24:41Z</time>
      </trkpt>
      <trkpt lat="34.586983" lon="112.558274">
        <ele>144.9</ele>
        <time>2026-09-25T07:24:44Z</time>
      </trkpt>
      <trkpt lat="34.586968" lon="112.558192">
        <ele>145</ele>
        <time>2026-09-25T07:24:47Z</time>
      </trkpt>
      <trkpt lat="34.586938" lon="112.5581">
        <ele>145.1</ele>
        <time>2026-09-25T07:24:50Z</time>
      </trkpt>
      <trkpt lat="34.58682" lon="112.557924">
        <ele>144.8</ele>
        <time>2026-09-25T07:24:53Z</time>
      </trkpt>
      <trkpt lat="34.586722" lon="112.557848">
        <ele>144.8</ele>
        <time>2026-09-25T07:24:56Z</time>
      </trkpt>
      <trkpt lat="34.586658" lon="112.557816">
        <ele>144.9</ele>
        <time>2026-09-25T07:24:59Z</time>
      </trkpt>
      <trkpt lat="34.586547" lon="112.557805">
        <ele>144.9</ele>
        <time>2026-09-25T07:25:02Z</time>
      </trkpt>
      <trkpt lat="34.586412" lon="112.557813">
        <ele>144.9</ele>
        <time>2026-09-25T07:25:05Z</time>
      </trkpt>
      <trkpt lat="34.586343" lon="112.557822">
        <ele>144.9</ele>
        <time>2026-09-25T07:25:08Z</time>
      </trkpt>
      <trkpt lat="34.586245" lon="112.557832">
        <ele>145.1</ele>
        <time>2026-09-25T07:25:11Z</time>
      </trkpt>
      <trkpt lat="34.586135" lon="112.557838">
        <ele>144.9</ele>
        <time>2026-09-25T07:25:14Z</time>
      </trkpt>
      <trkpt lat="34.585998" lon="112.55784">
        <ele>145</ele>
        <time>2026-09-25T07:25:17Z</time>
      </trkpt>
      <trkpt lat="34.58592" lon="112.557838">
        <ele>145</ele>
        <time>2026-09-25T07:25:20Z</time>
      </trkpt>
      <trkpt lat="34.585822" lon="112.557841">
        <ele>145</ele>
        <time>2026-09-25T07:25:23Z</time>
      </trkpt>
      <trkpt lat="34.585726" lon="112.557861">
        <ele>144.8</ele>
        <time>2026-09-25T07:25:26Z</time>
      </trkpt>
      <trkpt lat="34.58561" lon="112.557937">
        <ele>144.7</ele>
        <time>2026-09-25T07:25:29Z</time>
      </trkpt>
      <trkpt lat="34.585561" lon="112.558004">
        <ele>144.7</ele>
        <time>2026-09-25T07:25:32Z</time>
      </trkpt>
      <trkpt lat="34.585522" lon="112.558109">
        <ele>144.7</ele>
        <time>2026-09-25T07:25:35Z</time>
      </trkpt>
      <trkpt lat="34.585509" lon="112.558233">
        <ele>144.9</ele>
        <time>2026-09-25T07:25:38Z</time>
      </trkpt>
      <trkpt lat="34.58554" lon="112.558415">
        <ele>144.7</ele>
        <time>2026-09-25T07:25:41Z</time>
      </trkpt>
      <trkpt lat="34.585562" lon="112.558483">
        <ele>144.8</ele>
        <time>2026-09-25T07:25:44Z</time>
      </trkpt>
      <trkpt lat="34.585643" lon="112.558601">
        <ele>144.7</ele>
        <time>2026-09-25T07:25:47Z</time>
      </trkpt>
      <trkpt lat="34.585724" lon="112.558671">
        <ele>144.8</ele>
        <time>2026-09-25T07:25:50Z</time>
      </trkpt>
      <trkpt lat="34.585805" lon="112.558719">
        <ele>144.8</ele>
        <time>2026-09-25T07:25:53Z</time>
      </trkpt>
      <trkpt lat="34.585909" lon="112.558744">
        <ele>144.6</ele>
        <time>2026-09-25T07:25:56Z</time>
      </trkpt>
      <trkpt lat="34.586029" lon="112.558736">
        <ele>144.6</ele>
        <time>2026-09-25T07:25:59Z</time>
      </trkpt>
      <trkpt lat="34.586123" lon="112.558731">
        <ele>144.5</ele>
        <time>2026-09-25T07:26:02Z</time>
      </trkpt>
      <trkpt lat="34.586167" lon="112.558732">
        <ele>144.5</ele>
        <time>2026-09-25T07:26:05Z</time>
      </trkpt>
      <trkpt lat="34.58628" lon="112.558755">
        <ele>144.3</ele>
        <time>2026-09-25T07:26:08Z</time>
      </trkpt>
      <trkpt lat="34.586359" lon="112.558756">
        <ele>144.3</ele>
        <time>2026-09-25T07:26:11Z</time>
      </trkpt>
      <trkpt lat="34.58644" lon="112.558751">
        <ele>144.5</ele>
        <time>2026-09-25T07:26:14Z</time>
      </trkpt>
      <trkpt lat="34.586486" lon="112.558758">
        <ele>144.5</ele>
        <time>2026-09-25T07:26:17Z</time>
      </trkpt>
      <trkpt lat="34.586597" lon="112.55877">
        <ele>144.4</ele>
        <time>2026-09-25T07:26:20Z</time>
      </trkpt>
      <trkpt lat="34.586658" lon="112.558741">
        <ele>144.3</ele>
        <time>2026-09-25T07:26:23Z</time>
      </trkpt>
      <trkpt lat="34.586721" lon="112.558733">
        <ele>144.3</ele>
        <time>2026-09-25T07:26:26Z</time>
      </trkpt>
      <trkpt lat="34.586802" lon="112.558708">
        <ele>144.2</ele>
        <time>2026-09-25T07:26:29Z</time>
      </trkpt>
      <trkpt lat="34.5869" lon="112.558633">
        <ele>144.2</ele>
        <time>2026-09-25T07:26:32Z</time>
      </trkpt>
      <trkpt lat="34.586953" lon="112.55854">
        <ele>144.3</ele>
        <time>2026-09-25T07:26:35Z</time>
      </trkpt>
      <trkpt lat="34.586978" lon="112.558468">
        <ele>144.4</ele>
        <time>2026-09-25T07:26:38Z</time>
      </trkpt>
      <trkpt lat="34.58699" lon="112.558377">
        <ele>144.2</ele>
        <time>2026-09-25T07:26:41Z</time>
      </trkpt>
      <trkpt lat="34.586981" lon="112.558265">
        <ele>144.2</ele>
        <time>2026-09-25T07:26:45Z</time>
      </trkpt>
      <trkpt lat="34.586952" lon="112.55816">
        <ele>144.3</ele>
        <time>2026-09-25T07:26:48Z</time>
      </trkpt>
      <trkpt lat="34.586919" lon="112.558079">
        <ele>144.3</ele>
        <time>2026-09-25T07:26:50Z</time>
      </trkpt>
      <trkpt lat="34.586852" lon="112.557965">
        <ele>144.2</ele>
        <time>2026-09-25T07:26:53Z</time>
      </trkpt>
      <trkpt lat="34.586738" lon="112.557859">
        <ele>144.3</ele>
        <time>2026-09-25T07:26:56Z</time>
      </trkpt>
      <trkpt lat="34.586675" lon="112.557824">
        <ele>144.2</ele>
        <time>2026-09-25T07:26:59Z</time>
      </trkpt>
      <trkpt lat="34.586574" lon="112.557806">
        <ele>144.1</ele>
        <time>2026-09-25T07:27:02Z</time>
      </trkpt>
      <trkpt lat="34.586432" lon="112.557811">
        <ele>144</ele>
        <time>2026-09-25T07:27:05Z</time>
      </trkpt>
      <trkpt lat="34.586347" lon="112.557825">
        <ele>144.1</ele>
        <time>2026-09-25T07:27:08Z</time>
      </trkpt>
      <trkpt lat="34.586268" lon="112.55783">
        <ele>144.1</ele>
        <time>2026-09-25T07:27:11Z</time>
      </trkpt>
      <trkpt lat="34.586176" lon="112.557839">
        <ele>144.1</ele>
        <time>2026-09-25T07:27:14Z</time>
      </trkpt>
      <trkpt lat="34.586068" lon="112.557841">
        <ele>144.1</ele>
        <time>2026-09-25T07:27:17Z</time>
      </trkpt>
      <trkpt lat="34.585983" lon="112.557841">
        <ele>144.1</ele>
        <time>2026-09-25T07:27:20Z</time>
      </trkpt>
      <trkpt lat="34.585918" lon="112.557839">
        <ele>144.2</ele>
        <time>2026-09-25T07:27:23Z</time>
      </trkpt>
      <trkpt lat="34.585821" lon="112.557844">
        <ele>144.2</ele>
        <time>2026-09-25T07:27:26Z</time>
      </trkpt>
      <trkpt lat="34.585691" lon="112.557879">
        <ele>144</ele>
        <time>2026-09-25T07:27:29Z</time>
      </trkpt>
      <trkpt lat="34.585607" lon="112.557943">
        <ele>144</ele>
        <time>2026-09-25T07:27:32Z</time>
      </trkpt>
      <trkpt lat="34.585566" lon="112.557994">
        <ele>143.9</ele>
        <time>2026-09-25T07:27:35Z</time>
      </trkpt>
      <trkpt lat="34.585527" lon="112.558085">
        <ele>143.8</ele>
        <time>2026-09-25T07:27:38Z</time>
      </trkpt>
      <trkpt lat="34.585506" lon="112.558251">
        <ele>143.8</ele>
        <time>2026-09-25T07:27:41Z</time>
      </trkpt>
      <trkpt lat="34.585515" lon="112.55834">
        <ele>143.7</ele>
        <time>2026-09-25T07:27:44Z</time>
      </trkpt>
      <trkpt lat="34.585553" lon="112.55847">
        <ele>143.8</ele>
        <time>2026-09-25T07:27:47Z</time>
      </trkpt>
      <trkpt lat="34.585636" lon="112.558602">
        <ele>143.8</ele>
        <time>2026-09-25T07:27:50Z</time>
      </trkpt>
      <trkpt lat="34.585745" lon="112.558698">
        <ele>143.5</ele>
        <time>2026-09-25T07:27:53Z</time>
      </trkpt>
      <trkpt lat="34.585815" lon="112.558731">
        <ele>143.3</ele>
        <time>2026-09-25T07:27:56Z</time>
      </trkpt>
      <trkpt lat="34.585902" lon="112.558752">
        <ele>143.3</ele>
        <time>2026-09-25T07:27:59Z</time>
      </trkpt>
      <trkpt lat="34.58597" lon="112.55875">
        <ele>143.3</ele>
        <time>2026-09-25T07:28:02Z</time>
      </trkpt>
      <trkpt lat="34.586093" lon="112.558737">
        <ele>143.4</ele>
        <time>2026-09-25T07:28:05Z</time>
      </trkpt>
      <trkpt lat="34.586143" lon="112.558735">
        <ele>143.3</ele>
        <time>2026-09-25T07:28:08Z</time>
      </trkpt>
      <trkpt lat="34.586221" lon="112.558766">
        <ele>143.4</ele>
        <time>2026-09-25T07:28:11Z</time>
      </trkpt>
      <trkpt lat="34.586339" lon="112.558762">
        <ele>143.4</ele>
        <time>2026-09-25T07:28:14Z</time>
      </trkpt>
      <trkpt lat="34.586426" lon="112.558761">
        <ele>143.5</ele>
        <time>2026-09-25T07:28:17Z</time>
      </trkpt>
      <trkpt lat="34.586493" lon="112.55876">
        <ele>143.3</ele>
        <time>2026-09-25T07:28:20Z</time>
      </trkpt>
      <trkpt lat="34.586575" lon="112.558772">
        <ele>143.1</ele>
        <time>2026-09-25T07:28:23Z</time>
      </trkpt>
      <trkpt lat="34.586643" lon="112.558763">
        <ele>143</ele>
        <time>2026-09-25T07:28:26Z</time>
      </trkpt>
      <trkpt lat="34.586704" lon="112.558738">
        <ele>143</ele>
        <time>2026-09-25T07:28:29Z</time>
      </trkpt>
      <trkpt lat="34.586783" lon="112.558718">
        <ele>143.1</ele>
        <time>2026-09-25T07:28:32Z</time>
      </trkpt>
      <trkpt lat="34.586866" lon="112.558665">
        <ele>143.1</ele>
        <time>2026-09-25T07:28:35Z</time>
      </trkpt>
      <trkpt lat="34.586947" lon="112.558556">
        <ele>143</ele>
        <time>2026-09-25T07:28:38Z</time>
      </trkpt>
      <trkpt lat="34.586978" lon="112.558474">
        <ele>143</ele>
        <time>2026-09-25T07:28:41Z</time>
      </trkpt>
      <trkpt lat="34.586989" lon="112.558326">
        <ele>143</ele>
        <time>2026-09-25T07:28:44Z</time>
      </trkpt>
      <trkpt lat="34.586971" lon="112.558216">
        <ele>143</ele>
        <time>2026-09-25T07:28:47Z</time>
      </trkpt>
      <trkpt lat="34.58695" lon="112.558145">
        <ele>143.1</ele>
        <time>2026-09-25T07:28:50Z</time>
      </trkpt>
      <trkpt lat="34.586885" lon="112.558014">
        <ele>143</ele>
        <time>2026-09-25T07:28:53Z</time>
      </trkpt>
      <trkpt lat="34.586772" lon="112.557886">
        <ele>143</ele>
        <time>2026-09-25T07:28:56Z</time>
      </trkpt>
      <trkpt lat="34.586667" lon="112.557822">
        <ele>143</ele>
        <time>2026-09-25T07:28:59Z</time>
      </trkpt>
      <trkpt lat="34.586577" lon="112.557808">
        <ele>143</ele>
        <time>2026-09-25T07:29:02Z</time>
      </trkpt>
      <trkpt lat="34.586466" lon="112.557811">
        <ele>143.1</ele>
        <time>2026-09-25T07:29:05Z</time>
      </trkpt>
      <trkpt lat="34.586328" lon="112.557825">
        <ele>142.9</ele>
        <time>2026-09-25T07:29:08Z</time>
      </trkpt>
      <trkpt lat="34.586233" lon="112.557835">
        <ele>142.9</ele>
        <time>2026-09-25T07:29:11Z</time>
      </trkpt>
      <trkpt lat="34.586155" lon="112.557841">
        <ele>142.8</ele>
        <time>2026-09-25T07:29:14Z</time>
      </trkpt>
      <trkpt lat="34.586037" lon="112.557843">
        <ele>142.9</ele>
        <time>2026-09-25T07:29:17Z</time>
      </trkpt>
      <trkpt lat="34.585939" lon="112.557841">
        <ele>143</ele>
        <time>2026-09-25T07:29:20Z</time>
      </trkpt>
      <trkpt lat="34.585858" lon="112.557841">
        <ele>142.8</ele>
        <time>2026-09-25T07:29:23Z</time>
      </trkpt>
      <trkpt lat="34.585767" lon="112.557852">
        <ele>143</ele>
        <time>2026-09-25T07:29:27Z</time>
      </trkpt>
      <trkpt lat="34.585695" lon="112.557876">
        <ele>142.9</ele>
        <time>2026-09-25T07:29:30Z</time>
      </trkpt>
      <trkpt lat="34.58562" lon="112.557926">
        <ele>142.9</ele>
        <time>2026-09-25T07:29:32Z</time>
      </trkpt>
      <trkpt lat="34.585583" lon="112.55797">
        <ele>142.9</ele>
        <time>2026-09-25T07:29:35Z</time>
      </trkpt>
      <trkpt lat="34.585538" lon="112.558054">
        <ele>142.8</ele>
        <time>2026-09-25T07:29:38Z</time>
      </trkpt>
      <trkpt lat="34.585508" lon="112.558205">
        <ele>142.7</ele>
        <time>2026-09-25T07:29:41Z</time>
      </trkpt>
      <trkpt lat="34.585511" lon="112.558318">
        <ele>142.7</ele>
        <time>2026-09-25T07:29:44Z</time>
      </trkpt>
      <trkpt lat="34.58553" lon="112.558388">
        <ele>142.7</ele>
        <time>2026-09-25T07:29:47Z</time>
      </trkpt>
      <trkpt lat="34.585576" lon="112.558504">
        <ele>142.6</ele>
        <time>2026-09-25T07:29:50Z</time>
      </trkpt>
      <trkpt lat="34.585663" lon="112.558623">
        <ele>142.5</ele>
        <time>2026-09-25T07:29:53Z</time>
      </trkpt>
      <trkpt lat="34.585756" lon="112.558688">
        <ele>142.6</ele>
        <time>2026-09-25T07:29:56Z</time>
      </trkpt>
      <trkpt lat="34.58581" lon="112.55871">
        <ele>142.6</ele>
        <time>2026-09-25T07:29:59Z</time>
      </trkpt>
      <trkpt lat="34.585906" lon="112.558731">
        <ele>142.6</ele>
        <time>2026-09-25T07:30:02Z</time>
      </trkpt>
      <trkpt lat="34.586042" lon="112.558731">
        <ele>142.6</ele>
        <time>2026-09-25T07:30:05Z</time>
      </trkpt>
      <trkpt lat="34.586115" lon="112.558728">
        <ele>142.6</ele>
        <time>2026-09-25T07:30:08Z</time>
      </trkpt>
      <trkpt lat="34.586193" lon="112.55874">
        <ele>142.5</ele>
        <time>2026-09-25T07:30:11Z</time>
      </trkpt>
      <trkpt lat="34.586281" lon="112.558762">
        <ele>142.5</ele>
        <time>2026-09-25T07:30:14Z</time>
      </trkpt>
      <trkpt lat="34.586392" lon="112.558765">
        <ele>142.5</ele>
        <time>2026-09-25T07:30:17Z</time>
      </trkpt>
      <trkpt lat="34.58644" lon="112.55876">
        <ele>142.4</ele>
        <time>2026-09-25T07:30:20Z</time>
      </trkpt>
      <trkpt lat="34.586541" lon="112.558769">
        <ele>142.5</ele>
        <time>2026-09-25T07:30:23Z</time>
      </trkpt>
      <trkpt lat="34.58663" lon="112.558757">
        <ele>142.5</ele>
        <time>2026-09-25T07:30:26Z</time>
      </trkpt>
      <trkpt lat="34.586739" lon="112.558732">
        <ele>142.5</ele>
        <time>2026-09-25T07:30:29Z</time>
      </trkpt>
      <trkpt lat="34.586789" lon="112.558713">
        <ele>142.4</ele>
        <time>2026-09-25T07:30:32Z</time>
      </trkpt>
      <trkpt lat="34.586873" lon="112.558659">
        <ele>142.5</ele>
        <time>2026-09-25T07:30:35Z</time>
      </trkpt>
      <trkpt lat="34.586929" lon="112.558586">
        <ele>142.4</ele>
        <time>2026-09-25T07:30:38Z</time>
      </trkpt>
      <trkpt lat="34.586976" lon="112.558481">
        <ele>142.5</ele>
        <time>2026-09-25T07:30:41Z</time>
      </trkpt>
      <trkpt lat="34.586991" lon="112.558369">
        <ele>142.7</ele>
        <time>2026-09-25T07:30:44Z</time>
      </trkpt>
      <trkpt lat="34.586982" lon="112.558257">
        <ele>142.8</ele>
        <time>2026-09-25T07:30:47Z</time>
      </trkpt>
      <trkpt lat="34.586943" lon="112.558128">
        <ele>142.7</ele>
        <time>2026-09-25T07:30:50Z</time>
      </trkpt>
      <trkpt lat="34.586903" lon="112.558046">
        <ele>142.6</ele>
        <time>2026-09-25T07:30:53Z</time>
      </trkpt>
      <trkpt lat="34.586823" lon="112.557936">
        <ele>142.5</ele>
        <time>2026-09-25T07:30:56Z</time>
      </trkpt>
      <trkpt lat="34.586736" lon="112.557863">
        <ele>142.6</ele>
        <time>2026-09-25T07:30:59Z</time>
      </trkpt>
      <trkpt lat="34.586599" lon="112.557813">
        <ele>142.6</ele>
        <time>2026-09-25T07:31:02Z</time>
      </trkpt>
      <trkpt lat="34.586507" lon="112.557811">
        <ele>142.8</ele>
        <time>2026-09-25T07:31:05Z</time>
      </trkpt>
      <trkpt lat="34.586411" lon="112.557819">
        <ele>142.8</ele>
        <time>2026-09-25T07:31:08Z</time>
      </trkpt>
      <trkpt lat="34.586307" lon="112.557833">
        <ele>142.8</ele>
        <time>2026-09-25T07:31:11Z</time>
      </trkpt>
      <trkpt lat="34.586183" lon="112.55784">
        <ele>142.7</ele>
        <time>2026-09-25T07:31:14Z</time>
      </trkpt>
      <trkpt lat="34.586134" lon="112.557843">
        <ele>142.6</ele>
        <time>2026-09-25T07:31:17Z</time>
      </trkpt>
      <trkpt lat="34.586022" lon="112.557844">
        <ele>142.5</ele>
        <time>2026-09-25T07:31:20Z</time>
      </trkpt>
      <trkpt lat="34.585944" lon="112.557841">
        <ele>142.5</ele>
        <time>2026-09-25T07:31:23Z</time>
      </trkpt>
      <trkpt lat="34.585902" lon="112.55784">
        <ele>142.6</ele>
        <time>2026-09-25T07:31:26Z</time>
      </trkpt>
      <trkpt lat="34.585809" lon="112.557843">
        <ele>142.6</ele>
        <time>2026-09-25T07:31:29Z</time>
      </trkpt>
      <trkpt lat="34.585737" lon="112.55786">
        <ele>142.6</ele>
        <time>2026-09-25T07:31:32Z</time>
      </trkpt>
      <trkpt lat="34.585661" lon="112.557897">
        <ele>142.8</ele>
        <time>2026-09-25T07:31:35Z</time>
      </trkpt>
      <trkpt lat="34.585625" lon="112.557923">
        <ele>142.8</ele>
        <time>2026-09-25T07:31:38Z</time>
      </trkpt>
      <trkpt lat="34.58555" lon="112.558024">
        <ele>142.7</ele>
        <time>2026-09-25T07:31:41Z</time>
      </trkpt>
      <trkpt lat="34.585519" lon="112.558136">
        <ele>142.6</ele>
        <time>2026-09-25T07:31:44Z</time>
      </trkpt>
      <trkpt lat="34.585509" lon="112.55825">
        <ele>142.7</ele>
        <time>2026-09-25T07:31:47Z</time>
      </trkpt>
      <trkpt lat="34.585519" lon="112.558344">
        <ele>142.7</ele>
        <time>2026-09-25T07:31:50Z</time>
      </trkpt>
      <trkpt lat="34.58556" lon="112.558478">
        <ele>142.7</ele>
        <time>2026-09-25T07:31:53Z</time>
      </trkpt>
      <trkpt lat="34.585622" lon="112.558579">
        <ele>142.7</ele>
        <time>2026-09-25T07:31:56Z</time>
      </trkpt>
      <trkpt lat="34.585689" lon="112.558649">
        <ele>142.7</ele>
        <time>2026-09-25T07:32:00Z</time>
      </trkpt>
      <trkpt lat="34.585778" lon="112.558706">
        <ele>142.7</ele>
        <time>2026-09-25T07:32:03Z</time>
      </trkpt>
      <trkpt lat="34.585875" lon="112.55874">
        <ele>142.7</ele>
        <time>2026-09-25T07:32:05Z</time>
      </trkpt>
      <trkpt lat="34.585965" lon="112.558745">
        <ele>142.6</ele>
        <time>2026-09-25T07:32:08Z</time>
      </trkpt>
      <trkpt lat="34.586063" lon="112.558735">
        <ele>142.6</ele>
        <time>2026-09-25T07:32:12Z</time>
      </trkpt>
      <trkpt lat="34.586156" lon="112.558732">
        <ele>142.6</ele>
        <time>2026-09-25T07:32:15Z</time>
      </trkpt>
      <trkpt lat="34.586271" lon="112.558766">
        <ele>142.6</ele>
        <time>2026-09-25T07:32:17Z</time>
      </trkpt>
      <trkpt lat="34.586378" lon="112.558757">
        <ele>142.8</ele>
        <time>2026-09-25T07:32:20Z</time>
      </trkpt>
      <trkpt lat="34.586444" lon="112.558752">
        <ele>142.9</ele>
        <time>2026-09-25T07:32:23Z</time>
      </trkpt>
      <trkpt lat="34.586541" lon="112.558755">
        <ele>142.9</ele>
        <time>2026-09-25T07:32:26Z</time>
      </trkpt>
      <trkpt lat="34.586657" lon="112.558738">
        <ele>143</ele>
        <time>2026-09-25T07:32:29Z</time>
      </trkpt>
      <trkpt lat="34.586699" lon="112.558734">
        <ele>143.1</ele>
        <time>2026-09-25T07:32:32Z</time>
      </trkpt>
      <trkpt lat="34.586764" lon="112.55872">
        <ele>142.9</ele>
        <time>2026-09-25T07:32:35Z</time>
      </trkpt>
      <trkpt lat="34.586825" lon="112.558695">
        <ele>142.8</ele>
        <time>2026-09-25T07:32:38Z</time>
      </trkpt>
      <trkpt lat="34.586894" lon="112.55864">
        <ele>142.8</ele>
        <time>2026-09-25T07:32:41Z</time>
      </trkpt>
      <trkpt lat="34.586937" lon="112.558577">
        <ele>143</ele>
        <time>2026-09-25T07:32:44Z</time>
      </trkpt>
      <trkpt lat="34.58697" lon="112.558496">
        <ele>142.9</ele>
        <time>2026-09-25T07:32:47Z</time>
      </trkpt>
      <trkpt lat="34.586989" lon="112.558347">
        <ele>143</ele>
        <time>2026-09-25T07:32:50Z</time>
      </trkpt>
      <trkpt lat="34.586974" lon="112.558223">
        <ele>143</ele>
        <time>2026-09-25T07:32:53Z</time>
      </trkpt>
      <trkpt lat="34.586952" lon="112.558141">
        <ele>143</ele>
        <time>2026-09-25T07:32:56Z</time>
      </trkpt>
      <trkpt lat="34.586895" lon="112.558018">
        <ele>143.1</ele>
        <time>2026-09-25T07:32:59Z</time>
      </trkpt>
      <trkpt lat="34.586794" lon="112.557893">
        <ele>143</ele>
        <time>2026-09-25T07:33:02Z</time>
      </trkpt>
      <trkpt lat="34.5867" lon="112.55783">
        <ele>142.9</ele>
        <time>2026-09-25T07:33:05Z</time>
      </trkpt>
      <trkpt lat="34.586644" lon="112.557811">
        <ele>142.9</ele>
        <time>2026-09-25T07:33:08Z</time>
      </trkpt>
      <trkpt lat="34.586555" lon="112.557803">
        <ele>142.9</ele>
        <time>2026-09-25T07:33:11Z</time>
      </trkpt>
      <trkpt lat="34.586446" lon="112.55781">
        <ele>142.9</ele>
        <time>2026-09-25T07:33:14Z</time>
      </trkpt>
      <trkpt lat="34.586384" lon="112.557815">
        <ele>142.9</ele>
        <time>2026-09-25T07:33:17Z</time>
      </trkpt>
      <trkpt lat="34.586303" lon="112.557827">
        <ele>143.1</ele>
        <time>2026-09-25T07:33:20Z</time>
      </trkpt>
      <trkpt lat="34.586218" lon="112.557833">
        <ele>143</ele>
        <time>2026-09-25T07:33:23Z</time>
      </trkpt>
      <trkpt lat="34.586096" lon="112.557838">
        <ele>143</ele>
        <time>2026-09-25T07:33:26Z</time>
      </trkpt>
      <trkpt lat="34.586036" lon="112.55784">
        <ele>143</ele>
        <time>2026-09-25T07:33:29Z</time>
      </trkpt>
      <trkpt lat="34.585944" lon="112.557836">
        <ele>143.1</ele>
        <time>2026-09-25T07:33:32Z</time>
      </trkpt>
      <trkpt lat="34.585857" lon="112.557836">
        <ele>143.3</ele>
        <time>2026-09-25T07:33:35Z</time>
      </trkpt>
      <trkpt lat="34.585717" lon="112.557863">
        <ele>143.3</ele>
        <time>2026-09-25T07:33:38Z</time>
      </trkpt>
      <trkpt lat="34.58566" lon="112.557894">
        <ele>143.3</ele>
        <time>2026-09-25T07:33:41Z</time>
      </trkpt>
      <trkpt lat="34.585588" lon="112.557964">
        <ele>143.2</ele>
        <time>2026-09-25T07:33:44Z</time>
      </trkpt>
      <trkpt lat="34.585535" lon="112.558059">
        <ele>143.3</ele>
        <time>2026-09-25T07:33:47Z</time>
      </trkpt>
      <trkpt lat="34.585511" lon="112.558183">
        <ele>143.3</ele>
        <time>2026-09-25T07:33:50Z</time>
      </trkpt>
      <trkpt lat="34.585513" lon="112.558313">
        <ele>143.3</ele>
        <time>2026-09-25T07:33:53Z</time>
      </trkpt>
      <trkpt lat="34.585546" lon="112.558429">
        <ele>143.2</ele>
        <time>2026-09-25T07:33:56Z</time>
      </trkpt>
      <trkpt lat="34.585597" lon="112.55854">
        <ele>143.3</ele>
        <time>2026-09-25T07:33:59Z</time>
      </trkpt>
      <trkpt lat="34.585674" lon="112.558633">
        <ele>143.3</ele>
        <time>2026-09-25T07:34:02Z</time>
      </trkpt>
      <trkpt lat="34.585765" lon="112.558694">
        <ele>143.4</ele>
        <time>2026-09-25T07:34:05Z</time>
      </trkpt>
      <trkpt lat="34.585909" lon="112.558735">
        <ele>143.4</ele>
        <time>2026-09-25T07:34:08Z</time>
      </trkpt>
      <trkpt lat="34.586027" lon="112.558729">
        <ele>143.4</ele>
        <time>2026-09-25T07:34:11Z</time>
      </trkpt>
      <trkpt lat="34.586082" lon="112.558726">
        <ele>143.5</ele>
        <time>2026-09-25T07:34:14Z</time>
      </trkpt>
      <trkpt lat="34.586206" lon="112.558744">
        <ele>143.4</ele>
        <time>2026-09-25T07:34:17Z</time>
      </trkpt>
      <trkpt lat="34.586302" lon="112.558751">
        <ele>143.5</ele>
        <time>2026-09-25T07:34:20Z</time>
      </trkpt>
      <trkpt lat="34.586355" lon="112.558763">
        <ele>143.6</ele>
        <time>2026-09-25T07:34:23Z</time>
      </trkpt>
      <trkpt lat="34.586429" lon="112.558758">
        <ele>143.6</ele>
        <time>2026-09-25T07:34:26Z</time>
      </trkpt>
      <trkpt lat="34.586545" lon="112.558767">
        <ele>143.5</ele>
        <time>2026-09-25T07:34:29Z</time>
      </trkpt>
      <trkpt lat="34.58663" lon="112.558756">
        <ele>143.5</ele>
        <time>2026-09-25T07:34:32Z</time>
      </trkpt>
      <trkpt lat="34.58666" lon="112.558745">
        <ele>143.6</ele>
        <time>2026-09-25T07:34:35Z</time>
      </trkpt>
      <trkpt lat="34.586745" lon="112.558729">
        <ele>143.6</ele>
        <time>2026-09-25T07:34:38Z</time>
      </trkpt>
      <trkpt lat="34.586834" lon="112.558688">
        <ele>143.9</ele>
        <time>2026-09-25T07:34:41Z</time>
      </trkpt>
      <trkpt lat="34.586897" lon="112.558634">
        <ele>143.8</ele>
        <time>2026-09-25T07:34:44Z</time>
      </trkpt>
      <trkpt lat="34.586937" lon="112.558572">
        <ele>143.6</ele>
        <time>2026-09-25T07:34:47Z</time>
      </trkpt>
      <trkpt lat="34.58697" lon="112.558487">
        <ele>143.6</ele>
        <time>2026-09-25T07:34:50Z</time>
      </trkpt>
      <trkpt lat="34.586987" lon="112.558337">
        <ele>143.7</ele>
        <time>2026-09-25T07:34:54Z</time>
      </trkpt>
      <trkpt lat="34.58697" lon="112.55821">
        <ele>143.8</ele>
        <time>2026-09-25T07:34:57Z</time>
      </trkpt>
      <trkpt lat="34.586951" lon="112.558152">
        <ele>143.8</ele>
        <time>2026-09-25T07:34:59Z</time>
      </trkpt>
      <trkpt lat="34.586875" lon="112.557997">
        <ele>143.8</ele>
        <time>2026-09-25T07:35:02Z</time>
      </trkpt>
      <trkpt lat="34.586791" lon="112.5579">
        <ele>143.9</ele>
        <time>2026-09-25T07:35:05Z</time>
      </trkpt>
      <trkpt lat="34.586731" lon="112.557853">
        <ele>143.8</ele>
        <time>2026-09-25T07:35:08Z</time>
      </trkpt>
      <trkpt lat="34.586651" lon="112.557817">
        <ele>143.7</ele>
        <time>2026-09-25T07:35:11Z</time>
      </trkpt>
      <trkpt lat="34.586532" lon="112.557805">
        <ele>143.8</ele>
        <time>2026-09-25T07:35:14Z</time>
      </trkpt>
      <trkpt lat="34.58645" lon="112.557811">
        <ele>143.8</ele>
        <time>2026-09-25T07:35:17Z</time>
      </trkpt>
      <trkpt lat="34.586394" lon="112.557815">
        <ele>143.8</ele>
        <time>2026-09-25T07:35:20Z</time>
      </trkpt>
      <trkpt lat="34.586322" lon="112.557825">
        <ele>143.8</ele>
        <time>2026-09-25T07:35:23Z</time>
      </trkpt>
      <trkpt lat="34.586207" lon="112.557835">
        <ele>143.9</ele>
        <time>2026-09-25T07:35:26Z</time>
      </trkpt>
      <trkpt lat="34.586116" lon="112.557839">
        <ele>144</ele>
        <time>2026-09-25T07:35:29Z</time>
      </trkpt>
      <trkpt lat="34.586058" lon="112.55784">
        <ele>144.1</ele>
        <time>2026-09-25T07:35:32Z</time>
      </trkpt>
      <trkpt lat="34.585968" lon="112.55784">
        <ele>144.1</ele>
        <time>2026-09-25T07:35:35Z</time>
      </trkpt>
      <trkpt lat="34.585837" lon="112.557841">
        <ele>144</ele>
        <time>2026-09-25T07:35:38Z</time>
      </trkpt>
      <trkpt lat="34.585773" lon="112.55785">
        <ele>144.1</ele>
        <time>2026-09-25T07:35:41Z</time>
      </trkpt>
      <trkpt lat="34.585679" lon="112.557884">
        <ele>144</ele>
        <time>2026-09-25T07:35:44Z</time>
      </trkpt>
      <trkpt lat="34.585599" lon="112.557951">
        <ele>144.1</ele>
        <time>2026-09-25T07:35:47Z</time>
      </trkpt>
      <trkpt lat="34.585531" lon="112.558076">
        <ele>144.3</ele>
        <time>2026-09-25T07:35:50Z</time>
      </trkpt>
      <trkpt lat="34.585516" lon="112.558153">
        <ele>144.2</ele>
        <time>2026-09-25T07:35:56Z</time>
      </trkpt>
      <trkpt lat="34.585509" lon="112.558226">
        <ele>144.2</ele>
        <time>2026-09-25T07:35:59Z</time>
      </trkpt>
      <trkpt lat="34.585526" lon="112.558363">
        <ele>144.1</ele>
        <time>2026-09-25T07:36:02Z</time>
      </trkpt>
      <trkpt lat="34.585548" lon="112.558436">
        <ele>144.2</ele>
        <time>2026-09-25T07:36:05Z</time>
      </trkpt>
      <trkpt lat="34.585606" lon="112.558555">
        <ele>144.3</ele>
        <time>2026-09-25T07:36:08Z</time>
      </trkpt>
      <trkpt lat="34.585684" lon="112.558643">
        <ele>144.5</ele>
        <time>2026-09-25T07:36:11Z</time>
      </trkpt>
      <trkpt lat="34.585809" lon="112.558721">
        <ele>144.4</ele>
        <time>2026-09-25T07:36:14Z</time>
      </trkpt>
      <trkpt lat="34.58587" lon="112.55874">
        <ele>144.4</ele>
        <time>2026-09-25T07:36:17Z</time>
      </trkpt>
      <trkpt lat="34.585988" lon="112.558742">
        <ele>144.4</ele>
        <time>2026-09-25T07:36:20Z</time>
      </trkpt>
      <trkpt lat="34.586102" lon="112.558733">
        <ele>144.3</ele>
        <time>2026-09-25T07:36:23Z</time>
      </trkpt>
      <trkpt lat="34.586196" lon="112.558748">
        <ele>144.2</ele>
        <time>2026-09-25T07:36:26Z</time>
      </trkpt>
      <trkpt lat="34.586295" lon="112.558754">
        <ele>144.3</ele>
        <time>2026-09-25T07:36:29Z</time>
      </trkpt>
      <trkpt lat="34.586396" lon="112.558757">
        <ele>144.3</ele>
        <time>2026-09-25T07:36:32Z</time>
      </trkpt>
      <trkpt lat="34.586474" lon="112.558758">
        <ele>144.4</ele>
        <time>2026-09-25T07:36:35Z</time>
      </trkpt>
      <trkpt lat="34.58656" lon="112.558766">
        <ele>144.4</ele>
        <time>2026-09-25T07:36:38Z</time>
      </trkpt>
      <trkpt lat="34.586645" lon="112.558746">
        <ele>144.7</ele>
        <time>2026-09-25T07:36:41Z</time>
      </trkpt>
      <trkpt lat="34.586717" lon="112.558734">
        <ele>144.7</ele>
        <time>2026-09-25T07:36:44Z</time>
      </trkpt>
      <trkpt lat="34.586791" lon="112.55871">
        <ele>144.5</ele>
        <time>2026-09-25T07:36:47Z</time>
      </trkpt>
      <trkpt lat="34.586838" lon="112.558684">
        <ele>144.3</ele>
        <time>2026-09-25T07:36:50Z</time>
      </trkpt>
      <trkpt lat="34.586922" lon="112.558596">
        <ele>144.3</ele>
        <time>2026-09-25T07:36:53Z</time>
      </trkpt>
      <trkpt lat="34.586963" lon="112.55851">
        <ele>144.5</ele>
        <time>2026-09-25T07:36:56Z</time>
      </trkpt>
      <trkpt lat="34.586985" lon="112.558425">
        <ele>144.7</ele>
        <time>2026-09-25T07:36:59Z</time>
      </trkpt>
      <trkpt lat="34.586986" lon="112.558309">
        <ele>144.5</ele>
        <time>2026-09-25T07:37:02Z</time>
      </trkpt>
      <trkpt lat="34.586956" lon="112.558159">
        <ele>144.6</ele>
        <time>2026-09-25T07:37:05Z</time>
      </trkpt>
      <trkpt lat="34.586903" lon="112.55804">
        <ele>144.7</ele>
        <time>2026-09-25T07:37:08Z</time>
      </trkpt>
      <trkpt lat="34.58685" lon="112.557961">
        <ele>144.7</ele>
        <time>2026-09-25T07:37:11Z</time>
      </trkpt>
      <trkpt lat="34.586766" lon="112.557881">
        <ele>144.8</ele>
        <time>2026-09-25T07:37:14Z</time>
      </trkpt>
      <trkpt lat="34.58663" lon="112.557813">
        <ele>144.8</ele>
        <time>2026-09-25T07:37:17Z</time>
      </trkpt>
      <trkpt lat="34.586514" lon="112.557804">
        <ele>144.9</ele>
        <time>2026-09-25T07:37:20Z</time>
      </trkpt>
      <trkpt lat="34.586458" lon="112.55781">
        <ele>144.8</ele>
        <time>2026-09-25T07:37:23Z</time>
      </trkpt>
      <trkpt lat="34.586334" lon="112.557825">
        <ele>144.9</ele>
        <time>2026-09-25T07:37:27Z</time>
      </trkpt>
      <trkpt lat="34.586241" lon="112.557835">
        <ele>145</ele>
        <time>2026-09-25T07:37:30Z</time>
      </trkpt>
      <trkpt lat="34.586168" lon="112.557839">
        <ele>145</ele>
        <time>2026-09-25T07:37:32Z</time>
      </trkpt>
      <trkpt lat="34.586077" lon="112.557839">
        <ele>144.9</ele>
        <time>2026-09-25T07:37:35Z</time>
      </trkpt>
      <trkpt lat="34.585956" lon="112.55784">
        <ele>144.9</ele>
        <time>2026-09-25T07:37:38Z</time>
      </trkpt>
      <trkpt lat="34.585861" lon="112.557841">
        <ele>144.9</ele>
        <time>2026-09-25T07:37:41Z</time>
      </trkpt>
      <trkpt lat="34.585804" lon="112.557845">
        <ele>144.9</ele>
        <time>2026-09-25T07:37:44Z</time>
      </trkpt>
      <trkpt lat="34.585716" lon="112.557866">
        <ele>144.9</ele>
        <time>2026-09-25T07:37:47Z</time>
      </trkpt>
      <trkpt lat="34.585634" lon="112.557915">
        <ele>145</ele>
        <time>2026-09-25T07:37:50Z</time>
      </trkpt>
      <trkpt lat="34.585572" lon="112.557984">
        <ele>145</ele>
        <time>2026-09-25T07:37:53Z</time>
      </trkpt>
      <trkpt lat="34.585533" lon="112.558065">
        <ele>145.1</ele>
        <time>2026-09-25T07:37:56Z</time>
      </trkpt>
      <trkpt lat="34.585509" lon="112.558191">
        <ele>145</ele>
        <time>2026-09-25T07:37:59Z</time>
      </trkpt>
      <trkpt lat="34.585525" lon="112.558373">
        <ele>145.1</ele>
        <time>2026-09-25T07:38:02Z</time>
      </trkpt>
      <trkpt lat="34.585554" lon="112.558467">
        <ele>145.1</ele>
        <time>2026-09-25T07:38:05Z</time>
      </trkpt>
      <trkpt lat="34.585626" lon="112.558586">
        <ele>145.1</ele>
        <time>2026-09-25T07:38:08Z</time>
      </trkpt>
      <trkpt lat="34.58572" lon="112.558675">
        <ele>145.1</ele>
        <time>2026-09-25T07:38:11Z</time>
      </trkpt>
      <trkpt lat="34.585838" lon="112.55874">
        <ele>145.2</ele>
        <time>2026-09-25T07:38:14Z</time>
      </trkpt>
      <trkpt lat="34.585907" lon="112.558752">
        <ele>145.2</ele>
        <time>2026-09-25T07:38:17Z</time>
      </trkpt>
      <trkpt lat="34.585991" lon="112.558748">
        <ele>145.1</ele>
        <time>2026-09-25T07:38:20Z</time>
      </trkpt>
      <trkpt lat="34.586075" lon="112.558738">
        <ele>145.1</ele>
        <time>2026-09-25T07:38:23Z</time>
      </trkpt>
      <trkpt lat="34.586198" lon="112.558752">
        <ele>145.2</ele>
        <time>2026-09-25T07:38:26Z</time>
      </trkpt>
      <trkpt lat="34.586249" lon="112.5588">
        <ele>145.2</ele>
        <time>2026-09-25T07:38:29Z</time>
      </trkpt>
      <trkpt lat="34.586326" lon="112.558756">
        <ele>145.2</ele>
        <time>2026-09-25T07:38:32Z</time>
      </trkpt>
      <trkpt lat="34.586393" lon="112.558762">
        <ele>145.4</ele>
        <time>2026-09-25T07:38:35Z</time>
      </trkpt>
      <trkpt lat="34.58647" lon="112.558757">
        <ele>145.5</ele>
        <time>2026-09-25T07:38:38Z</time>
      </trkpt>
      <trkpt lat="34.586532" lon="112.558765">
        <ele>145.3</ele>
        <time>2026-09-25T07:38:41Z</time>
      </trkpt>
      <trkpt lat="34.586627" lon="112.558756">
        <ele>145.3</ele>
        <time>2026-09-25T07:38:44Z</time>
      </trkpt>
      <trkpt lat="34.586701" lon="112.558737">
        <ele>145.1</ele>
        <time>2026-09-25T07:38:47Z</time>
      </trkpt>
      <trkpt lat="34.586814" lon="112.558698">
        <ele>145.1</ele>
        <time>2026-09-25T07:38:50Z</time>
      </trkpt>
      <trkpt lat="34.586905" lon="112.558618">
        <ele>145.1</ele>
        <time>2026-09-25T07:38:53Z</time>
      </trkpt>
      <trkpt lat="34.58696" lon="112.558519">
        <ele>145.1</ele>
        <time>2026-09-25T07:38:56Z</time>
      </trkpt>
      <trkpt lat="34.586989" lon="112.558389">
        <ele>145.3</ele>
        <time>2026-09-25T07:38:59Z</time>
      </trkpt>
      <trkpt lat="34.586988" lon="112.558317">
        <ele>145.3</ele>
        <time>2026-09-25T07:39:02Z</time>
      </trkpt>
      <trkpt lat="34.586978" lon="112.558231">
        <ele>145.3</ele>
        <time>2026-09-25T07:39:05Z</time>
      </trkpt>
      <trkpt lat="34.586951" lon="112.558135">
        <ele>145.2</ele>
        <time>2026-09-25T07:39:08Z</time>
      </trkpt>
      <trkpt lat="34.586876" lon="112.557991">
        <ele>145.3</ele>
        <time>2026-09-25T07:39:11Z</time>
      </trkpt>
      <trkpt lat="34.586816" lon="112.55792">
        <ele>145.4</ele>
        <time>2026-09-25T07:39:14Z</time>
      </trkpt>
      <trkpt lat="34.586707" lon="112.557837">
        <ele>145.5</ele>
        <time>2026-09-25T07:39:17Z</time>
      </trkpt>
      <trkpt lat="34.586615" lon="112.557808">
        <ele>145.6</ele>
        <time>2026-09-25T07:39:20Z</time>
      </trkpt>
      <trkpt lat="34.586539" lon="112.557804">
        <ele>145.5</ele>
        <time>2026-09-25T07:39:23Z</time>
      </trkpt>
      <trkpt lat="34.586433" lon="112.557812">
        <ele>145.6</ele>
        <time>2026-09-25T07:39:26Z</time>
      </trkpt>
      <trkpt lat="34.586316" lon="112.557827">
        <ele>145.7</ele>
        <time>2026-09-25T07:39:29Z</time>
      </trkpt>
      <trkpt lat="34.586228" lon="112.557836">
        <ele>145.6</ele>
        <time>2026-09-25T07:39:32Z</time>
      </trkpt>
      <trkpt lat="34.58616" lon="112.557839">
        <ele>145.8</ele>
        <time>2026-09-25T07:39:35Z</time>
      </trkpt>
      <trkpt lat="34.586031" lon="112.557843">
        <ele>145.6</ele>
        <time>2026-09-25T07:39:38Z</time>
      </trkpt>
      <trkpt lat="34.585932" lon="112.55784">
        <ele>145.7</ele>
        <time>2026-09-25T07:39:41Z</time>
      </trkpt>
      <trkpt lat="34.585843" lon="112.557842">
        <ele>145.5</ele>
        <time>2026-09-25T07:39:44Z</time>
      </trkpt>
      <trkpt lat="34.585778" lon="112.557849">
        <ele>145.6</ele>
        <time>2026-09-25T07:39:47Z</time>
      </trkpt>
      <trkpt lat="34.58567" lon="112.557889">
        <ele>145.5</ele>
        <time>2026-09-25T07:39:50Z</time>
      </trkpt>
      <trkpt lat="34.585601" lon="112.557949">
        <ele>145.7</ele>
        <time>2026-09-25T07:39:53Z</time>
      </trkpt>
      <trkpt lat="34.585556" lon="112.558011">
        <ele>145.8</ele>
        <time>2026-09-25T07:39:56Z</time>
      </trkpt>
      <trkpt lat="34.585522" lon="112.558101">
        <ele>145.8</ele>
        <time>2026-09-25T07:39:59Z</time>
      </trkpt>
      <trkpt lat="34.585508" lon="112.558265">
        <ele>145.6</ele>
        <time>2026-09-25T07:40:03Z</time>
      </trkpt>
      <trkpt lat="34.585528" lon="112.558382">
        <ele>145.6</ele>
        <time>2026-09-25T07:40:06Z</time>
      </trkpt>
      <trkpt lat="34.585552" lon="112.55846">
        <ele>145.6</ele>
        <time>2026-09-25T07:40:08Z</time>
      </trkpt>
      <trkpt lat="34.585616" lon="112.558568">
        <ele>145.7</ele>
        <time>2026-09-25T07:40:11Z</time>
      </trkpt>
      <trkpt lat="34.58572" lon="112.558667">
        <ele>145.7</ele>
        <time>2026-09-25T07:40:14Z</time>
      </trkpt>
      <trkpt lat="34.585798" lon="112.558714">
        <ele>145.7</ele>
        <time>2026-09-25T07:40:17Z</time>
      </trkpt>
      <trkpt lat="34.585859" lon="112.558731">
        <ele>145.6</ele>
        <time>2026-09-25T07:40:20Z</time>
      </trkpt>
      <trkpt lat="34.585956" lon="112.558737">
        <ele>145.7</ele>
        <time>2026-09-25T07:40:23Z</time>
      </trkpt>
      <trkpt lat="34.586065" lon="112.558722">
        <ele>146</ele>
        <time>2026-09-25T07:40:26Z</time>
      </trkpt>
      <trkpt lat="34.586147" lon="112.55872">
        <ele>146</ele>
        <time>2026-09-25T07:40:29Z</time>
      </trkpt>
      <trkpt lat="34.586195" lon="112.558731">
        <ele>146</ele>
        <time>2026-09-25T07:40:32Z</time>
      </trkpt>
      <trkpt lat="34.586298" lon="112.558747">
        <ele>146</ele>
        <time>2026-09-25T07:40:35Z</time>
      </trkpt>
      <trkpt lat="34.586416" lon="112.558755">
        <ele>145.9</ele>
        <time>2026-09-25T07:40:38Z</time>
      </trkpt>
      <trkpt lat="34.586459" lon="112.558751">
        <ele>146</ele>
        <time>2026-09-25T07:40:41Z</time>
      </trkpt>
      <trkpt lat="34.586498" lon="112.558762">
        <ele>145.8</ele>
        <time>2026-09-25T07:40:44Z</time>
      </trkpt>
      <trkpt lat="34.586521" lon="112.558781">
        <ele>145.8</ele>
        <time>2026-09-25T07:40:47Z</time>
      </trkpt>
      <trkpt lat="34.586531" lon="112.558812">
        <ele>145.7</ele>
        <time>2026-09-25T07:40:50Z</time>
      </trkpt>
      <trkpt lat="34.58653" lon="112.558834">
        <ele>145.7</ele>
        <time>2026-09-25T07:40:53Z</time>
      </trkpt>
      <trkpt lat="34.586532" lon="112.558839">
        <ele>145.9</ele>
        <time>2026-09-25T07:40:56Z</time>
      </trkpt>
      <trkpt lat="34.586546" lon="112.55884">
        <ele>146</ele>
        <time>2026-09-25T07:40:59Z</time>
      </trkpt>
      <trkpt lat="34.586549" lon="112.558838">
        <ele>146.2</ele>
        <time>2026-09-25T07:41:02Z</time>
      </trkpt>
      <trkpt lat="34.586544" lon="112.558814">
        <ele>146.3</ele>
        <time>2026-09-25T07:41:05Z</time>
      </trkpt>
      <trkpt lat="34.586583" lon="112.558845">
        <ele>146.3</ele>
        <time>2026-09-25T07:41:08Z</time>
      </trkpt>
      <trkpt lat="34.586608" lon="112.558831">
        <ele>146.2</ele>
        <time>2026-09-25T07:41:11Z</time>
      </trkpt>
      <trkpt lat="34.586616" lon="112.558827">
        <ele>146.2</ele>
        <time>2026-09-25T07:41:14Z</time>
      </trkpt>
      <trkpt lat="34.586635" lon="112.558823">
        <ele>146.3</ele>
        <time>2026-09-25T07:41:17Z</time>
      </trkpt>
      <trkpt lat="34.586658" lon="112.558825">
        <ele>146.2</ele>
        <time>2026-09-25T07:41:20Z</time>
      </trkpt>
      <trkpt lat="34.586633" lon="112.558794">
        <ele>146.2</ele>
        <time>2026-09-25T07:41:23Z</time>
      </trkpt>
      <trkpt lat="34.586627" lon="112.558794">
        <ele>146.3</ele>
        <time>2026-09-25T07:41:26Z</time>
      </trkpt>
      <trkpt lat="34.58662" lon="112.5588">
        <ele>146.3</ele>
        <time>2026-09-25T07:41:29Z</time>
      </trkpt>
      <trkpt lat="34.586616" lon="112.558827">
        <ele>146.3</ele>
        <time>2026-09-25T07:41:32Z</time>
      </trkpt>
      <trkpt lat="34.586562" lon="112.558802">
        <ele>146.2</ele>
        <time>2026-09-25T07:41:35Z</time>
      </trkpt>
      <trkpt lat="34.586538" lon="112.558791">
        <ele>146.4</ele>
        <time>2026-09-25T07:41:38Z</time>
      </trkpt>
      <trkpt lat="34.586494" lon="112.558792">
        <ele>146.5</ele>
        <time>2026-09-25T07:41:41Z</time>
      </trkpt>
      <trkpt lat="34.586472" lon="112.558785">
        <ele>146.4</ele>
        <time>2026-09-25T07:41:44Z</time>
      </trkpt>
      <trkpt lat="34.58646" lon="112.558789">
        <ele>146.4</ele>
        <time>2026-09-25T07:41:47Z</time>
      </trkpt>
      <trkpt lat="34.586436" lon="112.558796">
        <ele>146.4</ele>
        <time>2026-09-25T07:41:50Z</time>
      </trkpt>
      <trkpt lat="34.586415" lon="112.558794">
        <ele>146.4</ele>
        <time>2026-09-25T07:41:53Z</time>
      </trkpt>
      <trkpt lat="34.586395" lon="112.558793">
        <ele>146.4</ele>
        <time>2026-09-25T07:41:56Z</time>
      </trkpt>
      <trkpt lat="34.586384" lon="112.558791">
        <ele>146.4</ele>
        <time>2026-09-25T07:41:59Z</time>
      </trkpt>
      <trkpt lat="34.586353" lon="112.558783">
        <ele>146.4</ele>
        <time>2026-09-25T07:42:02Z</time>
      </trkpt>
      <trkpt lat="34.586319" lon="112.558776">
        <ele>146.3</ele>
        <time>2026-09-25T07:42:05Z</time>
      </trkpt>
      <trkpt lat="34.586284" lon="112.558786">
        <ele>146.1</ele>
        <time>2026-09-25T07:42:08Z</time>
      </trkpt>
      <trkpt lat="34.586266" lon="112.558802">
        <ele>146.1</ele>
        <time>2026-09-25T07:42:11Z</time>
      </trkpt>
      <trkpt lat="34.58623" lon="112.558829">
        <ele>146.1</ele>
        <time>2026-09-25T07:42:14Z</time>
      </trkpt>
      <trkpt lat="34.586212" lon="112.558802">
        <ele>146.1</ele>
        <time>2026-09-25T07:42:17Z</time>
      </trkpt>
      <trkpt lat="34.586216" lon="112.55882">
        <ele>146.2</ele>
        <time>2026-09-25T07:42:20Z</time>
      </trkpt>
      <trkpt lat="34.586218" lon="112.55883">
        <ele>146.3</ele>
        <time>2026-09-25T07:42:23Z</time>
      </trkpt>
      <trkpt lat="34.586223" lon="112.558836">
        <ele>146.3</ele>
        <time>2026-09-25T07:42:26Z</time>
      </trkpt>
      <trkpt lat="34.586231" lon="112.558851">
        <ele>146.2</ele>
        <time>2026-09-25T07:42:29Z</time>
      </trkpt>
      <trkpt lat="34.586228" lon="112.558841">
        <ele>146.3</ele>
        <time>2026-09-25T07:42:32Z</time>
      </trkpt>
      <trkpt lat="34.58623" lon="112.558846">
        <ele>146.4</ele>
        <time>2026-09-25T07:42:35Z</time>
      </trkpt>
      <trkpt lat="34.586232" lon="112.558846">
        <ele>146.5</ele>
        <time>2026-09-25T07:42:38Z</time>
      </trkpt>
      <trkpt lat="34.586233" lon="112.558873">
        <ele>146.5</ele>
        <time>2026-09-25T07:42:41Z</time>
      </trkpt>
      <trkpt lat="34.586239" lon="112.558866">
        <ele>146.4</ele>
        <time>2026-09-25T07:42:45Z</time>
      </trkpt>
      <trkpt lat="34.586244" lon="112.558859">
        <ele>146.5</ele>
        <time>2026-09-25T07:42:48Z</time>
      </trkpt>
      <trkpt lat="34.586246" lon="112.558854">
        <ele>146.5</ele>
        <time>2026-09-25T07:42:50Z</time>
      </trkpt>
      <trkpt lat="34.586246" lon="112.558846">
        <ele>146.6</ele>
        <time>2026-09-25T07:42:53Z</time>
      </trkpt>
      <trkpt lat="34.586249" lon="112.558836">
        <ele>146.6</ele>
        <time>2026-09-25T07:42:56Z</time>
      </trkpt>
      <trkpt lat="34.586251" lon="112.558819">
        <ele>146.7</ele>
        <time>2026-09-25T07:42:59Z</time>
      </trkpt>
      <trkpt lat="34.586257" lon="112.558809">
        <ele>146.8</ele>
        <time>2026-09-25T07:43:02Z</time>
      </trkpt>
      <trkpt lat="34.586262" lon="112.558806">
        <ele>146.7</ele>
        <time>2026-09-25T07:43:05Z</time>
      </trkpt>
      <trkpt lat="34.586289" lon="112.558794">
        <ele>146.7</ele>
        <time>2026-09-25T07:43:11Z</time>
      </trkpt>
      <trkpt lat="34.586312" lon="112.55879">
        <ele>146.7</ele>
        <time>2026-09-25T07:43:14Z</time>
      </trkpt>
      <trkpt lat="34.586322" lon="112.558789">
        <ele>146.6</ele>
        <time>2026-09-25T07:43:17Z</time>
      </trkpt>
      <trkpt lat="34.586339" lon="112.55878">
        <ele>146.6</ele>
        <time>2026-09-25T07:43:20Z</time>
      </trkpt>
      <trkpt lat="34.586366" lon="112.55878">
        <ele>146.7</ele>
        <time>2026-09-25T07:43:23Z</time>
      </trkpt>
      <trkpt lat="34.586425" lon="112.558791">
        <ele>146.5</ele>
        <time>2026-09-25T07:43:26Z</time>
      </trkpt>
      <trkpt lat="34.586467" lon="112.558799">
        <ele>146.4</ele>
        <time>2026-09-25T07:43:29Z</time>
      </trkpt>
      <trkpt lat="34.586549" lon="112.558793">
        <ele>146.5</ele>
        <time>2026-09-25T07:43:32Z</time>
      </trkpt>
      <trkpt lat="34.586666" lon="112.558741">
        <ele>146.4</ele>
        <time>2026-09-25T07:43:35Z</time>
      </trkpt>
      <trkpt lat="34.586759" lon="112.558699">
        <ele>146.5</ele>
        <time>2026-09-25T07:43:38Z</time>
      </trkpt>
      <trkpt lat="34.586823" lon="112.55867">
        <ele>146.6</ele>
        <time>2026-09-25T07:43:41Z</time>
      </trkpt>
      <trkpt lat="34.586904" lon="112.558609">
        <ele>146.7</ele>
        <time>2026-09-25T07:43:44Z</time>
      </trkpt>
      <trkpt lat="34.586985" lon="112.558491">
        <ele>146.5</ele>
        <time>2026-09-25T07:43:47Z</time>
      </trkpt>
      <trkpt lat="34.587009" lon="112.55842">
        <ele>146.4</ele>
        <time>2026-09-25T07:43:50Z</time>
      </trkpt>
      <trkpt lat="34.587019" lon="112.558306">
        <ele>146.4</ele>
        <time>2026-09-25T07:43:53Z</time>
      </trkpt>
      <trkpt lat="34.586995" lon="112.558184">
        <ele>146.5</ele>
        <time>2026-09-25T07:43:56Z</time>
      </trkpt>
      <trkpt lat="34.586927" lon="112.558036">
        <ele>146.5</ele>
        <time>2026-09-25T07:43:59Z</time>
      </trkpt>
      <trkpt lat="34.586879" lon="112.557975">
        <ele>146.4</ele>
        <time>2026-09-25T07:44:02Z</time>
      </trkpt>
      <trkpt lat="34.586797" lon="112.557904">
        <ele>146.4</ele>
        <time>2026-09-25T07:44:05Z</time>
      </trkpt>
      <trkpt lat="34.586706" lon="112.557863">
        <ele>146.5</ele>
        <time>2026-09-25T07:44:08Z</time>
      </trkpt>
    </trkseg>
  </trk>
</gpx>