<?xml version="1.0" encoding="UTF-8"?>
<gpx xmlns="http://www.topografix.com/GPX/1/1" xmlns:gpxtpx="http://www.garmin.com/xmlschemas/TrackPointExtension/v1" xmlns:xsi="http://www.w3.org/2001/XMLSchema-instance" xsi:schemaLocation="http://www.topografix.com/GPX/1/1 http://www.topografix.com/GPX/1/1/gpx.xsd" version="1.1" creator="gpx.py -- https://github.com/tkrajina/gpxpy">
  <trk>
    <name>傍晚跑步</name>
    <type>running</type>
    <trkseg>
      <trkpt lat="34.587093" lon="112.55837">
        <ele>90.2</ele>
        <time>2026-10-05T11:49:39Z</time>
      </trkpt>
      <trkpt lat="34.587032" lon="112.558182">
        <ele>90.2</ele>
        <time>2026-10-05T11:49:42Z</time>
      </trkpt>
      <trkpt lat="34.586973" lon="112.558097">
        <ele>90.1</ele>
        <time>2026-10-05T11:49:46Z</time>
      </trkpt>
      <trkpt lat="34.586917" lon="112.558048">
        <ele>90.2</ele>
        <time>2026-10-05T11:49:49Z</time>
      </trkpt>
      <trkpt lat="34.586818" lon="112.557997">
        <ele>90</ele>
        <time>2026-10-05T11:49:52Z</time>
      </trkpt>
      <trkpt lat="34.586755" lon="112.557943">
        <ele>90.2</ele>
        <time>2026-10-05T11:49:55Z</time>
      </trkpt>
      <trkpt lat="34.586676" lon="112.557985">
        <ele>90.1</ele>
        <time>2026-10-05T11:49:58Z</time>
      </trkpt>
      <trkpt lat="34.586617" lon="112.558018">
        <ele>90.3</ele>
        <time>2026-10-05T11:50:01Z</time>
      </trkpt>
      <trkpt lat="34.586519" lon="112.558049">
        <ele>90.2</ele>
        <time>2026-10-05T11:50:04Z</time>
      </trkpt>
      <trkpt lat="34.586433" lon="112.558066">
        <ele>90.2</ele>
        <time>2026-10-05T11:50:07Z</time>
      </trkpt>
      <trkpt lat="34.586364" lon="112.558033">
        <ele>90.1</ele>
        <time>2026-10-05T11:50:10Z</time>
      </trkpt>
      <trkpt lat="34.586267" lon="112.558039">
        <ele>89.8</ele>
        <time>2026-10-05T11:50:13Z</time>
      </trkpt>
      <trkpt lat="34.586147" lon="112.55808">
        <ele>89.9</ele>
        <time>2026-10-05T11:50:16Z</time>
      </trkpt>
      <trkpt lat="34.58605" lon="112.558069">
        <ele>90.1</ele>
        <time>2026-10-05T11:50:19Z</time>
      </trkpt>
      <trkpt lat="34.585936" lon="112.558015">
        <ele>90.1</ele>
        <time>2026-10-05T11:50:22Z</time>
      </trkpt>
      <trkpt lat="34.585779" lon="112.557949">
        <ele>90.2</ele>
        <time>2026-10-05T11:50:25Z</time>
      </trkpt>
      <trkpt lat="34.585674" lon="112.557972">
        <ele>90.2</ele>
        <time>2026-10-05T11:50:28Z</time>
      </trkpt>
      <trkpt lat="34.585631" lon="112.558011">
        <ele>90.2</ele>
        <time>2026-10-05T11:50:31Z</time>
      </trkpt>
      <trkpt lat="34.585569" lon="112.558101">
        <ele>90.2</ele>
        <time>2026-10-05T11:50:34Z</time>
      </trkpt>
      <trkpt lat="34.585546" lon="112.558203">
        <ele>90.3</ele>
        <time>2026-10-05T11:50:37Z</time>
      </trkpt>
      <trkpt lat="34.585569" lon="112.558373">
        <ele>90.3</ele>
        <time>2026-10-05T11:50:40Z</time>
      </trkpt>
      <trkpt lat="34.585579" lon="112.558418">
        <ele>90.3</ele>
        <time>2026-10-05T11:50:43Z</time>
      </trkpt>
      <trkpt lat="34.585625" lon="112.558525">
        <ele>90.5</ele>
        <time>2026-10-05T11:50:46Z</time>
      </trkpt>
      <trkpt lat="34.585768" lon="112.558658">
        <ele>90.4</ele>
        <time>2026-10-05T11:50:49Z</time>
      </trkpt>
      <trkpt lat="34.585834" lon="112.558707">
        <ele>90.3</ele>
        <time>2026-10-05T11:50:52Z</time>
      </trkpt>
      <trkpt lat="34.585939" lon="112.558748">
        <ele>90.4</ele>
        <time>2026-10-05T11:50:55Z</time>
      </trkpt>
      <trkpt lat="34.586048" lon="112.558765">
        <ele>90.4</ele>
        <time>2026-10-05T11:50:58Z</time>
      </trkpt>
      <trkpt lat="34.586204" lon="112.55877">
        <ele>90.3</ele>
        <time>2026-10-05T11:51:01Z</time>
      </trkpt>
      <trkpt lat="34.586266" lon="112.558767">
        <ele>90.5</ele>
        <time>2026-10-05T11:51:04Z</time>
      </trkpt>
      <trkpt lat="34.586378" lon="112.558758">
        <ele>90.6</ele>
        <time>2026-10-05T11:51:07Z</time>
      </trkpt>
      <trkpt lat="34.586482" lon="112.55874">
        <ele>90.5</ele>
        <time>2026-10-05T11:51:10Z</time>
      </trkpt>
      <trkpt lat="34.586606" lon="112.558721">
        <ele>90.5</ele>
        <time>2026-10-05T11:51:13Z</time>
      </trkpt>
      <trkpt lat="34.586693" lon="112.558718">
        <ele>90.4</ele>
        <time>2026-10-05T11:51:16Z</time>
      </trkpt>
      <trkpt lat="34.586772" lon="112.558711">
        <ele>90.4</ele>
        <time>2026-10-05T11:51:19Z</time>
      </trkpt>
      <trkpt lat="34.586871" lon="112.558687">
        <ele>90.4</ele>
        <time>2026-10-05T11:51:21Z</time>
      </trkpt>
      <trkpt lat="34.586951" lon="112.558652">
        <ele>90.3</ele>
        <time>2026-10-05T11:51:24Z</time>
      </trkpt>
      <trkpt lat="34.586998" lon="112.558615">
        <ele>90.2</ele>
        <time>2026-10-05T11:51:27Z</time>
      </trkpt>
      <trkpt lat="34.587063" lon="112.558531">
        <ele>90.2</ele>
        <time>2026-10-05T11:51:30Z</time>
      </trkpt>
      <trkpt lat="34.587119" lon="112.558377">
        <ele>90.2</ele>
        <time>2026-10-05T11:51:33Z</time>
      </trkpt>
      <trkpt lat="34.587129" lon="112.558253">
        <ele>90.2</ele>
        <time>2026-10-05T11:51:36Z</time>
      </trkpt>
      <trkpt lat="34.587117" lon="112.558172">
        <ele>90.2</ele>
        <time>2026-10-05T11:51:39Z</time>
      </trkpt>
      <trkpt lat="34.587089" lon="112.558078">
        <ele>90.2</ele>
        <time>2026-10-05T11:51:42Z</time>
      </trkpt>
      <trkpt lat="34.586971" lon="112.557921">
        <ele>90.1</ele>
        <time>2026-10-05T11:51:45Z</time>
      </trkpt>
      <trkpt lat="34.586885" lon="112.557862">
        <ele>90.2</ele>
        <time>2026-10-05T11:51:48Z</time>
      </trkpt>
      <trkpt lat="34.58677" lon="112.55781">
        <ele>90.1</ele>
        <time>2026-10-05T11:51:51Z</time>
      </trkpt>
      <trkpt lat="34.586617" lon="112.557784">
        <ele>90</ele>
        <time>2026-10-05T11:51:54Z</time>
      </trkpt>
      <trkpt lat="34.586503" lon="112.557784">
        <ele>90</ele>
        <time>2026-10-05T11:51:57Z</time>
      </trkpt>
      <trkpt lat="34.586439" lon="112.557785">
        <ele>90.1</ele>
        <time>2026-10-05T11:52:00Z</time>
      </trkpt>
      <trkpt lat="34.586337" lon="112.557792">
        <ele>90.1</ele>
        <time>2026-10-05T11:52:03Z</time>
      </trkpt>
      <trkpt lat="34.586202" lon="112.557802">
        <ele>90.2</ele>
        <time>2026-10-05T11:52:06Z</time>
      </trkpt>
      <trkpt lat="34.586102" lon="112.557809">
        <ele>90.2</ele>
        <time>2026-10-05T11:52:09Z</time>
      </trkpt>
      <trkpt lat="34.586055" lon="112.557812">
        <ele>90.2</ele>
        <time>2026-10-05T11:52:12Z</time>
      </trkpt>
      <trkpt lat="34.585973" lon="112.557825">
        <ele>90.1</ele>
        <time>2026-10-05T11:52:15Z</time>
      </trkpt>
      <trkpt lat="34.585868" lon="112.557839">
        <ele>90.3</ele>
        <time>2026-10-05T11:52:18Z</time>
      </trkpt>
      <trkpt lat="34.585817" lon="112.557851">
        <ele>90.2</ele>
        <time>2026-10-05T11:52:21Z</time>
      </trkpt>
      <trkpt lat="34.585727" lon="112.557886">
        <ele>90.1</ele>
        <time>2026-10-05T11:52:25Z</time>
      </trkpt>
      <trkpt lat="34.585644" lon="112.557949">
        <ele>90.3</ele>
        <time>2026-10-05T11:52:28Z</time>
      </trkpt>
      <trkpt lat="34.585572" lon="112.558037">
        <ele>90.3</ele>
        <time>2026-10-05T11:52:31Z</time>
      </trkpt>
      <trkpt lat="34.585548" lon="112.558099">
        <ele>90.2</ele>
        <time>2026-10-05T11:52:34Z</time>
      </trkpt>
      <trkpt lat="34.58553" lon="112.558202">
        <ele>90.2</ele>
        <time>2026-10-05T11:52:37Z</time>
      </trkpt>
      <trkpt lat="34.585554" lon="112.558326">
        <ele>90.2</ele>
        <time>2026-10-05T11:52:40Z</time>
      </trkpt>
      <trkpt lat="34.585701" lon="112.558598">
        <ele>90.2</ele>
        <time>2026-10-05T11:52:49Z</time>
      </trkpt>
      <trkpt lat="34.585836" lon="112.558709">
        <ele>90.5</ele>
        <time>2026-10-05T11:52:52Z</time>
      </trkpt>
      <trkpt lat="34.585928" lon="112.558745">
        <ele>90.4</ele>
        <time>2026-10-05T11:52:55Z</time>
      </trkpt>
      <trkpt lat="34.586055" lon="112.558768">
        <ele>90.3</ele>
        <time>2026-10-05T11:52:58Z</time>
      </trkpt>
      <trkpt lat="34.586213" lon="112.55877">
        <ele>90.2</ele>
        <time>2026-10-05T11:53:01Z</time>
      </trkpt>
      <trkpt lat="34.586321" lon="112.558764">
        <ele>90.2</ele>
        <time>2026-10-05T11:53:04Z</time>
      </trkpt>
      <trkpt lat="34.586388" lon="112.558755">
        <ele>90.2</ele>
        <time>2026-10-05T11:53:07Z</time>
      </trkpt>
      <trkpt lat="34.586493" lon="112.558736">
        <ele>90.2</ele>
        <time>2026-10-05T11:53:10Z</time>
      </trkpt>
      <trkpt lat="34.586616" lon="112.55872">
        <ele>90.2</ele>
        <time>2026-10-05T11:53:13Z</time>
      </trkpt>
      <trkpt lat="34.586711" lon="112.558715">
        <ele>90.3</ele>
        <time>2026-10-05T11:53:16Z</time>
      </trkpt>
      <trkpt lat="34.586769" lon="112.558709">
        <ele>90.3</ele>
        <time>2026-10-05T11:53:19Z</time>
      </trkpt>
      <trkpt lat="34.586955" lon="112.558648">
        <ele>90.2</ele>
        <time>2026-10-05T11:53:25Z</time>
      </trkpt>
      <trkpt lat="34.587008" lon="112.558603">
        <ele>90</ele>
        <time>2026-10-05T11:53:28Z</time>
      </trkpt>
      <trkpt lat="34.587062" lon="112.558527">
        <ele>89.9</ele>
        <time>2026-10-05T11:53:31Z</time>
      </trkpt>
      <trkpt lat="34.587094" lon="112.558451">
        <ele>89.8</ele>
        <time>2026-10-05T11:53:34Z</time>
      </trkpt>
      <trkpt lat="34.587126" lon="112.558318">
        <ele>89.9</ele>
        <time>2026-10-05T11:53:37Z</time>
      </trkpt>
      <trkpt lat="34.587128" lon="112.558233">
        <ele>89.9</ele>
        <time>2026-10-05T11:53:40Z</time>
      </trkpt>
      <trkpt lat="34.587112" lon="112.558148">
        <ele>90</ele>
        <time>2026-10-05T11:53:43Z</time>
      </trkpt>
      <trkpt lat="34.587087" lon="112.558066">
        <ele>89.9</ele>
        <time>2026-10-05T11:53:46Z</time>
      </trkpt>
      <trkpt lat="34.586979" lon="112.557914">
        <ele>89.8</ele>
        <time>2026-10-05T11:53:49Z</time>
      </trkpt>
      <trkpt lat="34.586917" lon="112.557865">
        <ele>89.9</ele>
        <time>2026-10-05T11:53:52Z</time>
      </trkpt>
      <trkpt lat="34.586816" lon="112.557815">
        <ele>90.1</ele>
        <time>2026-10-05T11:53:55Z</time>
      </trkpt>
      <trkpt lat="34.586723" lon="112.557792">
        <ele>90</ele>
        <time>2026-10-05T11:53:58Z</time>
      </trkpt>
      <trkpt lat="34.586637" lon="112.557782">
        <ele>90</ele>
        <time>2026-10-05T11:54:00Z</time>
      </trkpt>
      <trkpt lat="34.586565" lon="112.557781">
        <ele>90</ele>
        <time>2026-10-05T11:54:03Z</time>
      </trkpt>
      <trkpt lat="34.586457" lon="112.557783">
        <ele>90.1</ele>
        <time>2026-10-05T11:54:06Z</time>
      </trkpt>
      <trkpt lat="34.586367" lon="112.557788">
        <ele>90.1</ele>
        <time>2026-10-05T11:54:09Z</time>
      </trkpt>
      <trkpt lat="34.586277" lon="112.557797">
        <ele>90</ele>
        <time>2026-10-05T11:54:12Z</time>
      </trkpt>
      <trkpt lat="34.586223" lon="112.557801">
        <ele>89.9</ele>
        <time>2026-10-05T11:54:15Z</time>
      </trkpt>
      <trkpt lat="34.58608" lon="112.557813">
        <ele>89.9</ele>
        <time>2026-10-05T11:54:18Z</time>
      </trkpt>
      <trkpt lat="34.585993" lon="112.557823">
        <ele>89.9</ele>
        <time>2026-10-05T11:54:21Z</time>
      </trkpt>
      <trkpt lat="34.585942" lon="112.557827">
        <ele>90</ele>
        <time>2026-10-05T11:54:24Z</time>
      </trkpt>
      <trkpt lat="34.585848" lon="112.557842">
        <ele>89.8</ele>
        <time>2026-10-05T11:54:27Z</time>
      </trkpt>
      <trkpt lat="34.585747" lon="112.557871">
        <ele>89.7</ele>
        <time>2026-10-05T11:54:30Z</time>
      </trkpt>
      <trkpt lat="34.585654" lon="112.55793">
        <ele>89.7</ele>
        <time>2026-10-05T11:54:33Z</time>
      </trkpt>
      <trkpt lat="34.585623" lon="112.557952">
        <ele>89.9</ele>
        <time>2026-10-05T11:54:36Z</time>
      </trkpt>
      <trkpt lat="34.585563" lon="112.558017">
        <ele>90</ele>
        <time>2026-10-05T11:54:39Z</time>
      </trkpt>
      <trkpt lat="34.585526" lon="112.558146">
        <ele>89.9</ele>
        <time>2026-10-05T11:54:42Z</time>
      </trkpt>
      <trkpt lat="34.585524" lon="112.558225">
        <ele>89.8</ele>
        <time>2026-10-05T11:54:45Z</time>
      </trkpt>
      <trkpt lat="34.585543" lon="112.558308">
        <ele>89.8</ele>
        <time>2026-10-05T11:54:48Z</time>
      </trkpt>
      <trkpt lat="34.585583" lon="112.558385">
        <ele>89.8</ele>
        <time>2026-10-05T11:54:51Z</time>
      </trkpt>
      <trkpt lat="34.585654" lon="112.55848">
        <ele>89.8</ele>
        <time>2026-10-05T11:54:54Z</time>
      </trkpt>
      <trkpt lat="34.585732" lon="112.55853">
        <ele>89.8</ele>
        <time>2026-10-05T11:54:57Z</time>
      </trkpt>
      <trkpt lat="34.585851" lon="112.558574">
        <ele>90</ele>
        <time>2026-10-05T11:55:00Z</time>
      </trkpt>
      <trkpt lat="34.585963" lon="112.55866">
        <ele>90</ele>
        <time>2026-10-05T11:55:03Z</time>
      </trkpt>
      <trkpt lat="34.58614" lon="112.558721">
        <ele>89.9</ele>
        <time>2026-10-05T11:55:06Z</time>
      </trkpt>
      <trkpt lat="34.586202" lon="112.558726">
        <ele>89.9</ele>
        <time>2026-10-05T11:55:09Z</time>
      </trkpt>
      <trkpt lat="34.586323" lon="112.558734">
        <ele>89.8</ele>
        <time>2026-10-05T11:55:12Z</time>
      </trkpt>
      <trkpt lat="34.586462" lon="112.558726">
        <ele>89.8</ele>
        <time>2026-10-05T11:55:15Z</time>
      </trkpt>
      <trkpt lat="34.586563" lon="112.558717">
        <ele>89.7</ele>
        <time>2026-10-05T11:55:18Z</time>
      </trkpt>
      <trkpt lat="34.586623" lon="112.558714">
        <ele>89.9</ele>
        <time>2026-10-05T11:55:21Z</time>
      </trkpt>
      <trkpt lat="34.586757" lon="112.558711">
        <ele>89.9</ele>
        <time>2026-10-05T11:55:25Z</time>
      </trkpt>
      <trkpt lat="34.586841" lon="112.558695">
        <ele>89.9</ele>
        <time>2026-10-05T11:55:28Z</time>
      </trkpt>
      <trkpt lat="34.586896" lon="112.558677">
        <ele>89.8</ele>
        <time>2026-10-05T11:55:31Z</time>
      </trkpt>
      <trkpt lat="34.586981" lon="112.558625">
        <ele>89.7</ele>
        <time>2026-10-05T11:55:34Z</time>
      </trkpt>
      <trkpt lat="34.587073" lon="112.55851">
        <ele>89.7</ele>
        <time>2026-10-05T11:55:37Z</time>
      </trkpt>
      <trkpt lat="34.587108" lon="112.558418">
        <ele>89.6</ele>
        <time>2026-10-05T11:55:40Z</time>
      </trkpt>
      <trkpt lat="34.587124" lon="112.55834">
        <ele>89.7</ele>
        <time>2026-10-05T11:55:43Z</time>
      </trkpt>
      <trkpt lat="34.587127" lon="112.558233">
        <ele>89.5</ele>
        <time>2026-10-05T11:55:46Z</time>
      </trkpt>
      <trkpt lat="34.587101" lon="112.55811">
        <ele>89.7</ele>
        <time>2026-10-05T11:55:49Z</time>
      </trkpt>
      <trkpt lat="34.587049" lon="112.558">
        <ele>89.7</ele>
        <time>2026-10-05T11:55:52Z</time>
      </trkpt>
      <trkpt lat="34.587014" lon="112.557952">
        <ele>89.7</ele>
        <time>2026-10-05T11:55:55Z</time>
      </trkpt>
      <trkpt lat="34.586949" lon="112.557892">
        <ele>89.6</ele>
        <time>2026-10-05T11:55:58Z</time>
      </trkpt>
      <trkpt lat="34.586823" lon="112.557821">
        <ele>89.7</ele>
        <time>2026-10-05T11:56:01Z</time>
      </trkpt>
      <trkpt lat="34.586772" lon="112.557802">
        <ele>89.8</ele>
        <time>2026-10-05T11:56:04Z</time>
      </trkpt>
      <trkpt lat="34.586672" lon="112.557785">
        <ele>89.8</ele>
        <time>2026-10-05T11:56:07Z</time>
      </trkpt>
      <trkpt lat="34.586598" lon="112.557784">
        <ele>89.8</ele>
        <time>2026-10-05T11:56:10Z</time>
      </trkpt>
      <trkpt lat="34.586476" lon="112.557782">
        <ele>89.7</ele>
        <time>2026-10-05T11:56:13Z</time>
      </trkpt>
      <trkpt lat="34.586398" lon="112.557787">
        <ele>89.7</ele>
        <time>2026-10-05T11:56:16Z</time>
      </trkpt>
      <trkpt lat="34.586317" lon="112.557795">
        <ele>89.7</ele>
        <time>2026-10-05T11:56:19Z</time>
      </trkpt>
      <trkpt lat="34.586242" lon="112.557799">
        <ele>89.7</ele>
        <time>2026-10-05T11:56:22Z</time>
      </trkpt>
      <trkpt lat="34.58612" lon="112.557809">
        <ele>89.7</ele>
        <time>2026-10-05T11:56:25Z</time>
      </trkpt>
      <trkpt lat="34.586052" lon="112.557812">
        <ele>89.7</ele>
        <time>2026-10-05T11:56:28Z</time>
      </trkpt>
      <trkpt lat="34.585959" lon="112.557826">
        <ele>89.9</ele>
        <time>2026-10-05T11:56:31Z</time>
      </trkpt>
      <trkpt lat="34.585809" lon="112.557845">
        <ele>89.9</ele>
        <time>2026-10-05T11:56:34Z</time>
      </trkpt>
      <trkpt lat="34.585756" lon="112.557858">
        <ele>89.8</ele>
        <time>2026-10-05T11:56:37Z</time>
      </trkpt>
      <trkpt lat="34.585657" lon="112.557909">
        <ele>89.8</ele>
        <time>2026-10-05T11:56:40Z</time>
      </trkpt>
      <trkpt lat="34.585571" lon="112.557971">
        <ele>89.8</ele>
        <time>2026-10-05T11:56:43Z</time>
      </trkpt>
      <trkpt lat="34.585509" lon="112.558031">
        <ele>89.6</ele>
        <time>2026-10-05T11:56:46Z</time>
      </trkpt>
      <trkpt lat="34.585492" lon="112.558066">
        <ele>89.6</ele>
        <time>2026-10-05T11:56:49Z</time>
      </trkpt>
      <trkpt lat="34.585622" lon="112.558512">
        <ele>89.6</ele>
        <time>2026-10-05T11:57:03Z</time>
      </trkpt>
      <trkpt lat="34.585841" lon="112.558659">
        <ele>89.6</ele>
        <time>2026-10-05T11:57:06Z</time>
      </trkpt>
      <trkpt lat="34.585995" lon="112.558718">
        <ele>89.7</ele>
        <time>2026-10-05T11:57:09Z</time>
      </trkpt>
      <trkpt lat="34.586075" lon="112.558728">
        <ele>89.8</ele>
        <time>2026-10-05T11:57:12Z</time>
      </trkpt>
      <trkpt lat="34.586215" lon="112.558741">
        <ele>89.9</ele>
        <time>2026-10-05T11:57:15Z</time>
      </trkpt>
      <trkpt lat="34.586369" lon="112.558742">
        <ele>89.7</ele>
        <time>2026-10-05T11:57:18Z</time>
      </trkpt>
      <trkpt lat="34.58647" lon="112.558729">
        <ele>89.7</ele>
        <time>2026-10-05T11:57:21Z</time>
      </trkpt>
      <trkpt lat="34.586555" lon="112.558717">
        <ele>89.6</ele>
        <time>2026-10-05T11:57:25Z</time>
      </trkpt>
      <trkpt lat="34.586657" lon="112.558715">
        <ele>89.7</ele>
        <time>2026-10-05T11:57:28Z</time>
      </trkpt>
      <trkpt lat="34.586752" lon="112.558711">
        <ele>89.7</ele>
        <time>2026-10-05T11:57:31Z</time>
      </trkpt>
      <trkpt lat="34.586802" lon="112.558705">
        <ele>89.7</ele>
        <time>2026-10-05T11:57:33Z</time>
      </trkpt>
      <trkpt lat="34.586884" lon="112.558683">
        <ele>89.4</ele>
        <time>2026-10-05T11:57:36Z</time>
      </trkpt>
      <trkpt lat="34.586978" lon="112.55863">
        <ele>89.2</ele>
        <time>2026-10-05T11:57:39Z</time>
      </trkpt>
      <trkpt lat="34.587044" lon="112.558561">
        <ele>89.2</ele>
        <time>2026-10-05T11:57:42Z</time>
      </trkpt>
      <trkpt lat="34.587077" lon="112.558497">
        <ele>89.2</ele>
        <time>2026-10-05T11:57:45Z</time>
      </trkpt>
      <trkpt lat="34.587111" lon="112.558407">
        <ele>89</ele>
        <time>2026-10-05T11:57:48Z</time>
      </trkpt>
      <trkpt lat="34.587127" lon="112.558271">
        <ele>89.2</ele>
        <time>2026-10-05T11:57:51Z</time>
      </trkpt>
      <trkpt lat="34.587114" lon="112.558161">
        <ele>89.4</ele>
        <time>2026-10-05T11:57:54Z</time>
      </trkpt>
      <trkpt lat="34.587096" lon="112.558095">
        <ele>89.3</ele>
        <time>2026-10-05T11:57:57Z</time>
      </trkpt>
      <trkpt lat="34.587028" lon="112.557976">
        <ele>89.6</ele>
        <time>2026-10-05T11:58:00Z</time>
      </trkpt>
      <trkpt lat="34.586927" lon="112.557885">
        <ele>89.7</ele>
        <time>2026-10-05T11:58:03Z</time>
      </trkpt>
      <trkpt lat="34.586848" lon="112.557839">
        <ele>89.5</ele>
        <time>2026-10-05T11:58:06Z</time>
      </trkpt>
      <trkpt lat="34.58675" lon="112.557801">
        <ele>89.1</ele>
        <time>2026-10-05T11:58:09Z</time>
      </trkpt>
      <trkpt lat="34.586638" lon="112.557784">
        <ele>89.4</ele>
        <time>2026-10-05T11:58:12Z</time>
      </trkpt>
      <trkpt lat="34.586538" lon="112.557783">
        <ele>89.5</ele>
        <time>2026-10-05T11:58:15Z</time>
      </trkpt>
      <trkpt lat="34.586471" lon="112.557782">
        <ele>89.6</ele>
        <time>2026-10-05T11:58:18Z</time>
      </trkpt>
      <trkpt lat="34.58638" lon="112.557787">
        <ele>89.5</ele>
        <time>2026-10-05T11:58:21Z</time>
      </trkpt>
      <trkpt lat="34.586261" lon="112.557796">
        <ele>89.4</ele>
        <time>2026-10-05T11:58:24Z</time>
      </trkpt>
      <trkpt lat="34.586165" lon="112.557804">
        <ele>89.4</ele>
        <time>2026-10-05T11:58:27Z</time>
      </trkpt>
      <trkpt lat="34.586122" lon="112.557805">
        <ele>89.3</ele>
        <time>2026-10-05T11:58:30Z</time>
      </trkpt>
      <trkpt lat="34.586026" lon="112.557815">
        <ele>89.4</ele>
        <time>2026-10-05T11:58:33Z</time>
      </trkpt>
      <trkpt lat="34.58591" lon="112.557829">
        <ele>89.6</ele>
        <time>2026-10-05T11:58:36Z</time>
      </trkpt>
      <trkpt lat="34.585819" lon="112.557843">
        <ele>89.5</ele>
        <time>2026-10-05T11:58:39Z</time>
      </trkpt>
      <trkpt lat="34.585765" lon="112.557853">
        <ele>89.5</ele>
        <time>2026-10-05T11:58:42Z</time>
      </trkpt>
      <trkpt lat="34.585695" lon="112.55789">
        <ele>89.6</ele>
        <time>2026-10-05T11:58:45Z</time>
      </trkpt>
      <trkpt lat="34.585563" lon="112.557985">
        <ele>89.7</ele>
        <time>2026-10-05T11:58:49Z</time>
      </trkpt>
      <trkpt lat="34.585533" lon="112.558046">
        <ele>89.9</ele>
        <time>2026-10-05T11:58:52Z</time>
      </trkpt>
      <trkpt lat="34.585518" lon="112.558142">
        <ele>89.8</ele>
        <time>2026-10-05T11:58:55Z</time>
      </trkpt>
      <trkpt lat="34.585575" lon="112.55838">
        <ele>89.8</ele>
        <time>2026-10-05T11:59:01Z</time>
      </trkpt>
      <trkpt lat="34.585616" lon="112.558439">
        <ele>89.7</ele>
        <time>2026-10-05T11:59:04Z</time>
      </trkpt>
      <trkpt lat="34.585739" lon="112.558553">
        <ele>89.6</ele>
        <time>2026-10-05T11:59:07Z</time>
      </trkpt>
      <trkpt lat="34.585906" lon="112.558662">
        <ele>89.5</ele>
        <time>2026-10-05T11:59:10Z</time>
      </trkpt>
      <trkpt lat="34.585986" lon="112.5587">
        <ele>89.5</ele>
        <time>2026-10-05T11:59:13Z</time>
      </trkpt>
      <trkpt lat="34.586136" lon="112.558723">
        <ele>89.4</ele>
        <time>2026-10-05T11:59:16Z</time>
      </trkpt>
      <trkpt lat="34.586309" lon="112.558731">
        <ele>89.4</ele>
        <time>2026-10-05T11:59:19Z</time>
      </trkpt>
      <trkpt lat="34.586443" lon="112.558723">
        <ele>89.4</ele>
        <time>2026-10-05T11:59:22Z</time>
      </trkpt>
      <trkpt lat="34.586521" lon="112.558713">
        <ele>89.4</ele>
        <time>2026-10-05T11:59:25Z</time>
      </trkpt>
      <trkpt lat="34.586637" lon="112.558709">
        <ele>89.4</ele>
        <time>2026-10-05T11:59:28Z</time>
      </trkpt>
      <trkpt lat="34.58677" lon="112.558707">
        <ele>89.3</ele>
        <time>2026-10-05T11:59:31Z</time>
      </trkpt>
      <trkpt lat="34.58683" lon="112.558697">
        <ele>89.3</ele>
        <time>2026-10-05T11:59:34Z</time>
      </trkpt>
      <trkpt lat="34.586877" lon="112.558685">
        <ele>89.4</ele>
        <time>2026-10-05T11:59:37Z</time>
      </trkpt>
      <trkpt lat="34.586933" lon="112.558664">
        <ele>89.5</ele>
        <time>2026-10-05T11:59:40Z</time>
      </trkpt>
      <trkpt lat="34.587013" lon="112.558607">
        <ele>89.3</ele>
        <time>2026-10-05T11:59:43Z</time>
      </trkpt>
      <trkpt lat="34.58704" lon="112.558576">
        <ele>89.3</ele>
        <time>2026-10-05T11:59:46Z</time>
      </trkpt>
      <trkpt lat="34.587087" lon="112.558493">
        <ele>89.2</ele>
        <time>2026-10-05T11:59:49Z</time>
      </trkpt>
      <trkpt lat="34.587115" lon="112.558415">
        <ele>89</ele>
        <time>2026-10-05T11:59:52Z</time>
      </trkpt>
      <trkpt lat="34.587131" lon="112.558272">
        <ele>89.2</ele>
        <time>2026-10-05T11:59:55Z</time>
      </trkpt>
      <trkpt lat="34.587126" lon="112.558203">
        <ele>89</ele>
        <time>2026-10-05T11:59:58Z</time>
      </trkpt>
      <trkpt lat="34.587104" lon="112.558115">
        <ele>89.1</ele>
        <time>2026-10-05T12:00:01Z</time>
      </trkpt>
      <trkpt lat="34.58706" lon="112.558023">
        <ele>88.9</ele>
        <time>2026-10-05T12:00:04Z</time>
      </trkpt>
      <trkpt lat="34.586961" lon="112.557911">
        <ele>89.2</ele>
        <time>2026-10-05T12:00:07Z</time>
      </trkpt>
      <trkpt lat="34.586903" lon="112.557868">
        <ele>89.3</ele>
        <time>2026-10-05T12:00:10Z</time>
      </trkpt>
      <trkpt lat="34.586798" lon="112.557816">
        <ele>89.2</ele>
        <time>2026-10-05T12:00:13Z</time>
      </trkpt>
      <trkpt lat="34.586707" lon="112.557793">
        <ele>89.1</ele>
        <time>2026-10-05T12:00:16Z</time>
      </trkpt>
      <trkpt lat="34.586577" lon="112.557784">
        <ele>89.2</ele>
        <time>2026-10-05T12:00:19Z</time>
      </trkpt>
      <trkpt lat="34.586509" lon="112.557785">
        <ele>89.1</ele>
        <time>2026-10-05T12:00:22Z</time>
      </trkpt>
      <trkpt lat="34.586418" lon="112.557789">
        <ele>89.1</ele>
        <time>2026-10-05T12:00:25Z</time>
      </trkpt>
      <trkpt lat="34.586308" lon="112.557798">
        <ele>89.1</ele>
        <time>2026-10-05T12:00:28Z</time>
      </trkpt>
      <trkpt lat="34.58622" lon="112.557807">
        <ele>89.1</ele>
        <time>2026-10-05T12:00:31Z</time>
      </trkpt>
      <trkpt lat="34.586119" lon="112.557814">
        <ele>89.1</ele>
        <time>2026-10-05T12:00:34Z</time>
      </trkpt>
      <trkpt lat="34.586026" lon="112.557822">
        <ele>89</ele>
        <time>2026-10-05T12:00:36Z</time>
      </trkpt>
      <trkpt lat="34.585942" lon="112.557831">
        <ele>89.1</ele>
        <time>2026-10-05T12:00:39Z</time>
      </trkpt>
      <trkpt lat="34.585888" lon="112.557838">
        <ele>89.2</ele>
        <time>2026-10-05T12:00:42Z</time>
      </trkpt>
      <trkpt lat="34.585802" lon="112.557855">
        <ele>89.3</ele>
        <time>2026-10-05T12:00:45Z</time>
      </trkpt>
      <trkpt lat="34.585667" lon="112.557928">
        <ele>89.2</ele>
        <time>2026-10-05T12:00:48Z</time>
      </trkpt>
      <trkpt lat="34.585591" lon="112.557993">
        <ele>89.2</ele>
        <time>2026-10-05T12:00:51Z</time>
      </trkpt>
      <trkpt lat="34.585549" lon="112.55806">
        <ele>89.1</ele>
        <time>2026-10-05T12:00:54Z</time>
      </trkpt>
      <trkpt lat="34.585535" lon="112.558319">
        <ele>89.2</ele>
        <time>2026-10-05T12:01:00Z</time>
      </trkpt>
      <trkpt lat="34.585568" lon="112.558444">
        <ele>89.1</ele>
        <time>2026-10-05T12:01:03Z</time>
      </trkpt>
      <trkpt lat="34.585594" lon="112.558501">
        <ele>89.1</ele>
        <time>2026-10-05T12:01:06Z</time>
      </trkpt>
      <trkpt lat="34.585702" lon="112.558622">
        <ele>89.2</ele>
        <time>2026-10-05T12:01:09Z</time>
      </trkpt>
      <trkpt lat="34.58585" lon="112.55871">
        <ele>89.1</ele>
        <time>2026-10-05T12:01:12Z</time>
      </trkpt>
      <trkpt lat="34.585943" lon="112.558738">
        <ele>89.1</ele>
        <time>2026-10-05T12:01:15Z</time>
      </trkpt>
      <trkpt lat="34.586059" lon="112.558748">
        <ele>89</ele>
        <time>2026-10-05T12:01:18Z</time>
      </trkpt>
      <trkpt lat="34.586201" lon="112.558755">
        <ele>89</ele>
        <time>2026-10-05T12:01:21Z</time>
      </trkpt>
      <trkpt lat="34.586355" lon="112.558756">
        <ele>89.2</ele>
        <time>2026-10-05T12:01:24Z</time>
      </trkpt>
      <trkpt lat="34.58643" lon="112.558745">
        <ele>89.1</ele>
        <time>2026-10-05T12:01:27Z</time>
      </trkpt>
      <trkpt lat="34.586526" lon="112.558729">
        <ele>89</ele>
        <time>2026-10-05T12:01:30Z</time>
      </trkpt>
      <trkpt lat="34.586678" lon="112.558717">
        <ele>88.9</ele>
        <time>2026-10-05T12:01:33Z</time>
      </trkpt>
      <trkpt lat="34.586793" lon="112.558707">
        <ele>89</ele>
        <time>2026-10-05T12:01:36Z</time>
      </trkpt>
      <trkpt lat="34.586855" lon="112.558693">
        <ele>88.9</ele>
        <time>2026-10-05T12:01:39Z</time>
      </trkpt>
      <trkpt lat="34.586941" lon="112.558657">
        <ele>88.7</ele>
        <time>2026-10-05T12:01:42Z</time>
      </trkpt>
      <trkpt lat="34.587037" lon="112.55857">
        <ele>88.7</ele>
        <time>2026-10-05T12:01:45Z</time>
      </trkpt>
      <trkpt lat="34.587089" lon="112.558471">
        <ele>88.7</ele>
        <time>2026-10-05T12:01:49Z</time>
      </trkpt>
      <trkpt lat="34.587118" lon="112.558364">
        <ele>88.6</ele>
        <time>2026-10-05T12:01:52Z</time>
      </trkpt>
      <trkpt lat="34.587125" lon="112.558221">
        <ele>88.8</ele>
        <time>2026-10-05T12:01:55Z</time>
      </trkpt>
      <trkpt lat="34.587104" lon="112.558121">
        <ele>88.8</ele>
        <time>2026-10-05T12:01:58Z</time>
      </trkpt>
      <trkpt lat="34.587087" lon="112.558071">
        <ele>88.7</ele>
        <time>2026-10-05T12:02:01Z</time>
      </trkpt>
      <trkpt lat="34.587018" lon="112.557958">
        <ele>88.8</ele>
        <time>2026-10-05T12:02:04Z</time>
      </trkpt>
      <trkpt lat="34.586904" lon="112.557853">
        <ele>88.8</ele>
        <time>2026-10-05T12:02:07Z</time>
      </trkpt>
      <trkpt lat="34.586841" lon="112.557827">
        <ele>88.7</ele>
        <time>2026-10-05T12:02:10Z</time>
      </trkpt>
      <trkpt lat="34.58678" lon="112.557805">
        <ele>88.5</ele>
        <time>2026-10-05T12:02:13Z</time>
      </trkpt>
      <trkpt lat="34.586694" lon="112.557789">
        <ele>88.6</ele>
        <time>2026-10-05T12:02:16Z</time>
      </trkpt>
      <trkpt lat="34.586577" lon="112.557783">
        <ele>88.7</ele>
        <time>2026-10-05T12:02:19Z</time>
      </trkpt>
      <trkpt lat="34.586507" lon="112.557788">
        <ele>88.6</ele>
        <time>2026-10-05T12:02:22Z</time>
      </trkpt>
      <trkpt lat="34.586416" lon="112.557791">
        <ele>88.7</ele>
        <time>2026-10-05T12:02:25Z</time>
      </trkpt>
      <trkpt lat="34.586322" lon="112.557801">
        <ele>88.7</ele>
        <time>2026-10-05T12:02:28Z</time>
      </trkpt>
      <trkpt lat="34.586183" lon="112.557807">
        <ele>88.7</ele>
        <time>2026-10-05T12:02:31Z</time>
      </trkpt>
      <trkpt lat="34.586101" lon="112.557814">
        <ele>88.7</ele>
        <time>2026-10-05T12:02:34Z</time>
      </trkpt>
      <trkpt lat="34.586007" lon="112.557824">
        <ele>88.4</ele>
        <time>2026-10-05T12:02:37Z</time>
      </trkpt>
      <trkpt lat="34.585906" lon="112.557833">
        <ele>88.5</ele>
        <time>2026-10-05T12:02:40Z</time>
      </trkpt>
      <trkpt lat="34.58576" lon="112.557871">
        <ele>88.6</ele>
        <time>2026-10-05T12:02:43Z</time>
      </trkpt>
      <trkpt lat="34.585692" lon="112.557904">
        <ele>88.6</ele>
        <time>2026-10-05T12:02:46Z</time>
      </trkpt>
      <trkpt lat="34.585605" lon="112.557962">
        <ele>88.7</ele>
        <time>2026-10-05T12:02:49Z</time>
      </trkpt>
      <trkpt lat="34.585531" lon="112.558046">
        <ele>88.8</ele>
        <time>2026-10-05T12:02:52Z</time>
      </trkpt>
      <trkpt lat="34.585511" lon="112.558145">
        <ele>88.7</ele>
        <time>2026-10-05T12:02:55Z</time>
      </trkpt>
      <trkpt lat="34.585512" lon="112.558219">
        <ele>88.7</ele>
        <time>2026-10-05T12:02:58Z</time>
      </trkpt>
      <trkpt lat="34.585524" lon="112.55832">
        <ele>88.8</ele>
        <time>2026-10-05T12:03:01Z</time>
      </trkpt>
      <trkpt lat="34.585571" lon="112.558473">
        <ele>88.8</ele>
        <time>2026-10-05T12:03:04Z</time>
      </trkpt>
      <trkpt lat="34.585616" lon="112.558536">
        <ele>88.7</ele>
        <time>2026-10-05T12:03:07Z</time>
      </trkpt>
      <trkpt lat="34.585703" lon="112.558628">
        <ele>88.6</ele>
        <time>2026-10-05T12:03:10Z</time>
      </trkpt>
      <trkpt lat="34.585823" lon="112.558707">
        <ele>88.6</ele>
        <time>2026-10-05T12:03:13Z</time>
      </trkpt>
      <trkpt lat="34.585979" lon="112.558752">
        <ele>88.4</ele>
        <time>2026-10-05T12:03:16Z</time>
      </trkpt>
      <trkpt lat="34.586035" lon="112.558752">
        <ele>88.5</ele>
        <time>2026-10-05T12:03:19Z</time>
      </trkpt>
      <trkpt lat="34.586163" lon="112.558758">
        <ele>88.4</ele>
        <time>2026-10-05T12:03:22Z</time>
      </trkpt>
      <trkpt lat="34.586285" lon="112.558766">
        <ele>88.6</ele>
        <time>2026-10-05T12:03:25Z</time>
      </trkpt>
      <trkpt lat="34.586419" lon="112.558748">
        <ele>88.5</ele>
        <time>2026-10-05T12:03:28Z</time>
      </trkpt>
      <trkpt lat="34.586455" lon="112.558743">
        <ele>88.6</ele>
        <time>2026-10-05T12:03:30Z</time>
      </trkpt>
      <trkpt lat="34.586549" lon="112.558727">
        <ele>88.7</ele>
        <time>2026-10-05T12:03:33Z</time>
      </trkpt>
      <trkpt lat="34.58666" lon="112.558724">
        <ele>88.7</ele>
        <time>2026-10-05T12:03:36Z</time>
      </trkpt>
      <trkpt lat="34.586744" lon="112.558717">
        <ele>88.7</ele>
        <time>2026-10-05T12:03:39Z</time>
      </trkpt>
      <trkpt lat="34.586824" lon="112.558703">
        <ele>88.6</ele>
        <time>2026-10-05T12:03:42Z</time>
      </trkpt>
      <trkpt lat="34.58692" lon="112.558669">
        <ele>88.6</ele>
        <time>2026-10-05T12:03:45Z</time>
      </trkpt>
      <trkpt lat="34.587051" lon="112.558544">
        <ele>88.4</ele>
        <time>2026-10-05T12:03:48Z</time>
      </trkpt>
      <trkpt lat="34.587112" lon="112.558394">
        <ele>88.4</ele>
        <time>2026-10-05T12:03:51Z</time>
      </trkpt>
      <trkpt lat="34.587126" lon="112.558301">
        <ele>88.5</ele>
        <time>2026-10-05T12:03:54Z</time>
      </trkpt>
      <trkpt lat="34.587114" lon="112.558157">
        <ele>88.4</ele>
        <time>2026-10-05T12:03:57Z</time>
      </trkpt>
      <trkpt lat="34.587058" lon="112.557991">
        <ele>88.4</ele>
        <time>2026-10-05T12:04:00Z</time>
      </trkpt>
      <trkpt lat="34.587019" lon="112.557924">
        <ele>88.5</ele>
        <time>2026-10-05T12:04:03Z</time>
      </trkpt>
      <trkpt lat="34.586936" lon="112.557853">
        <ele>88.4</ele>
        <time>2026-10-05T12:04:06Z</time>
      </trkpt>
      <trkpt lat="34.586794" lon="112.557814">
        <ele>88.5</ele>
        <time>2026-10-05T12:04:09Z</time>
      </trkpt>
      <trkpt lat="34.586675" lon="112.557815">
        <ele>88.5</ele>
        <time>2026-10-05T12:04:12Z</time>
      </trkpt>
      <trkpt lat="34.586593" lon="112.557825">
        <ele>88.5</ele>
        <time>2026-10-05T12:04:15Z</time>
      </trkpt>
      <trkpt lat="34.586472" lon="112.557841">
        <ele>88.5</ele>
        <time>2026-10-05T12:04:18Z</time>
      </trkpt>
      <trkpt lat="34.58632" lon="112.557856">
        <ele>88.5</ele>
        <time>2026-10-05T12:04:21Z</time>
      </trkpt>
      <trkpt lat="34.586209" lon="112.557868">
        <ele>88.4</ele>
        <time>2026-10-05T12:04:24Z</time>
      </trkpt>
      <trkpt lat="34.5861" lon="112.55788">
        <ele>88.6</ele>
        <time>2026-10-05T12:04:28Z</time>
      </trkpt>
      <trkpt lat="34.585959" lon="112.557897">
        <ele>88.5</ele>
        <time>2026-10-05T12:04:31Z</time>
      </trkpt>
      <trkpt lat="34.585852" lon="112.557923">
        <ele>88.7</ele>
        <time>2026-10-05T12:04:34Z</time>
      </trkpt>
      <trkpt lat="34.585783" lon="112.557957">
        <ele>88.4</ele>
        <time>2026-10-05T12:04:37Z</time>
      </trkpt>
      <trkpt lat="34.585688" lon="112.558016">
        <ele>88.2</ele>
        <time>2026-10-05T12:04:40Z</time>
      </trkpt>
      <trkpt lat="34.585581" lon="112.558119">
        <ele>88.4</ele>
        <time>2026-10-05T12:04:43Z</time>
      </trkpt>
      <trkpt lat="34.585535" lon="112.558207">
        <ele>88.6</ele>
        <time>2026-10-05T12:04:46Z</time>
      </trkpt>
      <trkpt lat="34.585518" lon="112.558269">
        <ele>88.6</ele>
        <time>2026-10-05T12:04:49Z</time>
      </trkpt>
      <trkpt lat="34.585526" lon="112.558359">
        <ele>88.5</ele>
        <time>2026-10-05T12:04:52Z</time>
      </trkpt>
      <trkpt lat="34.585568" lon="112.558465">
        <ele>88.4</ele>
        <time>2026-10-05T12:04:55Z</time>
      </trkpt>
      <trkpt lat="34.585611" lon="112.55851">
        <ele>88.5</ele>
        <time>2026-10-05T12:04:58Z</time>
      </trkpt>
      <trkpt lat="34.585696" lon="112.558563">
        <ele>88.6</ele>
        <time>2026-10-05T12:05:01Z</time>
      </trkpt>
      <trkpt lat="34.5858" lon="112.558599">
        <ele>88.5</ele>
        <time>2026-10-05T12:05:04Z</time>
      </trkpt>
      <trkpt lat="34.585968" lon="112.558625">
        <ele>88.5</ele>
        <time>2026-10-05T12:05:07Z</time>
      </trkpt>
      <trkpt lat="34.586058" lon="112.558633">
        <ele>88.5</ele>
        <time>2026-10-05T12:05:10Z</time>
      </trkpt>
      <trkpt lat="34.586203" lon="112.558644">
        <ele>88.6</ele>
        <time>2026-10-05T12:05:13Z</time>
      </trkpt>
      <trkpt lat="34.586363" lon="112.558657">
        <ele>88.3</ele>
        <time>2026-10-05T12:05:16Z</time>
      </trkpt>
      <trkpt lat="34.586559" lon="112.558681">
        <ele>88.3</ele>
        <time>2026-10-05T12:05:19Z</time>
      </trkpt>
      <trkpt lat="34.586649" lon="112.55869">
        <ele>88.3</ele>
        <time>2026-10-05T12:05:22Z</time>
      </trkpt>
    </trkseg>
  </trk>
</gpx>